rest_id,name,address,rate,latitude,longitude,street food,mediterranean,homemade,italian,pasta,burger,mexican,salad,vegan,vegetarian,wraps,kosher,breakfast,sandwich,soup,french,hummus,dessert,bakery,sweets,steak,pizza,asian,meat,ice cream,smoothie,cafe,healthy,american,indian,fish,thai,kebab,sushi,japanese,bowl,kids
1,Sabich Complete - Yomtov,"Shlomo Ibn Gvirol 99 Tel Aviv, Tel-Aviv",8.2,32.0858869,34.7816528,1,1,1,0,0,0,0,0,0,0,0,0,0,0,0,0,0,0,0,0,0,0,0,0,0,0,0,0,0,0,0,0,0,0,0,0,0
2,PASTA VIA | Ibn Gabirol,"Ibn Gvirol 142, Tel-Aviv",8.8,32.088744,34.7827316,1,0,0,1,1,0,0,0,0,0,0,0,0,0,0,0,0,0,0,0,0,0,0,0,0,0,0,0,0,0,0,0,0,0,0,0,0
3,Karnaf | Ibn Gvirol,"Ibn Gvirol 164, Tel-Aviv",8,32.0907065,34.7830492,1,0,0,0,0,1,1,1,1,1,1,0,0,0,0,0,0,0,0,0,0,0,0,0,0,0,0,0,0,0,0,0,0,0,0,0,0
4,Chawarma,"In which Shalom Sat 3, Ramat Gain, Tel-Aviv",8.8,32.068424,34.824785,1,1,0,0,0,0,0,1,0,0,0,1,0,0,0,0,0,0,0,0,0,0,0,0,0,0,0,0,0,0,0,0,0,0,0,0,0
5,Under The Tree,"202 Ben Yehuda, Tel-Aviv",8.6,32.0901144,34.7741419,0,0,0,0,0,0,0,1,0,0,0,0,1,1,1,0,0,0,0,0,0,0,0,0,0,0,0,0,0,0,0,0,0,0,0,0,0
6,I Love Sandwich,"Brenner 2, Tel Aviv, Tel-Aviv",9.4,32.0691502,34.7709009,0,0,0,0,0,0,0,0,0,0,0,1,0,1,0,1,0,0,0,0,0,0,0,0,0,0,0,0,0,0,0,0,0,0,0,0,0
7,JARS & BOWLS,"Ibn Gvirol 129, Tel-Aviv",8.6,32.0887191,34.7822646,0,0,0,0,0,0,0,1,1,1,0,0,0,0,0,0,0,0,0,0,0,0,0,0,0,0,0,0,0,0,0,0,0,0,0,0,0
8,Doron's Jachnun | Tel Aviv,"Malachi Israel 10, Tel-Aviv",8.8,32.092871,34.777187,0,1,1,0,0,0,0,0,0,1,0,0,0,0,0,0,0,0,0,0,0,0,0,0,0,0,0,0,0,0,0,0,0,0,0,0,0
9,Yanas Hummus Restaurant,"Frishman 88, Tel-Aviv",8.8,32.0792213,34.7793749,1,1,0,0,0,0,0,0,0,0,0,0,0,0,0,0,1,0,0,0,0,0,0,0,0,0,0,0,0,0,0,0,0,0,0,0,0
10,Hummus Asli,"Dizengoff 338 Tel Aviv-Jaffa, Tel-Aviv",7.8,32.0968373,34.7760788,0,1,0,0,0,0,0,0,0,0,0,0,0,0,0,0,1,0,0,0,0,0,0,0,0,0,0,0,0,0,0,0,0,0,0,0,0
11,Abulafia | TLV Port,"Exhibition 3, Tel-Aviv",8.2,,,0,0,0,0,0,0,0,0,0,1,0,0,0,0,0,0,0,1,1,0,0,0,0,0,0,0,0,0,0,0,0,0,0,0,0,0,0
12,BRETONNE | Ibn Gabirol,"Ibn Gvirol 52, Tel-Aviv",8.6,32.0777322,34.7814976,1,0,0,0,0,0,0,0,0,1,0,0,0,0,0,0,0,1,0,0,0,0,0,0,0,0,0,0,0,0,0,0,0,0,0,0,0
13,Hummus Abu Dubi,"King George 81, Tel-Aviv",7.8,32.0759729,34.7764908,0,0,0,0,0,0,0,1,0,0,0,0,0,0,0,0,1,0,0,0,0,0,0,0,0,0,0,0,0,0,0,0,0,0,0,0,0
14,Bourekas Amikam,"Ibn Gvirol 21, Tel Aviv, Tel-Aviv",8,32.073501,34.7816584,0,1,0,0,0,0,0,0,0,0,0,0,1,0,0,0,0,0,1,0,0,0,0,0,0,0,0,0,0,0,0,0,0,0,0,0,0
15,Mabali,"Herzl 75 Ramat Gan, Tel-Aviv",9.4,32.0870583,34.8148082,0,0,0,0,0,0,0,0,0,0,0,1,0,0,0,0,0,0,0,1,0,0,0,0,0,0,0,0,0,0,0,0,0,0,0,0,0
16,HaMalabiya | Ibn Gabirol,"Ibn Gvirol 39 Tel Aviv, Tel-Aviv",8.8,32.076086,34.7813507,0,1,0,0,0,0,0,0,1,0,0,0,0,0,0,0,0,1,0,0,0,0,0,0,0,0,0,0,0,0,0,0,0,0,0,0,0
17,Schnitzel Shika,"Yigal Alon 121, Tel-Aviv",8.4,32.0749125,34.7954481,1,1,0,0,0,0,0,0,0,0,0,0,0,1,0,0,0,0,0,0,0,0,0,0,0,0,0,0,0,0,0,0,0,0,0,0,0
18,Schnitzel Ha'Kikar,"Ibn Gvirol 79, Tel-Aviv",7.8,32.0838664,34.7811997,1,1,0,0,0,0,0,0,0,0,0,0,0,1,0,0,0,0,0,0,0,0,0,0,0,0,0,0,0,0,0,0,0,0,0,0,0
19,Mela,"Flower Ayatolies 20, Tel Aviv, Tel-Aviv",9.2,,,0,0,0,0,0,0,0,1,0,1,0,0,0,1,0,0,0,0,0,0,0,0,0,0,0,0,0,0,0,0,0,0,0,0,0,0,0
20,Hummus Ha'achim,"Bialik 14, Ramat Gan, Tel-Aviv",7.8,32.0801169,34.8150725,0,0,0,0,0,0,0,0,0,0,0,0,0,0,0,0,1,0,0,0,0,0,0,0,0,0,0,0,0,0,0,0,0,0,0,0,0
21,Hummus Haben Shel Hasuri | Yigal Alon,"Yigal Alon 121, Tel-Aviv",8.4,32.0749125,34.7954481,0,1,0,0,0,0,0,1,0,0,0,0,0,0,0,0,1,0,0,0,0,0,0,0,0,0,0,0,0,0,0,0,0,0,0,0,0
22,HaPatish 12,"Dad Hillel 3, Ramat Gan, Tel-Aviv",8.6,32.080045,34.822585,0,1,0,0,0,0,0,0,0,0,0,1,0,0,0,0,0,0,0,0,1,0,0,0,0,0,0,0,0,0,0,0,0,0,0,0,0
23,Edmund Coffee,"Yehuda Halevi 33, Tel Aviv, Tel-Aviv",9.2,32.0617342,34.7714459,0,0,0,0,0,0,0,0,0,0,0,0,1,1,0,0,0,0,0,0,0,0,0,0,0,1,1,0,0,0,0,0,0,0,0,0,0
24,Hummus Ful House,"Hasmonean 119, Tel Aviv, Tel-Aviv",9,32.0944013,34.7843229,0,0,0,0,0,0,0,0,0,0,0,1,0,0,0,0,1,0,0,0,0,0,0,0,0,0,0,0,0,0,0,0,0,0,0,0,0
25,Mifgash HaFalafel ve HaShawarma,"Etsel St 38, Tel Aviv, Tel-Aviv",8.2,32.0515033,34.7914653,1,1,0,0,0,0,0,0,0,0,0,1,0,0,0,0,0,0,0,0,0,0,0,0,0,0,0,0,0,0,0,0,0,0,0,0,0
26,Pita Rehov | Ramat Gan,"Ze'ev Jabotinsky 8 Ramat Gan, Tel-Aviv",8.2,32.0826703,34.8037342,1,1,0,0,0,0,0,0,0,0,0,1,0,1,0,0,0,0,0,0,0,0,0,0,0,0,0,0,0,0,0,0,0,0,0,0,0
27,Shawarma Ha'carmel,"Daniel 27, Tel Aviv Jaffa, Tel-Aviv",8.4,32.067598,34.766569,1,1,0,0,0,0,0,0,0,0,0,1,0,0,0,0,0,0,0,0,0,0,0,0,0,0,0,0,0,0,0,0,0,0,0,0,0
28,Savta Sandwich Shop,"Stone Gvirol 65, Tel-Aviv",8.8,32.0652951,34.776259,1,0,0,0,0,0,0,0,0,1,0,0,0,1,0,0,0,0,0,0,0,0,0,0,0,0,0,0,0,0,0,0,0,0,0,0,0
29,Hummus Hakerem | Ha'Rakevet,"Train 28, Tel Aviv, Tel-Aviv",9.2,,,0,0,0,0,0,0,0,1,0,0,0,1,0,0,0,0,1,0,0,0,0,0,0,0,0,0,0,0,0,0,0,0,0,0,0,0,0
30,The Showroom Bakehouse | Pinkas,"A pinkas 3, Tel-Aviv",9.4,32.0911077,34.7835138,0,0,0,0,0,0,0,0,0,0,0,0,0,0,0,0,0,1,1,1,0,0,0,0,0,0,0,0,0,0,0,0,0,0,0,0,0
31,Cafe Dallal,"Jabotinsky 108, Tel Aviv, Tel-Aviv",8.2,32.0872434,34.7863786,0,0,0,0,0,0,0,0,0,0,0,0,1,0,0,0,0,1,0,0,0,0,0,0,0,0,1,0,0,0,0,0,0,0,0,0,0
32,rebar Kosher | Bialik RG,"Bialik 76, Ramat Gan, Tel-Aviv",8.4,32.0857936,34.8115303,0,0,0,0,0,0,0,0,1,0,0,1,0,0,0,0,0,0,0,0,0,0,0,0,0,1,0,1,0,0,0,0,0,0,0,0,0
33,rebar | TLV Towers,"Nahalat yithakha, 18 televiv, Tel-Aviv",8,32.075597,34.799186,0,0,0,0,0,0,0,0,1,0,0,0,0,0,0,0,0,0,0,0,0,0,0,0,0,1,0,1,0,0,0,0,0,0,0,0,0
34,rebar | Mikado Center,"Aaron Becker 8, Tel Aviv, Tel-Aviv",8.6,,,0,0,0,0,0,0,0,0,1,0,0,0,0,0,0,0,0,0,0,0,0,0,0,0,0,1,0,1,0,0,0,0,0,0,0,0,0
35,Tabun Ben Yehuda,"Ben Yehuda 145, Tel-Aviv",7.6,32.0875178,34.7730724,1,0,0,0,0,0,0,0,0,0,0,0,1,0,0,0,0,0,1,0,0,0,0,0,0,0,0,0,0,0,0,0,0,0,0,0,0
36,Mr. Donuts | Tel Aviv,"Ibn Gvirol 90, Tel Aviv, Tel-Aviv",8.4,32.0825736,34.7814777,0,0,0,0,0,0,0,0,0,0,0,1,0,0,0,0,0,1,0,1,0,0,0,0,0,0,0,0,0,0,0,0,0,0,0,0,0
37,Bourekas Shel Ima | Levinski,"Levinski St 46, Tel-Aviv",8.6,32.0594197,34.772904,0,0,0,0,0,0,0,0,0,0,0,1,1,0,0,0,0,0,1,0,0,0,0,0,0,0,0,0,0,0,0,0,0,0,0,0,0
38,Eats Cafeteria | Ben Gurion,"The priest person 1, Tel-Aviv",8.8,,,0,0,0,0,0,0,0,1,0,1,0,0,0,0,0,0,0,0,0,0,0,0,0,0,0,0,0,0,0,0,0,0,0,0,0,0,0
39,Salene Frietag Bagels,"Shenkin 16, Tel-Aviv",8.4,32.0694559,34.7720739,1,0,0,0,0,0,0,0,0,0,0,0,1,1,0,0,0,0,0,0,0,0,0,0,0,0,0,0,0,0,0,0,0,0,0,0,0
40,Itzik's Grilled Chicken,"Jeremiah 52, Tel-Aviv",8.6,32.0949,34.778178,0,0,1,0,0,0,0,0,0,0,0,1,0,0,0,0,0,0,0,0,1,0,0,0,0,0,0,0,0,0,0,0,0,0,0,0,0
41,Hummus Acram,"Sheinkin 59 Tel Aviv, Tel-Aviv",8.8,32.0684191,34.7773662,1,1,0,0,0,0,0,0,0,0,0,0,0,0,0,0,1,0,0,0,0,0,0,0,0,0,0,0,0,0,0,0,0,0,0,0,0
42,Hummus Neri,"Tuval 36, Ramat Gan, Tel-Aviv",8.8,32.0861136,34.8027374,1,1,0,0,0,0,0,0,0,0,0,1,0,0,0,0,1,0,0,0,0,0,0,0,0,0,0,0,0,0,0,0,0,0,0,0,0
43,Sabich Deluxe,"Hope Israel 1, Tel Aviv, Tel-Aviv",9,32.0366231,34.7962753,1,1,0,0,0,0,0,0,0,0,0,1,0,1,0,0,0,0,0,0,0,0,0,0,0,0,0,0,0,0,0,0,0,0,0,0,0
44,Lechem Snir | BSR,"16 Bar Kochva ST, Bnei None, Israel, Tel-Aviv",8.2,32.0752227,34.772388,0,0,0,0,0,0,0,1,0,0,0,1,0,1,0,0,0,0,0,0,0,0,0,0,0,0,0,0,0,0,0,0,0,0,0,0,0
45,Sabich Hasharon,"Tuval 34, Ramat Gan, Tel-Aviv",8.8,32.0862698,34.8028963,1,1,0,0,0,0,0,0,0,0,0,0,0,1,0,0,0,0,0,0,0,0,0,0,0,0,0,0,0,0,0,0,0,0,0,0,0
46,Bourekas Tel Aviv,"A whole way 50, Tel-Aviv",9.2,,,1,1,0,0,0,0,0,0,0,0,0,0,0,0,0,0,0,0,0,0,0,0,0,0,0,0,0,0,0,0,0,0,0,0,0,0,0
47,Hummus Ben Shel Suri | Carmel,"Hillel Old 10, Tel-Aviv",8.2,,,0,1,0,0,0,0,0,0,0,0,0,0,0,0,0,0,1,0,0,0,0,0,0,0,0,0,0,0,0,0,0,0,0,0,0,0,0
48,Meet Meat,"Want 19 Ramat Gan, Tel-Aviv",7.6,32.068424,34.824785,0,0,1,0,0,0,0,1,0,0,0,0,0,0,0,0,1,0,0,0,0,0,0,0,0,0,0,0,0,0,0,0,0,0,0,0,0
49,SoBing | Ibn Gabirol,"Ibn Gvirol 65, Tel Aviv, Tel-Aviv",7.8,32.0791077,34.7811288,0,0,0,0,0,0,0,0,0,0,0,0,0,0,0,0,0,1,0,0,0,0,0,0,1,0,0,0,0,0,0,0,0,0,0,0,0
50,Coffee Street TLV,"Yigal Alon 65 Tel Aviv, Tel-Aviv",8.6,32.0657718,34.7922834,0,0,0,0,1,0,0,1,0,0,0,1,0,0,0,0,0,0,0,0,0,0,0,0,0,0,0,0,0,0,0,0,0,0,0,0,0
51,Taam HaHummus,"The snail 2 Ramat Gan, Tel-Aviv",7.8,32.068424,34.824785,0,1,0,0,0,0,0,0,0,0,0,0,0,0,0,0,1,0,0,0,0,0,0,0,0,0,0,0,0,0,0,0,0,0,0,0,0
52,Papaya Dog,"Pickle Pulmer 25, Tel-Aviv",8.2,,,1,0,0,0,0,0,0,0,0,0,0,0,0,0,0,0,0,0,0,0,0,0,0,0,0,0,0,0,1,0,0,0,0,0,0,0,0
53,Etrogman | TLV,"Allenby 60, Tel-Aviv",8.6,32.06981,34.7703267,0,0,0,0,0,0,0,0,1,0,0,0,1,0,0,0,0,1,0,0,0,0,0,0,0,1,0,0,0,0,0,0,0,0,0,0,0
54,Bhagsu Cake | Ramat Gan,"Showed 12, Tel-Aviv",9,,,0,0,0,0,0,0,0,0,0,0,0,0,0,0,0,0,0,0,0,0,0,0,0,0,0,0,0,0,0,1,0,0,0,0,0,0,0
55,rebar | Shuster,"Dad Ahimair 27, Tel-Aviv",8.4,,,0,0,0,0,0,0,0,0,1,0,0,0,0,0,0,0,0,0,0,0,0,0,0,0,0,1,0,1,0,0,0,0,0,0,0,0,0
56,Cafe Bucke | Yehuda Maccabi,"Yehuda Maccabi 40 Tel Aviv, Tel-Aviv",8.6,32.0937392,34.7914334,0,0,0,0,0,0,0,0,0,1,0,0,1,0,0,0,0,0,0,0,0,0,0,0,0,0,1,0,0,0,0,0,0,0,0,0,0
57,Golda | Weizmann City Mall,"Weizman 14, Tel Aviv, Tel-Aviv",8.8,32.081588,34.7892127,0,0,0,0,0,0,0,0,0,0,0,0,0,0,0,0,0,1,0,0,0,0,0,0,1,0,0,0,0,0,0,0,0,0,0,0,0
58,Lilush,"Frishman 73, Tel-Aviv",8.6,32.0796678,34.7789079,0,0,0,0,1,0,0,0,0,0,0,0,0,1,1,0,0,0,0,0,0,0,0,0,0,0,0,0,0,0,0,0,0,0,0,0,0
59,Arty,"Arlozorov 188 Tel Aviv, Tel-Aviv",8.2,32.0828497,34.7919669,0,0,0,0,0,0,0,1,0,0,0,1,0,0,0,0,0,1,1,0,0,0,0,0,0,0,0,0,0,0,0,0,0,0,0,0,0
60,Reviva & Celia Deli,"Nissim Aloni 10, Tel-Aviv",8.4,32.0889232,34.7972939,0,0,0,0,0,0,0,1,0,0,0,0,0,0,0,0,0,0,0,0,0,0,0,1,0,0,0,1,0,0,1,0,0,0,0,0,0
61,Bread & Co,"Ben Yehuda 128 Tel Aviv, Tel-Aviv",8.6,32.0845783,34.7724064,0,0,0,0,0,0,0,0,0,0,0,0,1,1,0,0,0,0,0,0,0,1,0,0,0,0,1,0,0,0,0,0,0,0,0,0,0
62,Kaspi | Ben Yehuda,"Arlozorov 13 Tel Aviv, Tel-Aviv",8.6,32.0875446,34.772923,1,1,0,0,0,0,0,0,0,0,0,1,0,0,0,0,1,0,0,0,0,0,0,0,0,0,0,0,0,0,0,0,0,0,0,0,0
63,Rocket Panini,"Rabbi Akiva 17, Tel Aviv, Tel-Aviv",8,32.0694266,34.7698137,1,0,0,0,0,0,0,0,1,0,0,0,0,1,0,0,0,0,0,0,0,0,0,0,0,0,0,0,0,0,0,0,0,0,0,0,0
64,Bourekas Ramat Aviv,"Path nmir 170, Tel-Aviv",6.8,,,1,0,0,0,0,0,0,0,0,0,0,0,1,0,0,0,0,0,0,0,0,0,0,0,0,0,0,0,0,0,0,0,0,0,0,0,0
65,Etzel Mali,"Harav Herzog Sat 27, Jeevayim, Tel-Aviv",8.8,32.095122,34.79644,0,0,1,0,0,0,0,0,0,0,0,1,0,1,0,0,0,0,0,0,0,0,0,0,0,0,0,0,0,0,0,0,0,0,0,0,0
66,McDonald's® Ichilov,"Weizmann st 14, Tel Aviv-Yafo, Tel-Aviv",6.8,32.081588,34.7892127,0,0,0,0,0,1,0,0,0,0,0,0,0,0,0,0,0,0,0,0,0,0,0,0,0,0,0,0,0,0,0,0,0,0,0,0,0
67,Sprinkles Bakery,"Yigal Alon 94, Tel Aviv, Tel-Aviv",9,32.0685272,34.7941568,0,0,0,0,0,0,0,0,0,0,0,0,0,0,0,0,0,1,0,0,0,0,0,0,0,0,0,0,0,0,0,0,0,0,0,0,0
68,Khao-San,"Carmel 5, Tel Aviv Jaffa, Tel-Aviv",8.4,32.067833,34.767783,1,0,0,0,0,0,0,0,0,0,0,0,0,0,0,0,0,0,0,0,0,0,1,0,0,0,0,0,0,0,0,1,0,0,0,0,0
69,Hummus Ashkara,"45 Jeremiah, Tel-Aviv",8.6,32.0947151,34.7766799,0,0,0,0,0,0,0,1,0,0,0,1,0,0,0,0,1,0,0,0,0,0,0,0,0,0,0,0,0,0,0,0,0,0,0,0,0
70,Anastasia,"Reigns 11, Tel-Aviv",9.2,32.0814683,34.7756025,0,0,0,0,0,0,0,0,1,0,0,0,1,1,0,0,0,0,0,0,0,0,0,0,0,0,0,0,0,0,0,0,0,0,0,0,0
71,Menza | Homemade Food,"Tuval 28, Ramat Gan, Tel-Aviv",9,32.0867804,34.8031489,0,1,1,0,0,0,0,0,0,0,0,1,0,0,0,0,0,0,0,0,0,0,0,0,0,0,0,0,0,0,0,0,0,0,0,0,0
72,Mifgash Bar Lin | Bursa,"Tuval 16, Ramat Gan, Tel-Aviv",8.6,32.0878082,34.8037221,0,0,0,0,0,1,0,1,0,0,0,1,0,1,0,0,0,0,0,0,0,0,0,0,0,0,0,0,0,0,0,0,0,0,0,0,0
73,Hummus Hahagana,"Yigal Alon 2 Tel Aviv, Tel-Aviv",9.4,32.0541047,34.7917827,1,1,0,0,0,0,0,0,0,0,0,0,0,0,0,0,1,0,0,0,0,0,0,0,0,0,0,0,0,0,0,0,0,0,0,0,0
74,Nuti Bakery,"Dizengoff 274, Tel Aviv, Tel-Aviv",9.4,32.0919345,34.7763881,0,0,0,0,0,0,0,0,0,0,0,0,0,0,0,0,0,1,1,0,0,0,0,0,0,0,0,0,0,0,0,0,0,0,0,0,0
75,Cafe Hamaniya,"Basel 37, Tel-Aviv",8.8,32.0899502,34.7802777,0,0,0,0,0,0,0,1,0,1,0,0,0,0,0,0,0,0,0,0,0,0,0,0,0,0,1,0,0,0,0,0,0,0,0,0,0
76,Sabich Tshernechovski,"Tchernichovsky 2, Tel-Aviv",8.6,32.0708204,34.770174,1,0,1,0,0,0,0,0,1,0,0,0,0,1,0,0,0,0,0,0,0,0,0,0,0,0,0,0,0,0,0,0,0,0,0,0,0
77,Mido,"Ben Shemen 4, Tel Aviv, Tel-Aviv",9,32.075347,34.7945564,0,0,1,0,0,0,0,0,0,1,0,0,0,0,0,0,0,0,0,0,0,0,1,0,0,0,0,0,0,0,0,0,0,0,0,0,0
78,Miznon Shiraz | TLV,"Meshi 6, Tel Aviv, Tel-Aviv",9.2,32.0675589,34.7701572,0,0,0,0,0,0,0,1,0,1,0,0,0,1,0,0,0,0,0,0,0,0,0,0,0,0,0,0,0,0,0,0,0,0,0,0,0
79,Hummus Meddamas | Ramat Aviv,"Brazil 17, Tel Aviv, Tel-Aviv",8.2,32.1116561,34.7967855,0,1,0,0,0,0,0,0,0,0,0,1,0,0,0,0,1,0,0,0,0,0,0,0,0,0,0,0,0,0,0,0,0,0,0,0,0
80,Vaniglia | Ibn Gabirol,"Ibn Gvirol 98 Tel Aviv, Tel-Aviv",8.8,32.0833803,34.7815438,0,0,0,0,0,0,0,0,0,0,0,0,0,0,0,0,0,1,0,1,0,0,0,0,1,0,0,0,0,0,0,0,0,0,0,0,0
81,Sabich Frishman | Bursa,"Zissman Shalom 3, Ramat Gan, Tel-Aviv",8.6,32.0835776,34.8005059,1,1,0,0,0,0,0,0,0,0,0,1,0,1,0,0,0,0,0,0,0,0,0,0,0,0,0,0,0,0,0,0,0,0,0,0,0
82,Sharon Ful,"Eilat 22, Tel-Aviv",9,32.0577162,34.763619,1,0,0,0,0,0,0,0,0,0,0,1,0,0,0,0,1,0,0,0,0,0,0,0,0,0,0,0,0,0,0,0,0,0,0,0,0
83,Arcaffé | Sarona,"Kalman Protects 3, Tel-Aviv",8.8,,,0,0,0,0,0,0,0,1,0,1,0,0,1,1,0,0,0,0,1,1,0,0,0,0,0,0,0,0,0,0,0,0,0,0,0,0,0
84,Paradiso Del Gelato,"Bethlehem 3, Tel Aviv, Tel-Aviv",9.2,32.0709057,34.7710848,0,0,0,1,0,0,0,0,0,0,0,0,0,0,0,0,0,1,0,0,0,0,0,0,1,0,0,0,0,0,0,0,0,0,0,0,0
85,Hummus Bahadunas | Yad Harutzim,"Handsmades 11 Tel Aviv, Tel-Aviv",8.6,,,0,1,0,0,0,0,0,0,0,0,0,1,0,0,0,0,1,0,0,0,0,0,0,0,0,0,0,0,0,0,0,0,0,0,0,0,0
86,Shawarma Corner,"UAV 2, Tel Aviv, Tel-Aviv",7.2,32.1447983,34.8025752,1,0,0,0,0,0,0,0,0,0,0,1,0,1,0,0,0,0,0,0,0,0,0,0,0,0,0,0,0,0,0,0,1,0,0,0,0
87,Congress Basel,"Ibn Gvirol 141, Tel-Aviv",8.8,32.0896682,34.7824496,1,0,0,0,0,0,0,0,0,0,0,0,0,1,0,0,1,0,0,0,0,0,0,0,0,0,0,0,0,0,0,0,0,0,0,0,0
88,Empanado | Tel Aviv,"Carmel 7, Tel Aviv, Tel-Aviv",8.4,32.0697059,34.7701066,1,0,1,0,0,0,0,0,0,0,0,0,0,0,0,0,0,0,0,0,0,0,0,0,0,0,0,0,0,0,0,0,0,0,0,0,0
89,Sabich Frishman | Ibn Gvirol,"Ibn Gvirol 64, Tel Aviv, Tel-Aviv",8.4,32.0798565,34.7815729,1,1,0,0,0,0,0,0,0,0,0,0,0,0,0,0,1,0,0,0,0,0,0,0,0,0,0,0,0,0,0,0,0,0,0,0,0
90,Superfood Salad Bar,"Zissman Shalom 3 Ramat Gan, Tel-Aviv",8.4,32.0835776,34.8005059,0,0,0,0,0,0,0,1,0,1,0,1,0,0,0,0,0,0,0,0,0,0,0,0,0,0,0,1,0,0,0,0,0,0,0,0,0
91,Pizza By SHINE,"Solomon King 38, Tel-Aviv",8.6,32.07947235,34.77715705,0,0,0,1,1,0,0,1,0,0,0,0,1,1,0,0,0,0,0,0,0,1,0,0,0,0,0,0,0,0,0,0,0,0,0,0,0
92,Jachnoon Call,"Jabotinsky 20, Ramat Gan, Tel-Aviv",8.4,32.083261,34.806262,0,1,1,0,0,0,0,0,0,0,0,0,1,0,0,0,0,0,0,0,0,0,0,0,0,0,0,0,0,0,0,0,0,0,0,0,0
93,Chicken Rotisserie | Shenkin,"Shankin 55, Tel Aviv, Tel-Aviv",8.8,,,1,0,0,0,0,0,0,0,0,0,0,0,0,1,0,0,0,0,0,0,0,0,0,0,0,0,0,0,0,0,0,0,0,0,0,0,0
94,Alegria,"Ibn Gvirol 165, Tel-Aviv",9.2,32.0922934,34.7829835,0,0,0,0,0,0,0,1,1,0,0,0,0,0,0,0,0,0,0,0,0,0,0,0,0,0,0,1,0,0,0,0,0,0,0,0,0
95,Hummus Abu Adham,"Carlebach 7, Tel Aviv, Tel-Aviv",9.2,32.0668327,34.7832866,1,1,0,0,0,0,0,0,1,0,0,0,0,0,0,0,1,0,0,0,0,0,0,0,0,0,0,0,0,0,0,0,0,0,0,0,0
96,Dubnov 8,"Dubnov 8, Tel-Aviv",8.4,32.0746153,34.7838751,0,0,0,0,0,0,0,1,0,0,0,0,1,0,0,0,0,0,0,0,0,0,0,0,0,0,0,0,0,0,0,0,0,0,0,0,0
97,Golda Kosher | Azrieli TLV,"Menachem Begin 132, Tel Aviv, Tel-Aviv",8.8,32.0930881,34.8322718,0,0,0,0,0,0,0,0,0,0,0,1,0,0,0,0,0,1,0,1,0,0,0,0,1,0,0,0,0,0,0,0,0,0,0,0,0
98,PokeShop | Ibn Gabirol,"Ibn Gvirol 62 Tel Aviv, Tel-Aviv",8.2,32.0792868,34.7816028,0,0,0,0,0,0,0,0,0,1,0,1,0,0,0,0,0,0,0,0,0,0,0,1,0,0,0,0,0,0,1,0,0,0,0,0,0
99,SUPER PIZZA,"Levontin 19 Tel Aviv, Tel-Aviv",8.8,32.0625914,34.7763019,1,0,0,0,0,0,0,0,0,1,0,0,0,0,0,0,0,0,0,0,0,1,0,0,0,0,0,0,0,0,0,0,0,0,0,0,0
100,Nola American Bakery,"Dizengoff 197, Tel-Aviv",8.8,32.0870692,34.7748155,0,0,0,0,0,0,0,0,0,0,0,0,1,1,0,0,0,1,0,0,0,0,0,0,0,0,0,0,0,0,0,0,0,0,0,0,0
101,Pokai,"Katznelson 50, Givatayim, Tel-Aviv",8.8,32.0751084,34.8072991,0,0,0,0,0,0,0,1,0,0,0,1,0,0,0,0,0,0,0,0,0,0,1,0,0,0,0,1,0,0,0,0,0,0,0,0,0
102,Carmeli's Bagels | TLV,"We were used 19, Tel Aviv, Tel-Aviv",9.2,,,0,0,0,0,0,0,0,1,0,0,0,1,1,1,0,0,0,0,0,0,0,0,0,0,0,0,0,0,0,0,0,0,0,0,0,0,0
103,Pancake House TLV | Rabin Square,"Ibn Gvirol 61, Tel Aviv, Tel-Aviv",8.6,32.0787143,34.7811354,0,0,0,0,0,0,0,0,1,0,0,0,1,1,0,0,0,1,0,0,0,0,0,0,0,0,0,0,0,0,0,0,0,0,0,0,0
104,Reno Emilia,"Through Dad Hillel 7 Ramat Gan, Tel-Aviv",8.8,32.080045,34.822585,0,0,0,1,1,0,0,0,0,0,0,0,0,1,0,0,0,0,0,0,0,0,0,0,0,0,0,0,0,0,0,0,0,0,0,0,0
105,Iris's Kitchen,"Elimelech 1, Ramat Gan, Tel-Aviv",9,32.0865537,34.8152615,0,0,1,0,0,0,0,0,0,0,0,1,0,0,0,0,0,0,0,0,0,0,0,0,0,0,0,0,0,0,0,0,0,0,0,0,0
106,Oh Mama,"King George 26 Tel Aviv, Tel-Aviv",8.6,32.071986,34.7737387,0,1,1,0,0,0,0,0,0,0,0,1,0,0,0,0,0,0,0,0,0,0,0,0,0,0,0,0,0,0,0,0,0,0,0,0,0
107,Denita Shake,"Ibn Gvirol 86, Tel Aviv, Tel-Aviv",8.8,32.0823386,34.7814705,0,0,0,0,0,0,0,0,1,0,0,0,0,0,0,0,0,1,0,0,0,0,0,0,0,1,0,0,0,0,0,0,0,0,0,0,0
108,AMS Cookies,"Ben Yehuda 15, Tel Aviv, Tel-Aviv",8.8,32.0751294,34.7679243,0,0,0,0,0,0,0,0,1,0,0,0,0,0,0,0,0,1,0,0,0,0,0,0,1,0,0,0,0,0,0,0,0,0,0,0,0
109,Juice and more,"Bograshov 61 Tel Aviv, Tel-Aviv",9.4,32.0755477,34.772683,0,0,0,0,0,0,0,0,1,0,0,0,0,0,0,0,0,0,0,0,0,0,0,0,0,1,0,0,0,0,0,0,0,0,0,0,0
110,Hasultan's Shawarma,"Jordan 94, Ramat Gan, Tel-Aviv",8.4,32.068424,34.824785,1,1,0,0,0,0,0,0,0,0,0,1,0,0,0,0,0,0,0,0,0,0,0,0,0,0,0,0,0,0,0,0,0,0,0,0,0
111,JAPO | Bursa,"19 tuval st.Ramat gan, Tel-Aviv",8.6,32.0845724,34.8022224,0,0,0,0,0,0,0,1,0,0,0,1,0,0,0,0,0,0,0,0,0,0,0,0,0,0,0,0,0,0,0,0,0,1,1,0,0
112,Loveat,"Dizengoff 232, Tel-Aviv",8.8,32.0893574,34.7757839,0,0,0,0,0,0,0,1,0,1,0,0,0,1,0,0,0,0,0,0,0,0,0,0,0,0,1,0,0,0,0,0,0,0,0,0,0
113,Shlomo & Doron Hummus,"Yishkon St 29, Tel Aviv, Tel-Aviv",9,32.06901,34.767609,0,0,0,0,0,0,0,1,1,0,0,0,0,0,0,0,1,0,0,0,0,0,0,0,0,0,0,0,0,0,0,0,0,0,0,0,0
114,Begin's Coffee,"Through 126, Tel Aviv, Tel-Aviv",9.2,,,0,0,0,0,0,0,0,1,0,0,0,1,1,1,0,0,0,0,0,0,0,0,0,0,0,0,0,0,0,0,0,0,0,0,0,0,0
115,MOTO La Pizza,"Jerusalem Boulevard 32, Ramat Gan, Tel-Aviv",8.8,32.0846325,34.8297444,0,0,0,1,0,0,0,1,0,0,0,1,0,0,0,0,0,0,0,0,0,1,0,0,0,0,0,0,0,0,0,0,0,0,0,0,0
116,Mr. Pretzels | Givatayim,"Via Yitzhak Rabin 53 Givatayim, Tel-Aviv",8,32.072176,34.808871,0,0,0,0,0,0,0,0,0,0,0,1,0,0,0,0,0,1,1,0,0,0,0,0,0,0,0,0,0,0,0,0,0,0,0,0,0
117,Aroma | Bursa Ramat Gan,"Jabotinsky 7, Ramat Gan, Tel-Aviv",8.4,32.0833871,34.8037261,0,0,0,0,0,0,0,1,0,0,0,0,0,1,0,0,0,0,0,0,0,0,0,0,0,0,1,0,0,0,0,0,0,0,0,0,0
118,Oakberry,"Frishman 42, Tel Aviv, Tel-Aviv",8.6,32.0796232,34.7733584,0,0,0,0,0,0,0,0,1,0,0,0,0,0,0,0,0,0,0,0,0,0,0,0,0,1,0,0,0,0,0,0,0,0,0,1,0
119,Ben Ami Salad Bar,"Nachmani 21, Tel Aviv, Tel-Aviv",8.2,32.0660673,34.7747282,0,0,0,0,1,0,0,1,0,0,0,1,1,0,0,0,0,0,0,0,0,0,0,0,0,0,0,0,0,0,0,0,0,0,0,0,0
120,Arale | North TLV,"Taggor 30, Tel-Aviv",8.8,32.1165125,34.796767,1,0,1,0,0,0,0,0,0,0,0,0,0,0,0,0,1,0,0,0,0,0,0,0,0,0,0,0,0,0,0,0,0,0,0,0,0
121,Red Meat | Dizengoff,"Dizengoff 271, Tel Aviv, Tel-Aviv",8,32.095215,34.7761422,1,0,0,0,0,0,0,1,0,0,0,0,0,1,0,0,0,0,0,0,0,0,0,0,0,0,0,0,0,0,0,0,0,0,0,0,0
122,Eats Cafeteria | Sheinkin,"Sheinkin St 20, Tel Aviv, Tel-Aviv",8.8,32.0693771,34.7724094,0,0,0,0,0,0,0,1,0,0,0,0,0,1,0,0,0,0,0,0,0,0,0,0,0,0,1,0,0,0,0,0,0,0,0,0,0
123,Rothschilda | Yehudit Boulevard,"Judaism 11 Tel Aviv, Tel-Aviv",8.6,,,0,0,0,0,0,0,0,1,0,0,0,0,1,0,0,0,0,0,0,0,0,0,0,0,0,0,0,0,0,0,0,0,0,0,0,0,0
124,Leggenda | Dizengoff Square,"Dizengoff 94, Tel Aviv, Tel-Aviv",8.8,32.0784152,34.7742087,0,0,0,0,0,0,0,0,0,0,0,0,0,0,0,0,0,1,0,1,0,0,0,0,1,0,0,0,0,0,0,0,0,0,0,0,0
125,Aluf Ha'shnitzel,"Hasmoneans 119, Tel-Aviv",8.6,,,1,0,1,0,0,0,0,0,0,0,0,1,0,0,0,0,0,0,0,0,0,0,0,0,0,0,0,0,0,0,0,0,0,0,0,0,0
126,Fleishman | B.S.R,"Bar Kochba 16 Bnei Brak, Tel-Aviv",8.6,32.0941944,34.8236044,1,0,0,0,0,0,0,0,0,0,0,1,0,1,0,0,0,0,0,0,0,0,0,0,0,0,0,0,0,0,0,0,0,0,0,0,0
127,Falafel Gina | Begin,"Menachem Begin 126, Tel Aviv, Tel-Aviv",8.4,32.0930882,34.8322717,1,1,0,0,0,0,0,0,1,0,0,0,0,0,0,0,0,0,0,0,0,0,0,0,0,0,0,0,0,0,0,0,0,0,0,0,0
128,Turbo Sausage Toast | North TLV,"Path Nmir Mordechai 170, Tel-Aviv",6,,,1,0,0,0,0,0,0,0,0,0,0,0,0,1,0,0,0,0,0,0,0,0,0,0,0,0,0,0,0,0,0,0,0,0,0,0,0
129,Hateimani,"Yehuda Halevi 43, Tel Aviv, Tel-Aviv",8,32.0619237,34.7728956,0,0,1,0,0,0,0,0,0,0,0,1,0,0,1,0,0,0,0,0,0,0,0,0,0,0,0,0,0,0,0,0,0,0,0,0,0
130,Mystic Artisan Ice Cream,"Dizengoff 138, Tel Aviv, Tel-Aviv",9,32.0822818,34.7739884,0,0,0,0,0,0,0,0,0,0,0,0,0,0,0,0,0,1,0,1,0,0,0,0,1,0,0,0,0,0,0,0,0,0,0,0,0
131,Citizen Garden,"Montefiore St 15, Tel-Aviv",9,32.0649714,34.7707454,0,0,0,0,0,0,0,1,0,1,0,0,0,0,0,0,0,0,0,0,0,0,0,0,0,0,0,1,0,0,0,0,0,0,0,0,0
132,Mitchely | Health Bar,"Florentine 21, Tel Aviv, Tel-Aviv",9,32.0563379,34.7691389,0,0,0,0,0,0,0,1,0,0,0,0,0,0,0,0,0,0,0,0,0,0,0,0,0,1,0,1,0,0,0,0,0,0,0,0,0
133,Reno Burger,This is a virtual venue,8.2,,,1,0,0,0,0,1,0,0,1,0,0,0,0,0,0,0,0,0,0,0,0,0,0,0,0,0,0,0,0,0,0,0,0,0,0,0,0
134,Falafel Ba'Ribua | Givatayim,"Borochov 54 Givatayim, Tel-Aviv",8.4,32.078803,34.8098479,0,1,0,0,0,0,0,1,0,0,0,1,0,0,0,0,1,0,0,0,0,0,0,0,0,0,0,0,0,0,0,0,0,0,0,0,0
135,Yehuda Halevi Sandwich Bar,"Lincoln 13, Tel-Aviv",9,32.0667931,34.7822963,0,0,0,0,0,0,0,1,0,0,0,1,1,1,0,0,0,0,0,0,0,0,0,0,0,0,0,0,0,0,0,0,0,0,0,0,0
136,Golda | Hayarkon,"Hayarkon 163, Tel Aviv, Tel-Aviv",8.6,32.085297,34.7700921,0,0,0,0,0,0,0,0,0,0,0,0,0,0,0,0,0,1,0,1,0,0,0,0,1,0,0,0,0,0,0,0,0,0,0,0,0
137,Casa de Acai,"Dizengoff 105 Tel Aviv, Tel-Aviv",8.2,32.0798987,34.7737211,0,0,0,0,0,0,0,0,1,0,0,0,1,0,0,0,0,1,0,0,0,0,0,0,0,0,0,0,0,0,0,0,0,0,0,0,0
138,Soft Cookies | Tel Aviv,"Sarona Market, yesterday magan, Tel-Aviv",8.4,32.0709839,34.7872963,0,0,0,0,0,0,0,0,0,0,0,0,0,0,0,0,0,1,0,1,0,0,0,0,1,0,0,0,0,0,0,0,0,0,0,0,0
139,Hashachen,"Ibn Gvirol 8 Tel Aviv, Tel-Aviv",8.2,32.0721284,34.7820678,0,1,1,0,0,0,0,0,0,0,0,0,0,0,1,0,0,0,0,0,0,0,0,1,0,0,0,0,0,0,1,0,0,0,0,0,0
140,Cafè Saga,"Rabi clicks 4, Tel-Aviv",7.6,,,0,0,0,0,0,0,0,0,0,0,0,0,1,1,0,0,0,0,0,0,0,0,0,0,0,0,1,0,0,0,0,0,0,0,0,0,0
141,Masbaha,"Levontin 2 tel aviv, Tel-Aviv",8.6,32.0612742,34.7739498,0,0,0,0,0,0,0,0,0,0,0,1,0,0,0,0,1,0,0,0,0,0,0,0,0,0,0,0,0,0,0,0,0,0,0,0,0
142,Malabi BaPishpeshim,"Amiad 11, Tel Aviv, Tel-Aviv",8.8,32.0533803,34.7558595,1,0,0,0,0,0,0,0,0,0,0,0,0,0,0,0,0,1,0,0,0,0,0,0,0,0,0,0,0,0,0,0,0,0,0,0,0
143,Megulgalawach,"Rambam 1, Tel Aviv, Tel-Aviv",8.6,32.0682505,34.7685897,0,0,1,0,0,0,0,0,0,0,0,1,0,0,0,0,0,0,0,1,0,0,0,0,0,0,0,0,0,0,0,0,0,0,0,0,0
144,Pri 101 | Yigal Alon,"Yigal Alon 94, Tel-Aviv",9,32.0685272,34.7941568,0,0,0,0,0,0,0,0,0,0,0,1,1,0,0,0,0,0,0,0,0,0,0,0,0,1,0,1,0,0,0,0,0,0,0,0,0
145,Sambazon Açaí | Hashomer,"Hashomer 1, Tel Aviv, Tel-Aviv",9,32.0685111,34.769243,0,0,0,0,0,0,0,0,1,0,0,0,1,0,0,0,0,1,0,0,0,0,0,0,0,1,0,0,0,0,0,0,0,0,0,0,0
146,Comptoir Français,"Lillenblum 33, Tel-Aviv",9,32.062665,34.7715308,0,0,0,0,0,0,0,1,0,0,0,1,0,1,0,0,0,0,0,0,0,0,0,0,0,0,0,0,0,0,0,0,0,0,0,0,0
147,Qaligo,"Hayarkon 136, Tel Aviv, Tel-Aviv",8.2,32.0825783,34.7688844,0,0,0,1,1,0,0,0,0,0,0,0,0,0,0,0,0,0,0,0,0,0,0,0,0,0,0,0,0,0,0,0,0,0,0,0,0
148,Roladin | Jabotinsky,"Dizengoff 217 Tel Aviv, Tel-Aviv",8.8,32.0891162,34.7753092,0,0,0,0,0,0,0,0,0,0,0,0,0,0,0,0,0,1,1,1,0,0,0,0,0,0,0,0,0,0,0,0,0,0,0,0,0
149,Mamma Pasta,"Blessed Hirsch 30, Tel-Aviv",8,,,0,0,0,1,1,0,0,1,0,0,0,1,0,0,0,0,0,0,0,0,0,0,0,0,0,0,0,0,0,0,0,0,0,0,0,0,0
150,Roladin | Lamed Neighborhood,"Ozner Dov 3, Tel-Aviv",8.8,32.1244407,34.8051954,0,0,0,0,0,0,0,0,0,0,0,1,0,0,0,0,0,1,1,0,0,0,0,0,0,0,0,0,0,0,0,0,0,0,0,0,0
151,Arcaffé | Rothschild,"Rothschild Blvd 31, Tel Aviv-Yafo, Tel-Aviv",8,32.063831,34.7731644,0,0,0,0,0,0,0,1,0,1,0,0,1,1,0,0,0,0,1,1,0,0,0,0,0,0,0,0,0,0,0,0,0,0,0,0,0
152,Sirim Ochel Be Keif,"Niri 3, Tel Aviv, Tel-Aviv",8,,,0,0,1,0,0,0,0,1,0,0,0,1,0,0,0,0,0,0,0,0,0,0,0,0,0,0,0,0,0,0,0,0,1,0,0,0,0
153,The Tunisian,"Jerusalem demon 54, Ramat Gan, Tel-Aviv",7.4,32.0851035,34.8298884,0,0,0,0,0,0,0,0,0,0,0,0,0,0,1,0,1,0,0,0,0,0,0,0,0,0,0,0,0,0,0,0,1,0,0,0,0
154,Etsel Mikha,"Ben Yehuda 191 A, Tel Aviv, Tel-Aviv",8.6,32.0913503,34.774144,1,1,0,0,0,0,0,0,0,0,0,0,0,0,0,0,1,0,0,0,0,0,0,0,0,0,0,0,0,0,0,0,0,0,0,0,0
155,Tata | Tel Aviv,"Surbell 22, Tel Aviv, Tel-Aviv",8.6,,,1,1,1,0,0,0,0,0,0,0,0,0,0,0,0,0,0,0,0,0,0,0,0,0,0,0,0,0,0,0,0,0,0,0,0,0,0
156,The Gelato Factory | TLV,"Champion Klman Magen 3, Tel Aviv, Tel-Aviv",8.4,32.0713993,34.7865759,0,0,0,1,0,0,0,0,0,0,0,0,0,0,0,0,0,1,0,0,0,0,0,0,1,0,0,0,0,0,0,0,0,0,0,0,0
157,Dudi's Restaurant,"Gush Etzion 1, Givatayim, Tel-Aviv",8.6,32.0750611,34.8072241,0,0,1,0,0,0,0,0,0,0,0,0,0,0,0,0,0,0,0,0,1,0,0,1,0,0,0,0,0,0,1,0,0,0,0,0,0
158,Yankale Baguette,"Ze'ev Jabotinsky 87, Ramat Gan, Tel-Aviv",8.6,32.087908,34.8135099,0,1,0,0,0,0,0,0,0,0,0,1,0,1,0,0,0,0,0,0,0,0,0,0,0,0,0,0,0,0,0,0,1,0,0,0,0
159,Pizza Kimat Hinam | Ramat Gan,"Jabotinsky 89, Tel-Aviv",8.6,32.0880443,34.7835355,0,0,0,1,0,0,0,0,0,0,0,0,0,0,0,0,0,0,0,0,0,1,0,0,0,0,0,0,0,0,0,0,0,0,0,0,0
160,Aldo | Tel Aviv,"La Guardia 64, Tel Aviv, Tel-Aviv",8.6,32.0591414,34.7984235,0,0,0,1,0,0,0,0,0,0,0,0,0,0,0,0,0,1,0,1,0,0,0,0,1,0,0,0,0,0,0,0,0,0,0,0,0
161,Nono | Ramat Aviv,"Rabbi Ashi 16, Tel-Aviv",8.8,32.1205384,34.799772,0,0,0,0,1,0,0,0,0,0,0,0,0,0,0,0,0,0,0,0,0,1,0,0,0,0,0,0,0,0,0,0,0,0,0,0,1
162,Poke Buddha Bowl,"King George 81 Tel Aviv, Tel-Aviv",8.2,32.0759729,34.7764908,0,0,0,0,0,0,0,0,0,1,0,0,0,0,0,0,0,0,0,0,0,0,0,1,0,0,0,0,0,0,1,0,0,0,0,0,0
163,6-May,"Ben Ami 13, Tel Aviv, Tel-Aviv",8.6,32.0781573,34.7738234,0,0,0,0,0,0,0,1,0,0,0,0,0,1,0,0,0,0,0,0,0,0,0,0,0,0,1,0,0,0,0,0,0,0,0,0,0
164,The Streets | King George,"King George 70, Tel-Aviv",8.2,32.0760445,34.7769235,0,0,0,0,0,0,0,1,0,0,0,0,0,1,1,0,0,0,0,0,0,0,0,0,0,0,0,0,0,0,0,0,0,0,0,0,0
165,Café Barzilay,"Barzilai 1 Tel Aviv, Tel-Aviv",8.8,32.0622599,34.775366,0,0,0,0,0,0,0,0,0,0,0,0,0,1,0,0,0,0,0,0,0,0,0,0,0,0,1,1,0,0,0,0,0,0,0,0,0
166,LILA PIZZA,"Merkhavya St 4, Tel-Aviv",8.8,32.0603387,34.7720644,0,0,0,0,0,0,0,1,0,0,0,0,0,0,0,0,0,0,1,0,0,1,0,0,0,0,0,0,0,0,0,0,0,0,0,0,0
167,MIXI Salad Bar | Sarona Market,"Champion Klman Magen 5, Tel Aviv, Tel-Aviv",8.4,32.070732,34.786781,0,0,0,0,0,0,0,1,1,0,0,1,0,0,0,0,0,0,0,0,0,0,0,0,0,0,0,1,0,0,0,0,0,0,0,0,0
168,Cafe Nona,"Stone Gvirol 44, Tel-Aviv",7.8,32.087631,34.782349,0,0,0,0,0,0,0,1,0,1,0,0,1,0,0,0,0,0,0,0,0,0,0,0,0,0,0,0,0,0,0,0,0,0,0,0,0
169,Otello | Dizengoff,"Dizengoff 165, Tel-Aviv",9,32.0840022,34.7739714,0,0,0,0,0,0,0,0,1,0,0,0,0,0,0,0,0,1,0,0,0,0,0,0,1,0,0,0,0,0,0,0,0,0,0,0,0
170,PokeShop | Herzl,"Signa 10 Tel Aviv, Tel-Aviv",8.4,,,0,0,0,0,0,0,0,0,0,1,0,1,0,0,0,0,0,0,0,0,0,0,0,1,0,0,0,0,0,0,1,0,0,0,0,0,0
171,Hummus Eliyahu | Bursa,"Hello Zissman 3, Tel-Aviv",9.2,,,0,1,0,0,0,0,0,0,0,0,0,1,0,0,0,0,1,0,0,0,0,0,0,0,0,0,0,0,0,0,0,0,0,0,0,0,0
172,Anita | Sarona,"Rao Aluf David Elzar Sat 16, Tel-Aviv",9,32.072313,34.7877539,0,0,0,0,0,0,0,0,0,0,0,0,0,0,0,0,0,1,0,0,0,0,0,0,1,0,0,0,0,0,0,0,0,0,0,0,0
173,Tamara | Midtown,"Menachem Begin 144, Tel Aviv, Tel-Aviv",8.8,32.0930882,34.8322718,0,0,0,0,0,0,0,0,0,0,0,1,0,0,0,0,0,1,0,1,0,0,0,0,0,1,0,1,0,0,0,0,0,0,0,0,0
174,Dallal Konditoria,"All Israel Friends 7, Tel-Aviv",8.4,,,0,0,0,0,0,0,0,1,0,0,0,0,1,1,0,0,0,1,0,1,0,0,0,0,0,0,0,0,0,0,0,0,0,0,0,0,0
175,Bari Israeli Salad,"Stone Gvirol 61, Tel-Aviv",8.4,32.087631,34.782349,0,0,0,0,0,0,0,1,0,1,0,1,0,1,0,0,0,0,0,0,0,0,0,0,0,0,0,0,0,0,0,0,0,0,0,0,0
176,Chef Salad | ?? ???,"Yehuda Halevi 47, Tel Aviv, Tel-Aviv",8.6,32.0622122,34.773691,0,0,0,1,1,0,0,1,0,0,0,1,0,0,0,0,0,0,0,0,0,0,0,0,0,0,0,0,0,0,0,0,0,0,0,0,0
177,Pizza Pizzaiolo,"Weizman 60 Givatayim, Tel-Aviv",8.6,32.0690108,34.8084411,0,0,0,1,0,0,0,0,0,0,0,1,0,0,0,0,0,0,0,0,0,1,0,0,0,0,0,0,0,0,0,0,0,0,0,0,0
178,Gueta | Tel Aviv,"Shimon Ben Territory 2, Tel Aviv Jaffa, Tel-Aviv",9,32.1447983,34.8025752,0,1,1,0,0,0,0,0,0,0,0,1,0,0,1,0,0,0,0,0,0,0,0,0,0,0,0,0,0,0,0,0,0,0,0,0,0
179,Shawarma Auni Express,"A Solomon Road 19, Tel-Aviv",8.2,,,1,1,0,0,0,0,0,0,0,0,0,0,0,1,0,0,0,0,0,0,0,0,0,0,0,0,0,0,0,0,0,0,0,0,0,0,0
180,Pepper,"Yigal Alon 96, Tel-Aviv",8.6,32.0683493,34.7937575,0,0,0,0,1,0,0,1,0,0,0,0,1,1,0,0,0,0,0,0,0,0,0,0,0,0,0,0,0,0,0,0,0,0,0,0,0
181,Paca Paca,"Amishav 45, Givatayim, Tel-Aviv",9,32.0616914,34.8064168,0,0,0,0,0,0,0,0,0,0,0,1,0,1,0,0,0,0,0,0,0,0,0,0,0,0,0,0,0,0,0,0,0,0,0,0,0
182,Asia-T,"A whole way 11, Tel-Aviv",8.4,,,1,0,0,0,0,0,0,0,0,0,0,0,0,0,0,0,0,0,0,0,0,0,1,0,0,0,0,0,0,0,0,1,0,0,0,0,0
183,PokeShop | Bnei Brak,"Bar Kochba 16 Bnei Brak, Tel-Aviv",8.4,32.0941944,34.8236044,0,0,0,0,0,0,0,0,0,1,0,1,0,0,0,0,0,0,0,0,0,0,0,1,0,0,0,0,0,0,1,0,0,0,0,0,0
184,Bleecker Bakery Kosher LaMehadrin | Ramat Gan,"Bialik 76, Ramat Gan, Tel-Aviv",8.2,32.0857936,34.8115303,0,0,0,0,1,0,0,1,1,1,0,0,1,0,0,0,0,0,1,0,0,0,0,0,0,0,1,0,0,0,0,0,0,0,0,0,1
185,Sherry Herring,"The port market, carpenter 12, Tel-Aviv",9,32.0987139,34.7740865,1,0,0,0,0,0,0,0,0,0,0,0,0,1,0,0,0,0,0,0,0,0,0,1,0,0,0,0,0,0,1,0,0,0,0,0,0
186,Trio Georgian Bakery,"Herzl 90, Ramat Gan, Tel-Aviv",9.2,32.0880105,34.8150243,1,0,0,0,0,0,0,1,0,0,0,0,0,0,1,0,0,0,0,0,0,0,0,0,0,0,0,0,0,0,0,0,0,0,0,0,0
187,Tropico,"Shinkin 49, Givatayim, Tel-Aviv",8.2,32.072176,34.808871,0,0,0,0,0,0,0,1,0,0,0,1,0,1,1,0,0,0,0,0,0,0,0,0,0,0,0,0,0,0,0,0,0,0,0,0,0
188,Yulia,"Julia in the harbor, Tel-Aviv",9,,,0,1,0,0,0,0,0,0,0,0,0,0,1,0,0,0,0,0,0,0,0,0,0,0,0,0,0,0,0,0,0,0,0,0,0,0,0
189,Bariella,"Wall and Tower 16, Tel Aviv-Jaffa, Tel-Aviv",8.4,32.049357,34.758355,0,0,1,0,0,0,0,0,1,1,0,0,0,0,0,0,0,0,0,0,0,0,0,0,0,0,0,0,0,0,0,0,0,0,0,0,0
190,Zitune,"Menachem Begin 55, Tel Aviv, Tel-Aviv",8.6,32.093423,34.832177,0,1,1,0,0,0,0,0,0,0,0,0,0,0,0,0,1,0,0,0,0,0,0,0,0,0,0,0,0,0,0,0,0,0,0,0,0
191,Vivere,"Ibn Gvirol 54, Tel Aviv, Tel-Aviv",9.6,32.0781189,34.781459,0,0,0,0,0,0,0,0,1,0,0,0,0,0,0,0,0,0,0,0,0,0,0,0,0,1,0,1,0,0,0,0,0,0,0,0,0
192,La Goffre | Givatayim,"right Yitshak Rabin, Tel-Aviv",7.4,32.0646327,34.8637586,0,0,0,0,0,0,0,0,0,0,0,0,0,0,0,0,0,1,0,0,0,0,0,0,1,0,0,0,0,0,0,0,0,0,0,0,0
193,Gelateria Siciliana | Ramat Aviv,"Brodsky 15, Tel Aviv, Tel-Aviv",9,,,0,0,0,1,0,0,0,0,0,0,0,0,0,0,0,0,0,1,0,1,0,0,0,0,1,0,0,0,0,0,0,0,0,0,0,0,0
194,Marioma,"Nahalat Yitzhak 18, Tel Aviv, Tel-Aviv",7.8,32.075597,34.799186,0,1,1,0,0,0,0,0,0,0,0,1,0,0,0,0,0,0,0,0,0,0,0,0,0,0,0,0,0,0,0,0,0,0,0,0,0
195,Leggenda | Rothschild,"Rothschild 45, Tel Aviv, Tel-Aviv",9,32.0642807,34.774554,0,0,0,0,0,0,0,0,0,0,0,0,0,0,0,0,0,1,0,0,0,0,0,0,1,0,0,0,0,0,0,0,0,0,0,0,0
196,?Metro,"Menachem Begin 72, Tel Aviv, Tel-Aviv",8.8,32.0930896,34.8322698,0,0,0,0,1,0,0,1,0,0,0,1,0,1,0,0,0,0,0,0,0,0,0,0,0,0,0,0,0,0,0,0,0,0,0,0,0
197,Mifgash Aladin,"Sluador 3 Tel Aviv, Tel-Aviv",9,,,1,0,1,0,0,0,0,0,0,0,0,1,0,0,0,0,0,0,0,0,0,0,0,0,0,0,0,0,0,0,0,0,0,0,0,0,0
198,Ginger Grill Bar,"Ramat Gan Jabotinsky 35, Tel-Aviv",8.4,32.0838826,34.8065868,0,0,1,0,0,0,0,0,0,0,0,1,0,0,0,0,1,0,0,0,0,0,0,0,0,0,0,0,0,0,0,0,0,0,0,0,0
199,Biga | Sarona,"Eliezer Kaplan 26, Tel-Aviv",6.4,32.073117,34.7869977,0,0,0,0,0,0,0,0,0,0,0,1,1,0,0,0,0,0,0,0,0,0,0,0,0,0,1,0,0,0,0,0,0,0,0,0,0
200,Pita Machneyuda | TLV,"Ashli House 3, Tel Aviv, Tel-Aviv",8,,,1,1,0,0,0,0,0,0,0,0,0,1,0,0,0,0,0,0,0,0,0,0,0,0,0,0,0,0,0,0,0,0,1,0,0,0,0
201,Menachem,"Hayarkon 88, Tel Aviv, Tel-Aviv",8.2,32.0777623,34.7675604,0,1,0,0,0,0,0,1,0,0,0,0,0,1,0,0,0,0,0,0,0,0,0,0,0,0,0,0,0,0,0,0,0,0,0,0,0
202,Cafe Alma | Neve Tzedek,"Shabazi 55, Tel Aviv, Tel-Aviv",7.8,32.0631581,34.7674654,0,0,0,0,0,0,0,1,0,0,0,0,0,1,0,0,0,0,0,0,0,0,0,0,0,0,1,0,0,0,0,0,0,0,0,0,0
203,Falafel Ba'Ribua | Yad Harutzim,"Hand -down 15, Tel-Aviv",8.2,,,0,1,0,0,0,0,0,1,0,0,0,1,0,0,0,0,1,0,0,0,0,0,0,0,0,0,0,0,0,0,0,0,0,0,0,0,0
204,Shefa Hummus,"Bialik 53 Ramat Gan, Tel-Aviv",7.2,32.0840969,34.8136567,1,1,0,0,0,0,0,0,0,0,0,0,0,0,0,0,1,0,0,0,0,0,0,0,0,0,0,0,0,0,0,0,0,0,0,0,0
205,Raw Bowl | TLV Port,"Tel Aviv Port 96, Tel Aviv, Tel-Aviv",6.8,32.096203,34.773158,0,0,0,0,0,0,0,0,0,0,0,0,0,0,0,0,0,0,0,0,0,0,0,0,0,1,0,1,0,0,0,0,0,0,0,1,0
206,Cafe Cafe | Marom Nave,"Want 19 Ramat Gan, Tel-Aviv",7,32.068424,34.824785,0,0,0,0,1,0,0,0,0,0,0,1,1,1,0,0,0,0,0,0,0,0,0,0,0,0,1,0,0,0,0,0,0,0,0,0,0
207,Lela,"Habash 42, Tel-Aviv",8,32.0615524,34.7789066,0,0,1,0,0,0,0,0,0,1,0,0,0,0,0,0,0,0,1,0,0,0,0,0,0,0,0,0,0,0,0,0,0,0,0,0,0
208,Georgina,"Barzilai 6, Tel Aviv, Tel-Aviv",7.4,32.0619241,34.7751398,0,0,0,1,0,0,0,1,0,0,0,0,1,1,0,0,0,0,0,0,0,1,0,0,0,0,0,0,0,0,0,0,0,0,0,0,0
209,Hagrill Halohet,"UAV 83 Tel Aviv-Jaffa, Tel-Aviv",7.6,32.049357,34.758355,0,1,0,0,0,0,0,0,0,0,0,1,0,1,0,0,0,0,0,0,0,0,0,0,0,0,0,0,0,0,0,0,0,0,0,0,0
210,Basarela,"UAV 83, Tel Aviv, Tel-Aviv",5.8,,,1,0,0,0,0,0,0,0,0,0,0,1,0,1,0,0,0,0,0,0,0,0,0,0,0,0,0,0,0,0,0,0,0,0,0,0,0
211,Hummus Ha'am,"Nahalat Yitzhak 28, TA, Tel-Aviv",9,32.075597,34.799186,1,1,0,0,0,0,0,0,0,0,0,1,0,0,0,0,1,0,0,0,0,0,0,0,0,0,0,0,0,0,0,0,0,0,0,0,0
212,Coffee Station | TLV,"Lost 34, Tel Aviv, Tel-Aviv",8.8,,,0,0,0,0,0,0,0,1,0,0,0,0,0,1,0,0,0,0,0,0,0,0,0,0,0,0,0,1,0,0,0,0,0,0,0,0,0
213,PlantX,"Via Wolfson 54, Tel Aviv, Tel-Aviv",8.8,32.0574143,34.7744756,0,1,0,0,0,0,0,0,1,0,0,0,0,0,0,0,0,0,0,0,0,0,0,0,0,0,0,0,0,0,0,0,0,0,0,0,0
214,Alice Bar Basar | Ramat Gan,"Ben Gurion, 34, Ramat Gan, Tel-Aviv",8.6,32.005532,34.8854112,0,1,1,0,0,0,0,0,0,0,0,1,0,0,0,0,0,0,0,0,1,0,0,0,0,0,0,0,0,0,0,0,0,0,0,0,0
215,Freezer Givatayim,"Weizman 33 Givatayim, Tel-Aviv",9.2,32.0727516,34.8088342,0,0,0,0,0,0,0,0,0,0,0,0,0,0,0,0,0,1,0,0,0,0,0,0,1,0,0,0,0,0,0,0,0,0,0,0,0
216,Hashomer 1,"Hashomer 2, Tel Aviv, Tel-Aviv",7.8,32.0685111,34.7692429,1,0,0,0,0,0,0,0,0,0,0,0,0,1,0,0,0,0,0,0,0,0,0,0,0,0,0,0,0,0,0,0,1,0,0,0,0
217,The Original Sabich Ovad | Givataim,"Sirkin 7, Givatayim, Tel-Aviv",9,32.0768708,34.8142837,1,0,0,0,0,0,0,0,0,0,0,0,0,0,0,0,0,0,0,0,0,0,0,0,0,0,0,0,0,0,0,0,0,0,0,0,0
218,Oro,"Levontin 12, Tel Aviv, Tel-Aviv",9,32.0617724,34.7754413,0,0,0,1,0,0,0,0,1,0,0,0,1,1,0,0,0,0,0,0,0,0,0,0,0,0,0,0,0,0,0,0,0,0,0,0,0
219,Fresh Bar | Ramat Gan,"Crinezi 36 Ramat Gan, Tel-Aviv",8.6,32.068424,34.824785,0,0,0,0,0,0,0,1,1,0,0,0,0,0,0,0,0,0,0,0,0,0,0,0,0,1,0,0,0,0,0,0,0,0,0,0,0
220,Puaa,"Rabbi Yochanan 8 Tel Aviv - Jaffa, Tel-Aviv",8.8,32.0525358,34.7563141,0,0,0,0,0,0,0,0,0,1,0,0,0,1,0,0,0,0,0,0,0,0,0,1,0,0,0,0,0,0,1,0,0,0,0,0,0
221,JAPO | B.S.R,"9 Forest Street, Bnei Brak, Tel-Aviv",8.6,32.084932,34.835226,0,0,0,0,0,0,0,1,0,0,0,1,0,0,0,0,0,0,0,0,0,0,1,0,0,0,0,0,0,0,0,0,0,0,0,0,0
222,Hativonit J17,"Jeremiah 17, Tel-Aviv",8,32.094863,34.775886,0,0,1,0,0,0,0,0,1,1,0,1,0,0,0,0,0,0,0,0,0,0,0,0,0,0,0,0,0,0,0,0,0,0,0,0,0
223,Shawarma Grill Street,"Bialik 77 Ramat Gan, Tel-Aviv",7.8,32.0854435,34.8110638,1,1,0,0,0,0,0,0,0,0,0,1,0,0,0,0,0,0,0,0,0,0,0,0,0,0,0,0,0,0,0,0,1,0,0,0,0
224,Tadam,"Rabbi Pinchas 11, Tel Aviv, Tel-Aviv",8,32.0528987,34.7562158,0,0,0,0,0,0,0,0,0,0,0,1,0,0,0,0,0,1,1,0,0,0,0,0,0,0,0,0,0,0,0,0,0,0,0,0,0
225,Piazza Grande,"Kalman Protects 5, Tel-Aviv",7.6,,,0,0,0,1,1,0,0,0,0,0,0,1,0,0,0,0,0,0,0,0,0,1,0,0,0,0,0,0,0,0,0,0,0,0,0,0,0
226,Mama Greg | Ayalon Mall,"Dad Hillel 301, Ramat Gan, Tel-Aviv",7.6,32.080045,34.822585,0,0,0,1,1,0,0,1,0,0,0,1,0,0,0,0,0,0,0,0,0,1,0,0,0,0,0,0,0,0,0,0,0,0,0,0,0
227,Cafe Fresh | North TLV,"Aba Akhime'ir St 18, Tel-Aviv",7.4,32.1245216,34.8018283,0,0,0,1,0,0,0,0,0,0,0,0,0,0,0,0,0,0,0,0,0,0,0,1,0,0,0,0,0,0,1,0,0,0,0,0,0
228,Casino San Remo,"Comfort 2, Tel-Aviv",7.6,32.057842,34.766094,1,0,0,0,0,0,0,1,0,1,0,0,0,0,0,0,0,0,0,0,0,0,0,0,0,0,0,0,0,0,0,0,0,0,0,0,0
229,Gelateria | North TLV,"Uri Zvi Greenberg 25, Tel-Aviv",8,32.1307046,34.7922211,0,0,0,0,0,0,0,0,0,0,0,0,0,0,0,0,0,1,0,0,0,0,0,0,1,0,0,0,0,0,0,0,0,0,0,0,0
230,Café Shneor,"Pinsker 20, Tel-Aviv",8.4,32.0745105,34.7704799,0,0,0,0,0,0,0,0,0,0,0,0,1,0,0,0,0,0,0,0,0,0,0,0,0,0,1,0,0,0,0,0,0,0,0,0,0
231,Fish and Chips Market,"Good day 7, Tel-Aviv",8,,,1,0,0,0,0,0,0,0,0,0,0,0,0,0,0,0,0,0,0,0,0,0,0,1,0,0,0,0,0,0,1,0,0,0,0,0,0
232,Menashe Meats,"Mazuh 4, Tel Aviv, Tel-Aviv",8.4,32.074711,34.8435966,0,0,1,0,0,0,0,0,0,0,0,0,0,0,0,0,0,0,0,0,0,0,0,0,0,0,0,0,1,0,0,0,0,0,0,0,0
233,Chicken Grill Dahan,"Paratroopers 7, Givatayim, Tel-Aviv",8,32.072176,34.808871,0,0,1,0,0,0,0,0,0,0,0,1,0,0,0,0,0,0,0,0,1,0,0,0,0,0,0,0,0,0,0,0,0,0,0,0,0
234,ALLE,"Lilienblum 39, Tel Aviv, Tel-Aviv",9,32.0626284,34.7725416,0,0,0,0,0,0,0,1,1,1,0,0,0,0,0,0,0,0,0,0,0,0,0,0,0,0,1,0,0,0,0,0,0,0,0,0,0
235,Cafe Greg Kosher LaMehadrin | BSR,"Masada 7, Bnei Brak, Tel-Aviv",7.2,32.093684,34.8245878,0,0,0,0,1,0,0,1,0,0,0,1,0,1,0,0,0,0,0,0,0,0,0,0,0,0,0,1,0,0,0,0,0,0,0,0,0
236,Honey Lulu ??,"Yigal Alon 94, Tel-Aviv",8.8,32.0685272,34.7941568,0,0,0,0,0,0,0,0,0,0,0,1,0,0,0,0,0,1,0,0,0,0,0,0,1,0,0,0,0,0,0,0,0,0,0,0,0
237,Pizzale,"Jabotinsky 12, Bnei Brak, Tel-Aviv",7.6,32.0909461,34.8241896,0,0,0,0,1,0,0,1,0,0,0,1,0,0,0,0,0,0,0,0,0,1,0,0,0,0,0,0,0,0,0,0,0,0,0,0,0
238,Cafe Nimrod | Sarona,"David Elazar 12, Tel Aviv, Tel-Aviv",8.4,32.0725391,34.7882116,0,0,0,0,0,0,0,1,0,0,0,0,1,0,0,0,0,0,0,0,0,0,0,0,0,0,1,0,0,0,0,0,0,0,0,0,0
239,Chef Be Levontin,"Levontin 1, Tel-Aviv",8.6,32.0614525,34.7738187,0,0,1,0,0,0,0,0,0,0,0,1,0,0,0,0,0,0,0,0,1,0,0,0,0,0,0,0,0,0,0,0,1,0,0,0,0
240,Chachapuri Sisters,"Levinsky 52, Tel-Aviv",8.8,32.0593894,34.7734505,1,0,0,0,0,0,0,0,1,0,0,0,0,0,0,0,0,0,1,0,0,0,0,0,0,0,0,0,0,0,0,0,0,0,0,0,0
241,Lieselotte Cafe,"Rinse 20, Tel Aviv, Tel-Aviv",9.2,,,0,0,0,0,0,0,0,0,0,0,0,0,0,0,0,0,0,0,0,0,0,0,0,0,0,0,1,0,0,0,0,0,0,0,0,0,0
242,Italkia BaTachana,"Ashkelon 5, Tel-Aviv",7,32.0589991,34.7614121,0,0,0,1,1,0,0,0,0,0,0,0,0,0,0,0,0,0,0,0,0,1,0,0,0,0,0,0,0,0,0,0,0,0,0,0,0
243,Bechor and Shoshi | Bnei Brak,"Abu Hatzira Israel 10, Bnei Brak, Tel-Aviv",9.2,32.0585704,34.7795381,0,1,1,0,0,0,0,0,0,0,0,1,0,0,0,0,0,0,0,0,0,0,0,0,0,0,0,0,0,0,0,0,0,0,0,0,0
244,Greco | Ouzeri,"Uri Zvi Greenberg 25, Tel-Aviv",7.8,32.1307046,34.7922211,0,1,0,0,0,0,0,0,0,0,0,0,0,0,0,0,0,0,0,0,0,0,0,0,0,0,0,0,0,0,0,0,0,0,0,0,0
245,Matoko Cookies & More,"Salomon 7, Tel-Aviv",8.8,32.0615449,34.7798188,0,0,0,0,0,0,0,0,0,0,0,1,0,0,0,0,0,1,0,1,0,0,0,0,0,0,0,0,0,0,0,0,0,0,0,0,0
246,Max Brenner | Sarona,"Kalman Protects 3, Tel Aviv, Tel-Aviv",8,32.049417,34.793313,0,0,0,0,0,0,0,0,0,0,0,0,0,0,0,0,0,1,0,1,0,0,0,0,0,0,0,0,0,0,0,0,0,0,0,0,0
247,Reviva & Celia Bakery,"Snifting 5, Tel Aviv, Tel-Aviv",9.2,,,0,0,0,0,0,0,0,0,0,0,0,0,0,0,0,0,0,1,1,1,0,0,0,0,0,0,0,0,0,0,0,0,0,0,0,0,0
248,HaMalabiya | Allenby,"Gedera 28, Tel-Aviv",8.4,32.0699907,34.7701602,0,0,0,0,0,0,0,0,0,0,0,0,0,0,0,0,0,1,0,1,0,0,0,0,0,0,0,0,0,0,0,0,0,0,0,0,0
249,Golda | Ben Yehuda,"Ben Yehuda 110, Tel-Aviv",9.2,32.0831387,34.7717,0,0,0,0,0,0,0,0,0,0,0,0,0,0,0,0,0,1,0,0,0,0,0,0,1,0,0,0,0,0,0,0,0,0,0,0,0
250,Hummus Ha'achim | TLV,"Signs 20, Tel Aviv, Tel-Aviv",8.6,,,0,1,0,0,0,0,0,0,0,0,0,1,0,0,1,0,1,0,0,0,0,0,0,0,0,0,0,0,0,0,0,0,0,0,0,0,0
251,HaMalabiya | Florentin,"Washington Boulevard 15, Tel-Aviv",8.8,32.0561771,34.7696693,0,1,0,0,0,0,0,0,1,0,0,0,0,0,0,0,0,0,0,0,0,0,0,0,0,0,0,0,0,0,0,0,0,0,0,0,0
252,Roladin | Bursa,"Dad Hillel 2, Ramat Gan, Tel-Aviv",9.6,32.080045,34.822585,0,0,0,0,0,0,0,0,0,0,0,0,0,0,0,0,0,1,1,1,0,0,0,0,0,0,0,0,0,0,0,0,0,0,0,0,0
253,The Showroom Bakehouse | Dizengoff,"Dizengoff 298, Tel Aviv, Tel-Aviv",8.6,32.0941948,34.7769155,0,0,0,0,0,0,0,0,0,0,0,0,0,0,0,0,0,1,1,1,0,0,0,0,0,0,0,0,0,0,0,0,0,0,0,0,0
254,McDonald's® Sarona,"Eliezer Kaplan 20, Tel Aviv, Tel-Aviv",7.4,32.0729974,34.7856562,0,0,0,0,0,1,0,0,0,0,0,0,0,0,0,0,0,0,0,0,0,0,0,0,0,0,0,0,0,0,0,0,0,0,0,0,1
255,Golda | Dizengoff (Frishman),"Dizengoff 107, Tel Aviv, Tel-Aviv",8.4,32.0800888,34.7736884,0,0,0,0,0,0,0,0,0,0,0,0,0,0,0,0,0,1,0,1,0,0,0,0,1,0,0,0,0,0,0,0,0,0,0,0,0
256,Golda | Midtown,"Menachem Begin 144 Tel Aviv, Tel-Aviv",9.2,32.0930882,34.8322718,0,0,0,0,0,0,0,0,0,0,0,0,0,0,0,0,0,1,0,0,0,0,0,0,1,0,0,0,0,0,0,0,0,0,0,0,0
257,Golda | Dizengoff (Nordau),"Dizengoff 245, Tel-Aviv",8.6,32.0921593,34.7760428,0,0,0,0,0,0,0,0,0,0,0,0,0,0,0,0,0,1,0,1,0,0,0,0,1,0,0,0,0,0,0,0,0,0,0,0,0
258,Vaniglia | Bazel,"Flower Ashroat 22, Tel-Aviv",9.4,,,0,0,0,0,0,0,0,0,0,0,0,0,0,0,0,0,0,1,0,1,0,0,0,0,1,0,0,0,0,0,0,0,0,0,0,0,0
259,Sabich Frishman | Pishpeshim,"Yehuda Margoza St 4, Tel-Aviv",8.4,32.0530856,34.7571736,1,1,0,0,0,0,0,0,0,0,0,0,0,1,0,0,0,0,0,0,0,0,0,0,0,0,0,0,0,0,0,0,0,0,0,0,0
260,Roladin | Ben Yehuda,"Ben Yehuda 41, Tel-Aviv",9.2,32.0777982,34.7684074,0,0,0,0,0,0,0,0,0,0,0,1,0,0,0,0,0,1,1,0,0,0,0,0,0,0,0,0,0,0,0,0,0,0,0,0,0
261,HaMalabiya | HaPishpeshim,"Immigrants Zion 10, Tel Aviv, Tel-Aviv",9,32.0955686,34.7741875,0,1,0,0,0,0,0,0,0,0,0,0,0,0,0,0,0,1,0,1,0,0,0,0,0,0,0,0,0,0,0,0,0,0,0,0,0
262,Cafe Bucke | Ehad Ha'Am,"One of the people 91, Tel-Aviv",8,,,0,0,0,0,0,0,0,0,0,1,0,0,1,0,0,0,0,0,0,0,0,0,0,0,0,0,1,0,0,0,0,0,0,0,0,0,0
263,Vaniglia | Ramat Aviv,"Einstein 40, Ramat Aviv, Tel-Aviv",8.2,32.1122558,34.7959133,0,0,0,0,0,0,0,0,0,0,0,0,0,0,0,0,0,1,0,1,0,0,0,0,1,0,0,0,0,0,0,0,0,0,0,0,0
264,Golda | Givatayim,"Borochov 54, Tel-Aviv",9.2,32.0710846,34.7779809,0,0,0,0,0,0,0,0,0,0,0,0,0,0,0,0,0,1,0,0,0,0,0,0,1,0,0,0,0,0,0,0,0,0,0,0,0
265,Golda | Jabotinsky RG,"Zeev Jabutinsky 107, Ramat Gan, Tel-Aviv",9.2,32.0890193,34.8163119,0,0,0,0,0,0,0,0,0,0,0,0,0,0,0,0,0,1,0,1,0,0,0,0,1,0,0,0,0,0,0,0,0,0,0,0,0
266,Golda | Derech Hashalom,"Through Peace 53 Givatayim, Tel-Aviv",9,32.072176,34.808871,0,0,0,0,0,0,0,0,0,0,0,0,0,0,0,0,0,1,0,0,0,0,0,0,1,0,0,0,0,0,0,0,0,0,0,0,0
267,The Showroom Bakehouse | Betzalel,"Bethlehem 3, Tel-Aviv",9,32.0709057,34.7710848,0,0,0,0,0,0,0,0,0,0,0,0,0,0,0,0,0,1,1,1,0,0,0,0,0,0,0,0,0,0,0,0,0,0,0,0,0
268,Roladin | Ibn Gabirol,"Stone Gvirol 24, Tel-Aviv",8.8,32.087631,34.782349,0,0,0,0,0,0,0,0,0,0,0,1,0,0,0,0,0,1,1,0,0,0,0,0,0,0,0,0,0,0,0,0,0,0,0,0,0
269,Hummus Eliyahu | Sarona,"Champion Klman Magen 5, Tel Aviv, Tel-Aviv",8.4,32.070732,34.786781,1,1,0,0,0,0,0,0,1,1,0,1,0,0,0,0,1,0,0,0,0,0,0,0,0,0,0,0,0,0,0,0,0,0,0,0,0
270,Landwer | Central Park,"Battles 7 Tel Aviv, Tel-Aviv",9,,,0,0,0,0,1,0,0,0,0,0,0,0,1,1,0,0,0,0,0,0,0,0,0,0,0,0,0,0,0,0,0,0,0,0,0,0,0
271,Falafel Ben Hur | Washington,"Washington Boulevard 32 Tel Aviv, Tel-Aviv",8.8,32.055,34.7693968,0,1,1,0,0,0,0,0,0,0,0,0,0,0,0,0,0,0,0,0,0,0,0,1,0,0,0,0,0,0,1,0,0,0,0,0,0
272,Falafel Gina | Shoken,"Shocken 22, Tel Aviv, Tel-Aviv",8.2,32.0524237,34.7721041,1,1,0,0,0,0,0,0,1,0,0,1,0,0,0,0,0,0,0,0,0,0,0,0,0,0,0,0,0,0,0,0,0,0,0,0,0
273,Vaniglia | Givatayim,"Via Yitzhak Rabin 53 Givatayim, Tel-Aviv",9.2,32.072176,34.808871,0,0,0,0,0,0,0,0,0,0,0,0,0,0,0,0,0,1,0,1,0,0,0,0,1,0,0,0,0,0,0,0,0,0,0,0,0
274,Rothschilda | Rothschild Boulevard,"Cedcence Ruftld 82, Tel Aviv, Tel-Aviv",8.4,,,0,0,0,0,0,0,0,1,0,0,0,0,1,1,0,0,0,0,0,0,0,0,0,0,0,0,0,0,0,0,0,0,0,0,0,0,0
275,Golda | Ramat Aviv,"Rodanski 5, Tel-Aviv",8.8,,,0,0,0,0,0,0,0,0,0,0,0,0,0,0,0,0,0,1,0,0,0,0,0,0,1,0,0,0,0,0,0,0,0,0,0,0,0
276,Golda | Ramat Gan,"Jerusalem Boulevard 3 Ramat Gan, Tel-Aviv",9,32.0872728,34.8304046,0,0,0,0,0,0,0,0,0,0,0,0,0,0,0,0,0,1,0,1,0,0,0,0,1,0,0,0,0,0,0,0,0,0,0,0,0
277,Sulica | Shuster,"Dad Ahimair 19, Tel-Aviv",8.2,,,0,0,1,0,0,0,0,0,0,0,0,1,0,0,0,0,0,0,0,0,0,0,0,0,0,0,0,0,0,0,0,0,0,0,0,0,0
278,Golda | Jaffa,"Immigrants Zion 9, Tel-Aviv",9.2,32.0957904,34.7739195,0,0,0,0,0,0,0,0,0,0,0,0,0,0,0,0,0,1,0,0,0,0,0,0,1,0,0,0,0,0,0,0,0,0,0,0,0
279,Anita | Shabazi,"Shabazi 40, Tel-Aviv",9.2,32.062663,34.7664528,0,0,0,0,0,0,0,0,0,0,0,0,0,0,0,0,0,1,0,0,0,0,0,0,1,0,0,0,0,0,0,0,0,0,0,0,0
280,Hummus Eliyahu | Ayalon Mall,"Dad Hillel 301, Ramat Gan, Tel-Aviv",8.6,32.080045,34.822585,0,1,0,0,0,0,0,0,0,0,0,1,0,0,0,0,1,0,0,0,0,0,0,0,0,0,0,0,0,0,0,0,0,0,0,0,0
281,Golda Kosher | Ayalon Mall,"Dad Hillel 301, Ramat Gan, Tel-Aviv",9.2,32.080045,34.822585,0,0,0,0,0,0,0,0,0,0,0,1,0,0,0,0,0,1,0,0,0,0,0,0,1,0,0,0,0,0,0,0,0,0,0,0,0
282,Golda Kosher | Yad Eliyahu,"Moshe Dayan 2, Tel-Aviv",8.6,32.047187,34.799156,0,0,0,0,0,0,0,0,0,0,0,1,0,0,0,0,0,1,0,1,0,0,0,0,1,0,0,0,0,0,0,0,0,0,0,0,0
283,Roladin | Oppenheimer,"Oppenheimer 11, Tel-Aviv",9,32.1199719,34.7997352,0,0,0,0,0,0,0,0,0,0,0,1,0,0,0,0,0,1,1,0,0,0,0,0,0,0,0,0,0,0,0,0,0,0,0,0,0
284,Golda | Levinsky,"Levinsky 45, Tel-Aviv",8.6,32.0598528,34.772212,0,0,0,0,0,0,0,0,0,0,0,0,0,0,0,0,0,1,0,0,0,0,0,0,1,0,0,0,0,0,0,0,0,0,0,0,0
285,Vaniglia | Mikado Center,"Aharon Becker Street 8, Tel Aviv, Tel-Aviv",9.2,32.1228763,34.8165324,0,0,0,0,0,0,0,0,0,0,0,0,0,0,0,0,0,1,0,1,0,0,0,0,1,0,0,0,0,0,0,0,0,0,0,0,0
286,Golda | TLV Port,"Port Market 18, Tel Aviv, Tel-Aviv",8.6,32.0987139,34.7740865,0,0,0,0,0,0,0,0,0,0,0,0,0,0,0,0,0,0,0,1,0,0,0,0,1,0,0,0,0,0,0,0,0,0,0,0,0
287,Golda | Suzan Dalall,"Yehieli 9, Tel-Aviv",9,32.060739,34.765093,0,0,0,0,0,0,0,0,0,0,0,0,0,0,0,0,0,1,0,0,0,0,0,0,1,0,0,0,0,0,0,0,0,0,0,0,0
288,Otello | Herzl,"Herzel 12, Tel-Aviv",8.8,32.062363,34.7699654,0,0,0,0,0,0,0,0,1,0,0,0,0,0,0,0,0,1,0,0,0,0,0,0,1,0,0,0,0,0,0,0,0,0,0,0,0
289,Anita | Florentine,"Florentine St. 3, Tel-Aviv",9,32.0563025,34.7674507,0,0,0,0,0,0,0,0,0,0,0,0,0,0,0,0,0,1,0,0,0,0,0,0,1,0,0,0,0,0,0,0,0,0,0,0,0
290,Aroma | Givatayim,"Shimon Ben Zvi 12 Givatayim, Tel-Aviv",9,32.067407,34.810759,0,0,0,0,0,0,0,1,0,0,0,1,1,1,0,0,0,0,0,0,0,0,0,0,0,0,0,0,0,0,0,0,0,0,0,0,0
291,Roladin | Azorei Hen,"Uri Zvi Greenberg 25, Tel Aviv, Tel-Aviv",9.6,32.1307046,34.7922211,0,0,0,0,0,0,0,0,0,0,0,0,1,0,0,0,0,1,1,1,0,0,0,0,0,0,1,0,0,0,0,0,0,0,0,0,0
292,Landwer | Ayalon Mall,"Dad Hillel Silver 301, Ramat Gan, Tel-Aviv",8.2,32.1003558,34.8267131,0,0,0,0,0,0,0,1,0,0,0,0,1,0,0,0,0,0,0,0,0,0,0,0,0,0,1,0,0,0,0,0,0,0,0,0,1
293,Otello | Givatayim,"Katznelson 63, Givatayim, Tel-Aviv",9,32.0754087,34.808214,0,0,0,0,0,0,0,0,1,0,0,0,0,0,0,0,0,1,0,0,0,0,0,0,1,0,0,0,0,0,0,0,0,0,0,0,0
294,Coffee Station | BSR,"Masada 7, Bnei Brak, Tel-Aviv",9,32.093684,34.8245878,0,0,0,0,0,0,0,1,0,0,0,1,0,1,0,0,0,0,0,0,0,0,0,0,0,0,0,1,0,0,0,0,0,0,0,0,0
295,Landwer | Florentin,"Abarbanel 72, Tel-Aviv",8,32.0555878,34.7666672,0,0,0,0,0,0,0,1,0,0,0,0,0,0,0,0,0,0,0,0,0,0,0,0,0,0,1,0,0,0,0,0,0,0,0,0,1
296,Shi-Shi | ??-??,"Ibn Gvirol 33, Tel-Aviv",8.8,32.0752372,34.7815101,0,0,0,0,0,0,0,0,1,0,0,0,0,0,1,0,0,0,0,0,0,0,1,0,0,0,0,0,0,0,0,0,0,1,1,0,0
297,Taqueria,This is a virtual venue,8.6,,,1,0,0,0,0,0,1,1,0,0,0,0,0,0,0,0,0,0,0,0,0,0,0,0,0,0,0,0,0,0,0,0,0,0,0,0,0
298,Café Noir,"One of the people 43, Tel-Aviv",7.8,,,0,0,1,0,0,0,0,1,0,0,0,0,0,0,0,0,0,0,0,0,0,0,0,0,0,0,0,0,0,0,0,0,0,0,0,0,1
299,MeatBar Burger | Dizengoff Square,"Ben Ami 13, Tel Aviv, Tel-Aviv",8.8,32.0781573,34.7738234,1,0,0,0,0,1,0,0,0,0,0,0,0,0,0,0,0,0,0,0,0,0,0,0,0,0,0,0,0,0,0,0,0,0,0,0,0
300,Meat Me | TLV,"Allenby 47, Tel Aviv, Tel-Aviv",8.6,32.0703077,34.7703935,0,0,0,0,0,0,0,0,0,0,0,0,0,1,0,0,0,0,0,0,1,0,0,1,0,0,0,0,0,0,1,0,0,0,0,0,0
301,Cafe Castel,"Ibn Gvirol 151, Tel Aviv-Jaffa, Tel-Aviv",8.8,32.0906802,34.7826725,0,0,0,0,0,0,0,1,0,0,0,0,0,0,0,0,0,0,0,0,0,0,0,0,0,0,0,0,0,0,0,0,0,0,0,0,0
302,Wok Republic | Ben Yehuda,"Ben Yehuda 177 Tel Aviv, Tel-Aviv",7.8,32.0901084,34.7738961,1,0,0,0,0,0,0,0,1,0,0,0,0,0,0,0,0,0,0,0,0,0,1,0,0,0,0,0,0,0,0,1,0,0,0,0,0
303,PØKÉ | Ibn Gabirol 20,"Gvirol stone 20, Tel-Aviv",8.2,32.087631,34.782349,0,0,0,0,0,0,0,0,0,1,0,0,0,0,0,0,0,0,0,0,0,0,0,1,0,0,0,0,0,0,1,0,0,0,0,0,0
304,Bazili.com | Yehuda Maccabi,"Judah Maccabi 53, Tel-Aviv",8.2,,,0,0,0,1,0,0,0,0,0,0,0,0,0,0,0,0,0,0,0,0,0,1,0,0,0,0,0,0,0,0,0,0,0,0,0,0,0
305,Knafeh El Jamila,"KG Jurgen boat 14, Tel-Aviv",8,,,0,0,0,0,0,0,0,0,0,1,0,0,0,0,0,0,0,1,0,0,0,0,0,0,0,0,0,0,0,0,0,0,0,0,0,0,0
306,rebar | TLV Port,"Exhibition 3, Tel-Aviv",7.4,,,0,0,0,0,0,0,0,0,1,0,0,0,0,0,0,0,0,0,0,0,0,0,0,0,0,1,0,1,0,0,0,0,0,0,0,0,0
307,Ze Sushi | Bazel,"Flower Ashroat 14 Tel Aviv, Tel-Aviv",8.4,,,0,0,0,0,0,0,0,0,0,0,0,0,0,0,0,0,0,0,0,0,0,0,1,0,0,0,0,0,0,0,0,0,0,1,1,0,0
308,Roll N Roll Sushi | Ramat Gan,This is a virtual venue,8.8,,,0,0,0,0,0,0,0,0,0,0,0,0,0,0,0,0,0,0,0,0,0,0,1,0,0,0,0,0,0,0,0,0,0,1,1,0,0
309,FU Sushi,"Jeremiah 32, Tel-Aviv",8.2,32.0947534,34.77678437,0,0,0,0,0,0,0,0,0,0,0,0,0,0,0,0,0,0,0,0,0,0,0,0,0,0,0,0,0,0,0,0,0,1,1,0,1
310,Wok Sushi 9,"Yigal Alon 129 Tel Aviv, Tel-Aviv",8,32.0760077,34.7958701,0,0,0,0,0,0,0,0,0,0,0,0,0,0,0,0,0,0,0,0,0,0,1,0,0,0,0,0,0,0,0,1,0,1,1,0,0
311,Fleishman | Herzl,"Herzl 12, Tel-Aviv",8.8,32.062363,34.7699654,1,0,0,0,0,0,0,0,0,0,0,1,0,1,0,0,0,0,0,0,0,0,0,1,0,0,0,0,0,0,1,0,0,0,0,0,0
312,Shawarma Shemesh | Bursa,"Tuval 9, Ramat Gan, Tel-Aviv",8.4,32.0874046,34.8038028,1,1,0,0,0,0,0,0,0,0,0,1,0,1,0,0,0,0,0,0,0,0,0,0,0,0,0,0,0,0,0,0,0,0,0,0,0
313,McDonald's® Bursa Kosher,"Creation 3, Ramat Gan, Tel-Aviv",6.8,32.068424,34.824785,0,0,0,0,0,1,0,0,0,0,0,1,0,0,0,0,0,0,0,0,0,0,0,0,0,0,0,0,0,0,0,0,0,0,0,0,1
314,Amore Mio,"Ibn Gvirol 100, Tel Aviv, Tel-Aviv",9,32.0835373,34.7815637,0,0,0,1,1,0,0,0,1,0,0,0,0,0,0,0,0,0,0,0,0,1,0,0,0,0,0,0,0,0,0,0,0,0,0,0,0
315,HaSchnitzelia,"Carlebach 10, Tel-Aviv",8,32.0690133,34.7831631,0,0,0,0,0,0,0,1,0,0,0,1,0,1,0,0,0,0,0,0,0,0,0,0,0,0,0,0,0,0,0,0,0,0,0,0,0
316,Wok to Walk | HaHashmonaim,"Hasmoneans 86 Tel Aviv, Tel-Aviv",7.6,,,1,0,0,0,0,0,0,0,0,0,0,0,0,0,0,0,0,0,0,0,0,0,1,0,0,0,0,0,0,0,0,0,0,0,0,0,0
317,Lilush Burekas 26,"Bograshov 26, Tel Aviv, Tel-Aviv",8,32.0767005,34.7697204,1,1,0,0,0,0,0,0,0,0,0,0,1,0,0,0,0,0,0,0,0,0,0,0,0,0,0,0,0,0,0,0,0,0,0,0,0
318,Etzel Menash,"Katznelson 67, Givatayim, Tel-Aviv",8.6,32.075461,34.8087958,0,1,0,0,0,0,0,0,0,0,0,0,0,0,1,0,0,0,1,0,0,0,0,0,0,0,0,0,0,0,0,0,0,0,0,0,0
319,Pita Dizengoff,"Dizengoff 112, Tel Aviv, Tel-Aviv",7.2,32.0804275,34.7739779,1,1,0,0,0,0,0,0,0,0,0,1,0,1,0,0,0,0,0,0,0,0,0,0,0,0,0,0,0,0,0,0,0,0,0,0,0
320,Mifgash Gruner,"Jabutinsky 127 Ramat Gan, Tel-Aviv",8,32.0897701,34.8185979,0,0,0,0,0,0,0,0,0,0,0,1,0,0,0,0,0,0,0,0,0,0,0,0,0,0,0,0,0,0,0,0,1,0,0,0,0
321,Rama Pizza Bar,"King George 38 Tel Aviv, Tel-Aviv",8.6,32.0728872,34.7749687,0,0,0,0,0,0,0,0,0,1,0,0,0,0,0,0,0,0,0,0,0,1,0,0,0,0,0,0,0,0,0,0,0,0,0,0,0
322,Nurman,"Hasmoneanim 96c, Tel-Aviv",8.6,,,1,1,0,0,0,0,0,0,0,0,0,1,0,1,0,0,0,0,0,0,0,0,0,0,0,0,0,0,0,0,0,0,0,0,0,0,0
323,Street Kitchen,"Creator 26 Ramat Gan, Tel-Aviv",8.6,32.068424,34.824785,1,0,1,0,0,0,0,0,0,0,0,1,0,0,0,0,0,0,0,0,0,0,0,0,0,0,0,0,0,0,0,0,0,0,0,0,0
324,America Burgers ????,"Allenby 112, Tel-Aviv",8.6,32.0641166,34.7725579,0,0,0,0,0,1,0,0,0,0,0,0,0,0,0,0,0,0,0,0,0,0,0,0,0,0,0,0,0,0,0,0,0,0,0,0,0
325,Red Meat | Nachalat Binyamin,"Nahalat Benjamin 75 Tel Aviv, Tel-Aviv",7.2,32.062041,34.7723573,1,0,0,0,0,0,0,1,0,0,0,0,0,1,0,0,0,0,0,0,0,0,0,0,0,0,0,0,0,0,0,0,0,0,0,0,0
326,HERZOG ??,"Ibn Gvirol 48, Tel-Aviv",8.6,32.0773207,34.7815264,0,0,0,0,0,0,0,0,1,1,0,0,0,0,0,0,0,0,0,0,0,0,0,0,0,0,0,0,0,0,0,0,0,0,0,0,0
327,Wolfnights,"Yehuda Maccabi 53 Tel Aviv, Tel-Aviv",8.2,32.0939229,34.7906881,0,0,0,0,0,1,0,0,0,0,0,0,0,0,0,0,0,0,0,0,0,0,0,0,0,0,0,0,0,0,0,0,0,0,0,0,0
328,Magic Burger | Tel Aviv,"Ibn Gvirol 64, Tel Aviv, Tel-Aviv",8.6,32.0798565,34.7815729,0,0,0,0,0,1,0,0,0,0,0,1,0,1,0,0,0,0,0,0,0,0,0,0,0,0,0,0,0,0,0,0,0,0,0,0,0
329,Batya's Jachnun | Tel Aviv,"King George 4, Tel Aviv, Tel-Aviv",7,32.0701521,34.7710417,0,1,1,0,0,0,0,0,0,0,0,0,1,0,0,0,0,0,0,0,0,0,0,0,0,0,0,0,0,0,0,0,0,0,0,0,0
330,Knafeh Sheinkin,"Sheinkin 4, Tel Aviv, Tel-Aviv",7.6,32.0697337,34.7709146,0,1,0,0,0,0,0,0,0,0,0,0,0,0,0,0,0,1,0,1,0,0,0,0,0,0,0,0,0,0,0,0,0,0,0,0,0
331,Bourekas Non Stop,"Bograshov St 11, Tel Aviv-Yafo, Tel-Aviv",7.6,32.0774955,34.7688657,1,1,0,0,0,0,0,0,0,1,0,1,0,0,0,0,0,0,0,0,0,0,0,0,0,0,0,0,0,0,0,0,0,0,0,0,0
332,Hinnawi Grill,"Carlebach 25, Tel-Aviv",8.6,32.0682887,34.7829257,0,0,0,0,0,0,0,1,0,0,0,0,0,1,0,0,0,0,0,0,0,0,0,0,0,0,0,0,0,0,0,0,1,0,0,0,0
333,La Gaterie,"King George 97, Tel-Aviv",8.8,32.0773032,34.7775023,0,0,0,0,0,0,0,0,0,0,0,0,1,1,0,0,0,1,0,0,0,0,0,0,0,0,0,0,0,0,0,0,0,0,0,0,0
334,Casbah,"Florentine 3, Tel-Aviv",8.2,32.0563025,34.7674507,0,0,0,0,0,0,0,1,0,0,0,0,0,1,0,0,0,0,0,0,0,0,0,0,0,0,1,0,0,0,0,0,0,0,0,0,0
335,Shakshukia,"Ben Yehuda 94, Tel-Aviv",8.4,32.0819222,34.7710575,0,1,0,0,0,0,0,0,0,1,0,0,1,0,0,0,0,0,0,0,0,0,0,0,0,0,0,0,0,0,0,0,0,0,0,0,0
336,Torta Loca,"Menachem Begin 144, Tel Aviv, Tel-Aviv",7.6,32.0930882,34.8322718,1,0,0,0,0,0,1,0,0,0,0,1,0,0,0,0,0,0,0,0,0,0,0,0,0,0,0,0,0,0,0,0,0,0,0,0,0
337,Middle East,"Alon Yigal 94, Tel Aviv, Tel-Aviv",7.8,32.0685272,34.7941568,0,1,0,0,0,0,0,1,0,1,0,0,0,0,0,0,0,0,0,0,0,0,0,0,0,0,0,0,0,0,0,0,0,0,0,0,0
338,Baba Suliman,"Katznelson 147, Givatayim, Tel-Aviv",7.6,32.0756675,34.8177903,1,1,1,0,0,0,0,0,0,0,0,0,0,0,0,0,0,0,0,0,0,0,0,0,0,0,0,0,0,0,0,0,0,0,0,0,0
339,Esterika Pizza Chef,"Jabotinsky 110, Tel-Aviv",8.6,32.0879124,34.7867247,0,0,0,1,0,0,0,1,0,0,0,0,0,0,0,0,0,0,0,0,0,1,0,0,0,0,0,0,0,0,0,0,0,0,0,0,0
340,Pizza Porto | Givatayim,"Sirkin 11A, Givatayim, Tel-Aviv",8.6,32.0777592,34.8144555,0,0,0,1,1,0,0,1,1,1,0,0,0,0,0,0,0,0,0,0,0,1,0,0,0,0,0,0,0,0,0,0,0,0,0,0,0
341,Gusto,"Frishman 90, Tel-Aviv",8.4,32.0793493,34.7797562,0,0,0,1,1,0,0,0,0,0,0,0,0,0,0,0,0,0,0,0,0,1,0,0,0,0,0,0,0,0,0,0,0,0,0,0,0
342,River | Yigal Alon,"Yigal Alon 96, Tel Aviv, Tel-Aviv",7.8,32.0683493,34.7937575,0,0,0,0,0,0,0,0,0,0,0,0,0,0,0,0,0,0,0,0,0,0,1,0,0,0,0,0,0,0,0,0,0,1,1,0,1
343,Da Pizza,"Ibn Gvirol 151, Tel Aviv, Tel-Aviv",8.6,32.0906802,34.7826725,0,0,0,1,0,0,0,0,1,0,0,0,0,0,0,0,0,0,0,0,0,1,0,0,0,0,0,0,0,0,0,0,0,0,0,0,0
344,Marlen Burger | Tel Aviv,"The kings of Israel 8, Tel-Aviv",8.6,,,1,0,0,0,0,1,0,0,0,0,0,0,0,0,0,0,0,0,0,0,0,0,0,0,0,0,0,0,0,0,0,0,0,0,0,0,0
345,Frank | Tel Aviv,"Ibn Gvirol 23, Tel-Aviv",8,32.0738832,34.781602,1,0,0,0,0,0,0,0,0,0,0,0,0,1,0,0,0,0,0,0,0,0,0,0,0,0,0,0,0,0,0,0,0,0,0,0,0
346,Philippe Pizza,"Carlebach 20, Tel Aviv, Tel-Aviv",8.6,32.071049,34.7823216,0,0,0,1,0,0,0,1,0,0,0,0,0,0,0,0,0,0,0,0,0,1,0,0,0,0,0,0,0,0,0,0,0,0,0,0,0
347,Mama Pizza,"Amishav 32, Entrance C, Givatayim, Tel-Aviv",8.4,32.0621463,34.8052536,0,0,0,1,1,0,0,0,0,0,0,1,0,0,0,0,0,0,0,0,0,1,0,0,0,0,0,0,0,0,0,0,0,0,0,0,0
348,Panda Pita,"MLOD 45, Tel-Aviv",8.8,,,1,0,0,0,0,0,0,0,0,1,0,0,0,1,0,0,0,0,0,0,0,0,0,0,0,0,0,0,0,0,0,0,0,0,0,0,0
349,CAFE TAIZU,This is a virtual venue,8.6,,,0,0,0,0,0,0,0,0,0,0,0,0,0,0,0,0,0,0,0,0,0,0,1,0,0,0,0,0,0,1,0,1,0,0,0,0,1
350,Moses Shop | Midtown,"Menachem Begin 144A, Tel Aviv, Tel-Aviv",8.4,32.0930882,34.8322718,0,0,0,0,0,1,0,0,0,0,0,0,0,0,0,0,0,0,0,0,0,0,0,0,0,0,0,0,1,0,0,0,0,0,0,0,0
351,Zuppa | Ibn Gabirol 138,"Ibn Gvirol 138, Tel-Aviv",8.4,32.0884716,34.7825739,0,0,0,0,0,0,0,1,0,0,0,0,0,1,1,0,0,0,0,0,0,0,0,0,0,0,0,0,0,0,0,0,0,0,0,0,0
352,Miazaki,"Champion Magen Klman 3, Tel Aviv, Tel-Aviv",8.4,32.0486412,34.7930768,0,0,0,0,0,0,0,0,0,0,0,0,0,0,1,0,0,0,0,0,0,0,1,0,0,0,0,0,0,0,0,0,0,0,1,0,1
353,Pasta Basta | Dizengoff,"Dizengoff 300, Tel-Aviv",7.8,32.0943429,34.7768409,1,0,0,1,1,0,0,0,0,0,0,0,0,0,0,0,0,0,0,0,0,1,0,0,0,0,0,0,0,0,0,0,0,0,0,0,0
354,Nam King George,"King George 84, Tel-Aviv",8.8,32.0772358,34.777831,0,0,0,0,0,0,0,0,0,0,0,0,0,0,0,0,0,0,0,0,0,0,1,0,0,0,0,0,0,0,0,1,0,0,0,0,0
355,Chop Chop,"Gvirol stone 20, Tel-Aviv",8,32.087631,34.782349,0,0,0,0,0,0,0,0,0,0,0,0,0,0,0,0,0,0,0,0,0,0,1,0,0,0,0,0,0,0,0,0,0,1,1,0,0
356,Otello | TLV Port,"Renovation of Boat 1, Tel Aviv, Tel-Aviv",9.6,32.0366231,34.7962753,0,0,0,0,0,0,0,0,1,0,0,0,0,0,0,0,0,1,0,0,0,0,0,0,1,0,0,0,0,0,0,0,0,0,0,0,0
357,Samarkand,"Through Ben Zvi 34, Tel-Aviv",8.6,32.0570866,34.8300148,0,1,1,0,0,0,0,0,0,0,0,1,0,0,0,0,0,0,0,0,1,0,0,0,0,0,0,0,0,0,0,0,0,0,0,0,0
358,Kansai Sushi,"Yigal Alon 94, Tel-Aviv",8,32.0685272,34.7941568,0,0,0,0,0,0,0,1,0,0,0,1,0,0,0,0,0,0,0,0,0,0,1,0,0,0,0,0,0,0,0,0,0,1,1,0,0
359,Torii Givatayim,"Katznelson 62 Givatayim, Tel-Aviv",8.2,32.0751498,34.808971,0,0,0,0,0,0,0,0,0,0,0,0,0,0,0,0,0,0,0,0,0,0,1,0,0,0,0,0,0,0,0,0,0,1,1,0,1
360,Chooka | Ramat Aviv,"Einstein 40, Tel Aviv, Tel-Aviv",8,32.1122558,34.7959133,0,0,0,0,0,0,0,0,0,0,0,1,0,0,0,0,0,0,0,0,0,0,1,0,0,0,0,0,0,0,0,0,0,1,1,0,0
361,Uno Italiano,"Weizman 2, Tel-Aviv",7.8,32.0775668,34.7891393,0,0,0,1,1,0,0,0,0,0,0,1,0,0,0,0,0,0,0,0,0,0,0,0,0,0,0,0,0,0,0,0,0,0,0,0,0
362,Chef Salad | ?? ???,"Yehuda Halevi 47, Tel Aviv, Tel-Aviv",8.6,32.0622122,34.773691,0,0,0,1,1,0,0,1,0,0,0,1,0,0,0,0,0,0,0,0,0,0,0,0,0,0,0,0,0,0,0,0,0,0,0,0,0
363,Benedict | Ben Yehuda,"I Yehuda 171, Tel-Aviv",8.2,,,0,0,0,0,0,0,0,0,0,0,0,0,1,1,0,0,0,1,0,0,0,0,0,0,0,0,0,0,0,0,0,0,0,0,0,0,0
364,Delissimo,"Surbur 4, Tel Aviv, Tel-Aviv",8.6,32.074711,34.8435966,0,0,0,0,0,0,0,1,0,0,0,0,0,1,0,0,0,0,0,0,0,0,0,0,0,0,0,0,0,0,0,0,1,0,0,0,0
365,Japan Japan | Tel Aviv,"Fourth 28, Tel-Aviv",7.6,,,0,0,0,0,0,0,0,0,0,0,0,1,0,0,0,0,0,0,0,0,0,0,1,0,0,0,0,0,0,0,0,0,0,1,1,0,0
366,Patatas | TLV,"Bograshov 64, Tel Aviv, Tel-Aviv",8.4,32.0754919,34.7723404,1,0,0,0,0,0,0,0,0,0,0,0,0,0,0,0,0,0,0,0,0,0,0,0,0,0,0,0,0,0,0,0,1,0,0,0,0
367,Shake House,"Bialik 58 Ramat Gan, Tel-Aviv",8.6,32.0846331,34.8131015,0,0,0,0,0,0,0,0,1,0,0,0,1,0,0,0,0,1,0,0,0,0,0,0,0,1,0,0,0,0,0,0,0,0,0,0,0
368,Pizza Margherita,"Herzog 27 Givatayim, Tel-Aviv",8.8,32.072176,34.808871,0,0,0,1,1,0,0,0,0,0,0,0,0,0,0,0,0,0,0,0,0,1,0,0,0,0,0,0,0,0,0,0,0,0,0,0,0
369,Noybie's Deli,"Yehuda Halevi 55 Tel Aviv, Tel-Aviv",8.8,32.0626433,34.7745871,1,0,0,0,0,0,0,1,0,0,0,0,0,1,0,0,0,0,0,0,0,0,0,0,0,0,0,0,0,0,0,0,0,0,0,0,0
370,??? Unniko | Hamasger,"Lost 38, Tel Aviv, Tel-Aviv",8.4,,,0,0,0,0,0,0,0,0,1,0,0,0,0,0,0,0,0,0,0,0,0,0,1,0,0,0,0,0,0,0,0,0,0,1,1,0,0
371,Babka Pizza | Habima,"TSS 2, Tel Aviv, Tel-Aviv",8.2,32.1447983,34.8025752,0,0,0,0,0,0,0,1,0,0,0,0,0,0,0,0,0,1,0,0,0,1,0,0,0,0,0,0,0,0,0,0,0,0,0,0,0
372,Onami,"Fourth 18 Tel Aviv, Tel-Aviv",8.6,,,0,0,0,0,0,0,0,0,0,0,0,0,0,0,0,0,0,0,0,0,0,0,1,0,0,0,0,0,0,0,0,0,0,1,1,0,0
373,Arais Mahane Yehuda | Herzel,"Herzl 12, Tel-Aviv",8.6,32.062363,34.7699654,1,1,0,0,0,1,0,0,0,0,0,1,0,0,0,0,0,0,0,0,0,0,0,0,0,0,0,0,0,0,0,0,0,0,0,0,0
374,Giveret Kotiyao,"Good day 2, Tel Aviv, Tel-Aviv",8.2,,,0,0,0,0,0,0,0,0,0,0,0,0,0,0,1,0,0,0,0,0,0,0,1,0,0,0,0,0,0,0,0,1,0,0,0,0,0
375,McDonald’s® Bialik Kosher,"BIALIK STEET 76, Ramat Gan, Tel-Aviv",6.4,32.0857936,34.8115303,0,0,0,0,0,1,0,0,0,0,0,1,0,0,0,0,0,0,0,0,0,0,0,0,0,0,0,0,0,0,0,0,0,0,0,0,1
376,Pancake House TLV | TLV Port,"Pavilion 22 Tel Aviv Port, Tel Aviv, Tel-Aviv",8.4,32.096203,34.773158,0,0,0,0,0,0,0,0,1,0,0,0,1,1,0,0,0,1,0,0,0,0,0,0,0,0,0,0,0,0,0,0,0,0,0,0,0
377,ThaiLandi | Chang Mai,"Carmel 7, Tel Aviv, Tel-Aviv",7.6,32.0697059,34.7701066,1,0,0,0,0,0,0,0,0,0,0,0,0,0,0,0,0,0,0,0,0,0,1,0,0,0,0,0,0,0,0,1,0,0,0,0,0
378,Pita Basta | Ramat Gan,"Ben Gurion 2, Ramat Gan, Tel-Aviv",8.4,32.0815746,34.8704668,1,1,0,0,0,0,0,0,0,0,0,1,0,1,0,0,0,0,0,0,0,0,0,0,0,0,0,0,0,0,0,0,0,0,0,0,0
379,Pizza Agvania ?? Sheinkin,"Shinkin 19, Tel-Aviv",7.4,,,0,0,0,1,1,0,0,0,0,0,0,1,0,0,0,0,0,0,0,0,0,1,0,0,0,0,0,0,0,0,0,0,0,0,0,0,0
380,Kaspi | Neot Afeka,"Nathan Alterman 13, Tel Aviv, Tel-Aviv",8.2,32.1199131,34.8205295,1,1,0,0,0,0,0,0,0,0,0,0,0,0,0,0,1,0,0,0,0,0,0,0,0,0,0,0,0,0,0,0,0,0,0,0,0
381,Arte Italian Ice Cream,"Nahalat Benjamin 11, Tel-Aviv",9.4,32.068344,34.7701602,0,0,0,0,0,0,0,0,0,0,0,0,0,0,0,0,0,1,0,0,0,0,0,0,1,0,0,0,0,0,0,0,0,0,0,0,0
382,Shawarma Auni Express,"A Solomon Road 19, Tel-Aviv",8.2,,,1,1,0,0,0,0,0,0,0,0,0,0,0,1,0,0,0,0,0,0,0,0,0,0,0,0,0,0,0,0,0,0,0,0,0,0,0
383,Paca Paca,"Amishav 45, Givatayim, Tel-Aviv",9,32.0616914,34.8064168,0,0,0,0,0,0,0,0,0,0,0,1,0,1,0,0,0,0,0,0,0,0,0,0,0,0,0,0,0,0,0,0,0,0,0,0,0
384,Asia-T,"A whole way 11, Tel-Aviv",8.4,,,1,0,0,0,0,0,0,0,0,0,0,0,0,0,0,0,0,0,0,0,0,0,1,0,0,0,0,0,0,0,0,1,0,0,0,0,0
385,Puaa,"Rabbi Yochanan 8 Tel Aviv - Jaffa, Tel-Aviv",8.8,32.0525358,34.7563141,0,0,0,0,0,0,0,0,0,1,0,0,0,1,0,0,0,0,0,0,0,0,0,1,0,0,0,0,0,0,1,0,0,0,0,0,0
386,Nova,"Bialik 60 Ramat Gan, Tel-Aviv",8.2,32.0846688,34.8130527,0,0,0,1,1,0,0,1,0,0,0,1,0,0,0,0,0,0,0,0,0,0,0,0,0,0,0,0,0,0,0,0,0,0,0,0,0
387,Trio Georgian Bakery,"Herzl 90, Ramat Gan, Tel-Aviv",9.2,32.0880105,34.8150243,1,0,0,0,0,0,0,1,0,0,0,0,0,0,1,0,0,0,0,0,0,0,0,0,0,0,0,0,0,0,0,0,0,0,0,0,0
388,Hativonit J17,"Jeremiah 17, Tel-Aviv",8,32.094863,34.775886,0,0,1,0,0,0,0,0,1,1,0,1,0,0,0,0,0,0,0,0,0,0,0,0,0,0,0,0,0,0,0,0,0,0,0,0,0
389,Tropico,"Shinkin 49, Givatayim, Tel-Aviv",8.2,32.072176,34.808871,0,0,0,0,0,0,0,1,0,0,0,1,0,1,1,0,0,0,0,0,0,0,0,0,0,0,0,0,0,0,0,0,0,0,0,0,0
390,Yaffa Knafeh,"Gypsum Zion 24, Tel-Aviv",8.6,32.0955686,34.7741875,0,1,0,0,0,0,0,0,0,0,0,0,0,0,0,0,0,0,0,0,0,0,0,0,0,0,0,0,0,0,0,0,0,0,0,0,0
391,Mozzarella Bakfar,"Alankwa 78, Tel-Aviv",7.2,,,0,0,0,0,1,0,0,0,0,0,0,0,0,0,0,0,0,0,0,0,0,1,0,0,0,0,0,0,0,0,0,0,0,0,0,0,0
392,Bariella,"Wall and Tower 16, Tel Aviv-Jaffa, Tel-Aviv",8.4,32.049357,34.758355,0,0,1,0,0,0,0,0,1,1,0,0,0,0,0,0,0,0,0,0,0,0,0,0,0,0,0,0,0,0,0,0,0,0,0,0,0
393,Pizza Agvania ?? Ramat Gan,"Ze'ev Jabotinsky 155 Ramat Gan, Tel-Aviv",6.8,32.0910494,34.8223068,0,0,0,1,1,0,0,0,0,0,0,1,0,0,0,0,0,0,0,0,0,1,0,0,0,0,0,0,0,0,0,0,0,0,0,0,0
394,La Lasagna,"Dizengoff 177, Tel-Aviv",7,32.0852452,34.7742951,0,0,0,1,1,0,0,0,0,0,0,1,0,0,0,0,0,0,0,0,0,0,0,0,0,0,0,0,0,0,0,0,0,0,0,0,0
395,Pizza Ramat Chen,"Pay 1, Ramat Gan, Tel-Aviv",8.4,32.068424,34.824785,1,0,0,1,0,0,0,0,0,0,0,1,0,0,0,0,0,0,0,0,0,1,0,0,0,0,0,0,0,0,0,0,0,0,0,0,0
396,Rodeo,"Jordan 94, Ramat Gan, Tel-Aviv",8,32.068424,34.824785,0,0,0,0,0,1,0,1,0,0,0,1,0,1,0,0,0,0,0,0,0,0,0,0,0,0,0,0,0,0,0,0,0,0,0,0,0
397,La Goffre | Givatayim,"right Yitshak Rabin, Tel-Aviv",7.4,32.0646327,34.8637586,0,0,0,0,0,0,0,0,0,0,0,0,0,0,0,0,0,1,0,0,0,0,0,0,1,0,0,0,0,0,0,0,0,0,0,0,0
398,Chick Chack,"Bialik 60, Ramat Gan, Tel-Aviv",8.6,32.0846688,34.8130527,1,0,0,0,0,0,0,1,0,0,0,0,0,1,0,0,0,0,0,0,0,0,0,0,0,0,0,0,0,0,0,0,0,0,0,0,0
399,Gold Ice Cream,"Katznelson 52, Tel-Aviv",6.8,32.0773198,34.7823042,0,0,0,0,0,0,0,0,0,0,0,1,0,0,0,0,0,1,0,1,0,0,0,0,1,0,0,0,0,0,0,0,0,0,0,0,0
400,River Express | Dizengoff,"Dizengoff 61 Tel Aviv, Tel-Aviv",7.8,32.075812,34.7746887,0,0,0,0,0,0,0,0,0,0,0,0,0,0,0,0,0,0,0,0,0,0,1,0,0,0,0,0,0,0,0,0,0,1,1,0,0
401,Comptoir Français,"Lillenblum 33, Tel-Aviv",9,32.062665,34.7715308,0,0,0,0,0,0,0,1,0,0,0,1,0,1,0,0,0,0,0,0,0,0,0,0,0,0,0,0,0,0,0,0,0,0,0,0,0
402,Fresh Bowl | Tel Aviv,This is a virtual venue,8,,,0,0,0,0,0,0,0,1,0,0,0,0,0,0,0,0,0,0,0,0,0,0,0,1,0,0,0,0,0,0,1,0,0,1,1,0,0
403,Chentro,"Levinsky 30 Tel Aviv, Tel-Aviv",9.2,32.0597618,34.7714453,0,0,0,0,0,0,0,0,0,1,0,0,0,1,0,0,0,0,0,0,0,0,0,0,0,0,0,0,0,0,0,0,0,0,0,0,0
404,Cafe Cafe | Marom Nave,"Want 19 Ramat Gan, Tel-Aviv",7,32.068424,34.824785,0,0,0,0,1,0,0,0,0,0,0,1,1,1,0,0,0,0,0,0,0,0,0,0,0,0,1,0,0,0,0,0,0,0,0,0,0
405,Lela,"Habash 42, Tel-Aviv",8,32.0615524,34.7789066,0,0,1,0,0,0,0,0,0,1,0,0,0,0,0,0,0,0,1,0,0,0,0,0,0,0,0,0,0,0,0,0,0,0,0,0,0
406,Georgina,"Barzilai 6, Tel Aviv, Tel-Aviv",7.4,32.0619241,34.7751398,0,0,0,1,0,0,0,1,0,0,0,0,1,1,0,0,0,0,0,0,0,1,0,0,0,0,0,0,0,0,0,0,0,0,0,0,0
407,Kebab House,"Steps, 10, Tel Aviv, Tel-Aviv",7.4,32.0773104,34.7936985,0,1,0,0,0,0,0,0,0,0,0,1,0,0,0,0,0,0,0,0,0,0,0,0,0,0,0,0,0,0,0,0,0,0,0,0,0
408,Bodega American Kitchen,"14 Carlebach, Tel-Aviv",8.2,32.0705071,34.7825751,1,0,0,0,0,1,0,0,0,0,0,1,0,0,0,0,0,0,0,0,0,0,0,0,0,0,0,0,0,0,0,0,0,0,0,0,1
409,Jara | ?'???,This is a virtual venue,8.8,,,1,1,0,0,0,0,0,1,0,0,0,0,0,0,1,0,0,0,0,0,1,0,0,0,0,0,0,0,0,0,0,0,0,0,0,1,0
410,Oro,"Levontin 12, Tel Aviv, Tel-Aviv",9,32.0617724,34.7754413,0,0,0,1,0,0,0,0,1,0,0,0,1,1,0,0,0,0,0,0,0,0,0,0,0,0,0,0,0,0,0,0,0,0,0,0,0
411,Smoki,"Nahalat Benjamin 52, Tel-Aviv",9,32.0634108,34.7715568,0,1,0,0,0,0,0,0,0,0,0,1,0,1,0,0,0,0,0,0,0,0,0,1,0,0,0,0,0,0,1,0,0,0,0,0,0
412,Pizza Grinberg | North TLV,"Uri Zvi Greenberg 25, Tel-Aviv",8.4,32.1307046,34.7922211,0,0,0,0,1,0,0,1,0,0,0,0,0,0,0,0,0,0,0,0,0,1,0,0,0,0,0,0,0,0,0,0,0,0,0,0,0
413,Indira,"King Saul Boulevard 4, Tel-Aviv",8,,,0,0,0,0,0,0,0,0,0,1,0,0,0,0,0,0,0,0,0,0,0,0,0,0,0,0,0,0,0,1,0,0,0,0,0,0,0
414,Neighbours Cafe,"Champion David 2 Ramat Gan, Tel-Aviv",8.8,32.0829337,34.8160777,0,0,0,0,0,0,0,1,0,0,0,0,0,1,0,0,0,0,0,0,0,0,0,0,0,0,1,0,0,0,0,0,0,0,0,0,0
415,Saone Rhone,"Yehuda Halevi 44 Tel Aviv, Tel-Aviv",9.4,32.0615364,34.7727553,1,0,0,0,0,0,0,1,1,0,0,0,0,0,0,0,0,0,0,0,0,0,0,0,0,0,0,0,0,1,0,0,0,0,0,0,0
416,Florentin Burger | TLV,"Florentine 5, Tel Aviv, Tel-Aviv",8.2,32.0562879,34.7677873,1,0,0,0,0,1,0,0,0,0,0,1,0,0,0,0,0,0,0,0,0,0,0,0,0,0,0,0,0,0,0,0,0,0,0,0,0
417,TRIO,"Allenby 117, Tel Aviv, Tel-Aviv",8.8,32.062255,34.7735149,0,0,0,0,0,0,0,1,0,0,0,1,1,1,0,0,0,0,0,0,0,0,0,0,0,0,0,0,0,0,0,0,0,0,0,0,0
418,Deli Cream | Tel Aviv,"Yehuda Halevi 12, Tel Aviv, Tel-Aviv",8.6,32.0613337,34.7690004,0,0,0,0,0,0,0,0,0,0,0,0,0,0,0,0,0,1,0,0,0,0,0,0,1,0,0,0,0,0,0,0,0,0,0,0,0
419,Pizza Garage,"right yitshak Rabin 53, Giv'atayim, Tel-Aviv",8,32.072176,34.808871,0,0,0,1,0,0,0,0,0,0,0,1,0,0,0,0,0,0,0,0,0,1,0,0,0,0,0,0,0,0,0,0,0,0,0,0,1
420,Baba Yaga,"Hayarkon 12, Tel-Aviv",9.2,32.0691706,34.764545,0,0,0,0,0,0,0,0,0,0,0,0,0,0,1,0,0,0,0,0,0,0,0,1,0,0,0,0,0,0,1,0,0,0,0,0,1
421,Pizza Domino,"Laskov 4, Tel Aviv, Tel-Aviv",7.4,32.0712598,34.7824498,0,0,0,1,0,0,0,0,1,0,0,1,0,0,0,0,0,0,0,0,0,1,0,0,0,0,0,0,0,0,0,0,0,0,0,0,0
422,JAPO | B.S.R,"9 Forest Street, Bnei Brak, Tel-Aviv",8.6,32.084932,34.835226,0,0,0,0,0,0,0,1,0,0,0,1,0,0,0,0,0,0,0,0,0,0,1,0,0,0,0,0,0,0,0,0,0,0,0,0,0
423,Pulkale,"Hudit 11 Sdert, Tel Aviv-Yafo, Israel, Tel-Aviv",8.8,,,0,1,0,0,0,0,0,0,0,0,0,0,0,0,0,0,0,0,0,0,0,0,0,0,0,0,0,0,0,0,0,0,0,0,0,0,0
424,Pizza Papale,"Tuval 15 Ramat Gan Stock Exchange, Tel-Aviv",8.8,32.0861897,34.8031344,1,0,0,1,0,0,0,0,0,0,0,1,0,0,0,0,0,0,0,0,0,1,0,0,0,0,0,0,0,0,0,0,0,0,0,0,0
425,Balinjera,"Malan 2, Tel Aviv, Tel-Aviv",9.4,32.0699066,34.7664905,0,0,0,0,0,0,0,0,1,1,0,1,0,0,0,0,0,0,0,0,0,0,0,0,0,0,0,0,0,0,0,0,0,0,0,0,0
426,Oshi Oshi | TLV Port,"Tel Aviv's Port Hangar 21, Tel-Aviv",7.6,,,0,0,0,0,0,0,0,0,0,0,0,1,0,0,0,0,0,0,0,0,0,0,1,0,0,0,0,0,0,0,0,0,0,1,1,0,0
427,Pizzale,"Jabotinsky 12, Bnei Brak, Tel-Aviv",7.6,32.0909461,34.8241896,0,0,0,0,1,0,0,1,0,0,0,1,0,0,0,0,0,0,0,0,0,1,0,0,0,0,0,0,0,0,0,0,0,0,0,0,0
428,Cafe Nimrod | Sarona,"David Elazar 12, Tel Aviv, Tel-Aviv",8.4,32.0725391,34.7882116,0,0,0,0,0,0,0,1,0,0,0,0,1,0,0,0,0,0,0,0,0,0,0,0,0,0,1,0,0,0,0,0,0,0,0,0,0
429,Chef Be Levontin,"Levontin 1, Tel-Aviv",8.6,32.0614525,34.7738187,0,0,1,0,0,0,0,0,0,0,0,1,0,0,0,0,0,0,0,0,1,0,0,0,0,0,0,0,0,0,0,0,1,0,0,0,0
430,Chachapuri Sisters,"Levinsky 52, Tel-Aviv",8.8,32.0593894,34.7734505,1,0,0,0,0,0,0,0,1,0,0,0,0,0,0,0,0,0,1,0,0,0,0,0,0,0,0,0,0,0,0,0,0,0,0,0,0
431,Mama Greg | Ayalon Mall,"Dad Hillel 301, Ramat Gan, Tel-Aviv",7.6,32.080045,34.822585,0,0,0,1,1,0,0,1,0,0,0,1,0,0,0,0,0,0,0,0,0,1,0,0,0,0,0,0,0,0,0,0,0,0,0,0,0
432,Casino San Remo,"Comfort 2, Tel-Aviv",7.6,32.057842,34.766094,1,0,0,0,0,0,0,1,0,1,0,0,0,0,0,0,0,0,0,0,0,0,0,0,0,0,0,0,0,0,0,0,0,0,0,0,0
433,Fish and Chips Market,"Good day 7, Tel-Aviv",8,,,1,0,0,0,0,0,0,0,0,0,0,0,0,0,0,0,0,0,0,0,0,0,0,1,0,0,0,0,0,0,1,0,0,0,0,0,0
434,Tika Pika | Dizengoff,This is a virtual venue,7.6,,,0,0,0,0,0,0,0,0,0,0,0,0,0,0,0,0,0,0,0,0,0,0,0,1,0,0,0,0,0,1,1,0,0,0,0,0,0
435,Menashe Meats,"Mazuh 4, Tel Aviv, Tel-Aviv",8.4,32.074711,34.8435966,0,0,1,0,0,0,0,0,0,0,0,0,0,0,0,0,0,0,0,0,0,0,0,0,0,0,0,0,1,0,0,0,0,0,0,0,0
436,Moses | Rothschild,"Will build 34, Tel-Aviv",7.6,,,0,0,0,0,0,1,0,0,0,0,0,0,0,0,0,0,0,0,0,0,0,0,0,0,0,0,0,0,0,0,0,0,0,0,0,0,1
437,Pizza Papale,"Tuval 15 Ramat Gan Stock Exchange, Tel-Aviv",8.8,32.0861897,34.8031344,1,0,0,1,0,0,0,0,0,0,0,1,0,0,0,0,0,0,0,0,0,1,0,0,0,0,0,0,0,0,0,0,0,0,0,0,0
438,Trio Georgian Bakery,"Herzl 90, Ramat Gan, Tel-Aviv",9.2,32.0880105,34.8150243,1,0,0,0,0,0,0,1,0,0,0,0,0,0,1,0,0,0,0,0,0,0,0,0,0,0,0,0,0,0,0,0,0,0,0,0,0
439,Pita Pita,"Of Huda Marko St 4, of thefo, Tel-Aviv",9,,,1,1,0,0,0,0,0,0,0,0,0,1,0,1,0,0,0,0,0,0,0,0,0,0,0,0,0,0,0,0,0,0,0,0,0,0,0
440,Shawarma Grill Street,"Bialik 77 Ramat Gan, Tel-Aviv",7.8,32.0854435,34.8110638,1,1,0,0,0,0,0,0,0,0,0,1,0,0,0,0,0,0,0,0,0,0,0,0,0,0,0,0,0,0,0,0,1,0,0,0,0
441,Yaffa Knafeh,"Gypsum Zion 24, Tel-Aviv",8.6,32.0955686,34.7741875,0,1,0,0,0,0,0,0,0,0,0,0,0,0,0,0,0,0,0,0,0,0,0,0,0,0,0,0,0,0,0,0,0,0,0,0,0
442,Turbo Sausage Toast | North TLV,"Path Nmir Mordechai 170, Tel-Aviv",6,,,1,0,0,0,0,0,0,0,0,0,0,0,0,1,0,0,0,0,0,0,0,0,0,0,0,0,0,0,0,0,0,0,0,0,0,0,0
443,Penne Pasta Bar,"Bograshov 21, Tel Aviv, Tel-Aviv",8.2,32.0770903,34.7697714,0,0,0,1,1,0,0,0,0,0,0,1,0,0,0,0,0,0,0,0,0,0,0,0,0,0,0,0,0,0,0,0,0,0,0,0,0
444,Turk Lahmajoun,"Nahalat Benjamin 77, Tel-Aviv",8.4,32.0641166,34.7725579,0,0,0,0,0,0,0,0,0,0,0,1,0,0,0,0,0,0,0,0,0,0,0,0,0,0,0,0,0,0,0,0,1,0,0,0,0
445,Mozzarella Bakfar,"Alankwa 78, Tel-Aviv",7.2,,,0,0,0,0,1,0,0,0,0,0,0,0,0,0,0,0,0,0,0,0,0,1,0,0,0,0,0,0,0,0,0,0,0,0,0,0,0
446,Ve'Savata Ve'Berachta,"Etzel 47, Tel Aviv, Tel-Aviv",8,32.0514895,34.7916945,0,0,0,0,0,0,0,0,0,0,0,1,0,0,0,0,1,0,0,0,0,0,0,0,0,0,0,0,0,0,0,0,1,0,0,0,0
447,Piazza Grande,"Kalman Protects 5, Tel-Aviv",7.6,,,0,0,0,1,1,0,0,0,0,0,0,1,0,0,0,0,0,0,0,0,0,1,0,0,0,0,0,0,0,0,0,0,0,0,0,0,0
448,Pasta in the City,"Jerusalem Bedt 7 Ramat Gan, Tel-Aviv",7.6,32.0851035,34.8298884,0,0,0,1,1,0,0,0,0,0,0,1,0,0,0,0,0,0,0,0,0,0,0,0,0,0,0,0,0,0,0,0,0,0,0,0,0
449,Bariella,"Wall and Tower 16, Tel Aviv-Jaffa, Tel-Aviv",8.4,32.049357,34.758355,0,0,1,0,0,0,0,0,1,1,0,0,0,0,0,0,0,0,0,0,0,0,0,0,0,0,0,0,0,0,0,0,0,0,0,0,0
450,Zitune,"Menachem Begin 55, Tel Aviv, Tel-Aviv",8.6,32.093423,34.832177,0,1,1,0,0,0,0,0,0,0,0,0,0,0,0,0,1,0,0,0,0,0,0,0,0,0,0,0,0,0,0,0,0,0,0,0,0
451,Shtsupak,"Ben Yehuda 256, Tel-Aviv",9,32.0953003,34.7757958,0,1,0,0,0,0,0,1,0,0,0,0,0,0,0,0,0,0,0,0,0,0,0,1,0,0,0,0,0,0,1,0,0,0,0,0,0
452,Pizza Agvania ?? Ramat Gan,"Ze'ev Jabotinsky 155 Ramat Gan, Tel-Aviv",6.8,32.0910494,34.8223068,0,0,0,1,1,0,0,0,0,0,0,1,0,0,0,0,0,0,0,0,0,1,0,0,0,0,0,0,0,0,0,0,0,0,0,0,0
453,Alora Italian Home,"Ben Gurion Boulevard 39 Tel Aviv, Tel-Aviv",7.2,32.0847837,34.7737772,0,0,0,1,1,0,0,1,0,0,0,0,0,0,0,0,0,0,0,0,0,0,0,0,0,0,0,0,0,0,0,0,0,0,0,0,0
454,La Lasagna,"Dizengoff 177, Tel-Aviv",7,32.0852452,34.7742951,0,0,0,1,1,0,0,0,0,0,0,1,0,0,0,0,0,0,0,0,0,0,0,0,0,0,0,0,0,0,0,0,0,0,0,0,0
455,Rodeo,"Jordan 94, Ramat Gan, Tel-Aviv",8,32.068424,34.824785,0,0,0,0,0,1,0,1,0,0,0,1,0,1,0,0,0,0,0,0,0,0,0,0,0,0,0,0,0,0,0,0,0,0,0,0,0
456,La Goffre | Givatayim,"right Yitshak Rabin, Tel-Aviv",7.4,32.0646327,34.8637586,0,0,0,0,0,0,0,0,0,0,0,0,0,0,0,0,0,1,0,0,0,0,0,0,1,0,0,0,0,0,0,0,0,0,0,0,0
457,Tiger Lilly | Sarona,"Major General Kellman Magen 3, Tel-Aviv",8.2,32.0509813,34.7584892,0,0,0,0,0,0,0,0,0,0,0,0,0,0,0,0,0,0,0,0,0,0,0,0,0,0,0,0,0,0,0,1,0,0,0,0,0
458,Chick Chack,"Bialik 60, Ramat Gan, Tel-Aviv",8.6,32.0846688,34.8130527,1,0,0,0,0,0,0,1,0,0,0,0,0,1,0,0,0,0,0,0,0,0,0,0,0,0,0,0,0,0,0,0,0,0,0,0,0
459,Gold Ice Cream,"Katznelson 52, Tel-Aviv",6.8,32.0773198,34.7823042,0,0,0,0,0,0,0,0,0,0,0,1,0,0,0,0,0,1,0,1,0,0,0,0,1,0,0,0,0,0,0,0,0,0,0,0,0
460,The Blue Rooster,"Nissim Aloni 10, Tel-Aviv",8.6,32.0889232,34.7972939,0,1,0,0,0,0,0,0,0,0,0,0,0,0,0,0,0,0,0,0,0,0,0,0,0,0,0,0,0,0,0,0,0,0,0,0,0
461,River Express | Dizengoff,"Dizengoff 61 Tel Aviv, Tel-Aviv",7.8,32.075812,34.7746887,0,0,0,0,0,0,0,0,0,0,0,0,0,0,0,0,0,0,0,0,0,0,1,0,0,0,0,0,0,0,0,0,0,1,1,0,0
462,Giardino Bello | North TLV,"Warsaw community 54, Tel-Aviv",7.4,,,0,0,0,1,1,0,0,0,0,0,0,0,0,0,0,0,0,1,0,0,0,0,0,0,0,0,0,0,0,0,0,0,0,0,0,0,0
463,Mifgash Aladin,"Sluador 3 Tel Aviv, Tel-Aviv",9,,,1,0,1,0,0,0,0,0,0,0,0,1,0,0,0,0,0,0,0,0,0,0,0,0,0,0,0,0,0,0,0,0,0,0,0,0,0
464,Ginger Grill Bar,"Ramat Gan Jabotinsky 35, Tel-Aviv",8.4,32.0838826,34.8065868,0,0,1,0,0,0,0,0,0,0,0,1,0,0,0,0,1,0,0,0,0,0,0,0,0,0,0,0,0,0,0,0,0,0,0,0,0
465,Dirty Dogs,"Four 2, Tel Aviv, Tel-Aviv",7,32.1447983,34.8025752,1,0,0,0,0,0,0,0,0,0,0,0,0,1,0,0,0,0,0,0,0,0,0,0,0,0,0,0,1,0,0,0,0,0,0,0,0
466,Cafe Fresh | North TLV,"Aba Akhime'ir St 18, Tel-Aviv",7.4,32.1245216,34.8018283,0,0,0,1,0,0,0,0,0,0,0,0,0,0,0,0,0,0,0,0,0,0,0,1,0,0,0,0,0,0,1,0,0,0,0,0,0
467,Casino San Remo,"Comfort 2, Tel-Aviv",7.6,32.057842,34.766094,1,0,0,0,0,0,0,1,0,1,0,0,0,0,0,0,0,0,0,0,0,0,0,0,0,0,0,0,0,0,0,0,0,0,0,0,0
468,Gelateria | North TLV,"Uri Zvi Greenberg 25, Tel-Aviv",8,32.1307046,34.7922211,0,0,0,0,0,0,0,0,0,0,0,0,0,0,0,0,0,1,0,0,0,0,0,0,1,0,0,0,0,0,0,0,0,0,0,0,0
469,Pita Machneyuda | TLV,"Ashli House 3, Tel Aviv, Tel-Aviv",8,,,1,1,0,0,0,0,0,0,0,0,0,1,0,0,0,0,0,0,0,0,0,0,0,0,0,0,0,0,0,0,0,0,1,0,0,0,0
470,Menachem,"Hayarkon 88, Tel Aviv, Tel-Aviv",8.2,32.0777623,34.7675604,0,1,0,0,0,0,0,1,0,0,0,0,0,1,0,0,0,0,0,0,0,0,0,0,0,0,0,0,0,0,0,0,0,0,0,0,0
471,Captain Hook,"Amiad 13, Tel Aviv, Tel-Aviv",7.8,32.0534258,34.756214,1,1,0,0,0,0,0,0,0,0,0,0,0,0,0,0,0,0,0,0,0,0,0,1,0,0,0,0,0,0,1,0,0,0,0,0,0
472,Falafel Ba'Ribua | Yad Harutzim,"Hand -down 15, Tel-Aviv",8.2,,,0,1,0,0,0,0,0,1,0,0,0,1,0,0,0,0,1,0,0,0,0,0,0,0,0,0,0,0,0,0,0,0,0,0,0,0,0
473,Angus | TLV,"Four 20, Tel Aviv, Tel-Aviv",8,,,0,0,0,0,0,0,0,0,0,0,0,0,0,0,0,0,0,0,0,0,1,0,0,1,0,0,0,0,1,0,1,0,0,0,0,0,0
474,Shefa Hummus,"Bialik 53 Ramat Gan, Tel-Aviv",7.2,32.0840969,34.8136567,1,1,0,0,0,0,0,0,0,0,0,0,0,0,0,0,1,0,0,0,0,0,0,0,0,0,0,0,0,0,0,0,0,0,0,0,0
475,Saffe,"The House of Home 3, Tel-Aviv",7.8,,,1,1,1,0,0,0,0,0,0,0,0,0,0,0,0,0,0,0,0,0,0,0,0,0,0,0,0,0,0,0,0,0,0,0,0,0,0
476,Cafe Italia,"Jonah Kremnsky 6, Tel-Aviv",9,,,0,0,0,1,1,0,0,1,0,0,0,0,0,0,0,0,0,0,0,0,0,0,0,0,0,0,0,0,0,0,0,0,0,0,0,0,0
477,Chentro,"Levinsky 30 Tel Aviv, Tel-Aviv",9.2,32.0597618,34.7714453,0,0,0,0,0,0,0,0,0,1,0,0,0,1,0,0,0,0,0,0,0,0,0,0,0,0,0,0,0,0,0,0,0,0,0,0,0
478,Raisa,"Yehuda Margosa 10, Tel Aviv, Tel-Aviv",8.2,32.0524562,34.756164,0,1,0,0,0,0,0,1,0,0,0,0,0,0,0,0,0,0,0,0,0,0,0,0,0,0,0,0,0,0,0,0,0,0,0,0,0
479,Cafe Cafe | Marom Nave,"Want 19 Ramat Gan, Tel-Aviv",7,32.068424,34.824785,0,0,0,0,1,0,0,0,0,0,0,1,1,1,0,0,0,0,0,0,0,0,0,0,0,0,1,0,0,0,0,0,0,0,0,0,0
480,Lela,"Habash 42, Tel-Aviv",8,32.0615524,34.7789066,0,0,1,0,0,0,0,0,0,1,0,0,0,0,0,0,0,0,1,0,0,0,0,0,0,0,0,0,0,0,0,0,0,0,0,0,0
481,Georgina,"Barzilai 6, Tel Aviv, Tel-Aviv",7.4,32.0619241,34.7751398,0,0,0,1,0,0,0,1,0,0,0,0,1,1,0,0,0,0,0,0,0,1,0,0,0,0,0,0,0,0,0,0,0,0,0,0,0
482,Feed,"Schocken 23 Tel Aviv, Tel-Aviv",7.4,32.051566,34.7723985,0,0,0,0,0,0,0,1,0,0,0,0,1,0,0,0,0,0,0,0,0,0,0,0,0,0,0,0,0,0,0,0,0,0,0,0,0
483,Pizza Yoav | TLV Port,"Pavilion 19 Tel Aviv Port, Tel Aviv, Tel-Aviv",8,32.096203,34.773158,1,0,0,0,0,0,0,0,0,1,0,0,0,0,0,0,0,0,0,0,0,1,0,0,0,0,0,0,0,0,0,0,0,0,0,0,0
484,Susu & Sons | Ramat Aviv,"Einstein 7, Tel Aviv, Tel-Aviv",7,32.112586,34.7871451,1,0,0,0,0,1,0,0,0,0,0,0,0,0,0,0,0,0,0,0,0,0,0,0,0,0,0,0,1,0,0,0,0,0,0,0,0
485,ALLE,"Lilienblum 39, Tel Aviv, Tel-Aviv",9,32.0626284,34.7725416,0,0,0,0,0,0,0,1,1,1,0,0,0,0,0,0,0,0,0,0,0,0,0,0,0,0,1,0,0,0,0,0,0,0,0,0,0
486,Kubbaseri,"Masad 9, Bnei Brak, Tel-Aviv",7.6,32.0913023,34.8514149,0,1,1,0,0,0,0,0,1,0,0,1,0,0,1,0,0,0,0,0,0,0,0,0,0,0,0,0,0,0,0,0,0,0,0,0,0
487,Cafe Greg Kosher LaMehadrin | BSR,"Masada 7, Bnei Brak, Tel-Aviv",7.2,32.093684,34.8245878,0,0,0,0,1,0,0,1,0,0,0,1,0,1,0,0,0,0,0,0,0,0,0,0,0,0,0,1,0,0,0,0,0,0,0,0,0
488,Kebab House,"Steps, 10, Tel Aviv, Tel-Aviv",7.4,32.0773104,34.7936985,0,1,0,0,0,0,0,0,0,0,0,1,0,0,0,0,0,0,0,0,0,0,0,0,0,0,0,0,0,0,0,0,0,0,0,0,0
489,Freezer Givatayim,"Weizman 33 Givatayim, Tel-Aviv",9.2,32.0727516,34.8088342,0,0,0,0,0,0,0,0,0,0,0,0,0,0,0,0,0,1,0,0,0,0,0,0,1,0,0,0,0,0,0,0,0,0,0,0,0
490,Agadata,"Yigal Alon 96, Tel Aviv, Tel-Aviv",7.8,32.0683493,34.7937575,0,1,0,0,0,0,0,1,0,0,0,1,0,0,0,0,0,0,0,0,0,0,0,1,0,0,0,0,0,0,1,0,0,0,0,0,0
491,Hashomer 1,"Hashomer 2, Tel Aviv, Tel-Aviv",7.8,32.0685111,34.7692429,1,0,0,0,0,0,0,0,0,0,0,0,0,1,0,0,0,0,0,0,0,0,0,0,0,0,0,0,0,0,0,0,1,0,0,0,0
492,The Original Sabich Ovad | Givataim,"Sirkin 7, Givatayim, Tel-Aviv",9,32.0768708,34.8142837,1,0,0,0,0,0,0,0,0,0,0,0,0,0,0,0,0,0,0,0,0,0,0,0,0,0,0,0,0,0,0,0,0,0,0,0,0
493,Bodega American Kitchen,"14 Carlebach, Tel-Aviv",8.2,32.0705071,34.7825751,1,0,0,0,0,1,0,0,0,0,0,1,0,0,0,0,0,0,0,0,0,0,0,0,0,0,0,0,0,0,0,0,0,0,0,0,1
494,Jara | ?'???,This is a virtual venue,8.8,,,1,1,0,0,0,0,0,1,0,0,0,0,0,0,1,0,0,0,0,0,1,0,0,0,0,0,0,0,0,0,0,0,0,0,0,1,0
495,Oro,"Levontin 12, Tel Aviv, Tel-Aviv",9,32.0617724,34.7754413,0,0,0,1,0,0,0,0,1,0,0,0,1,1,0,0,0,0,0,0,0,0,0,0,0,0,0,0,0,0,0,0,0,0,0,0,0
496,Tandoori | Dizengoff,"Zamnhoff 2 Tel Aviv, Tel-Aviv",8.4,32.0777646,34.775037,1,0,0,0,0,0,0,0,0,0,0,0,0,0,0,0,0,0,0,0,0,0,1,0,0,0,0,0,0,1,0,0,0,0,0,0,0
497,Pizza Grinberg | North TLV,"Uri Zvi Greenberg 25, Tel-Aviv",8.4,32.1307046,34.7922211,0,0,0,0,1,0,0,1,0,0,0,0,0,0,0,0,0,0,0,0,0,1,0,0,0,0,0,0,0,0,0,0,0,0,0,0,0
498,Torii Givatayim,"Katznelson 62 Givatayim, Tel-Aviv",8.2,32.0751498,34.808971,0,0,0,0,0,0,0,0,0,0,0,0,0,0,0,0,0,0,0,0,0,0,1,0,0,0,0,0,0,0,0,0,0,1,1,0,1
499,Neighbours Cafe,"Champion David 2 Ramat Gan, Tel-Aviv",8.8,32.0829337,34.8160777,0,0,0,0,0,0,0,1,0,0,0,0,0,1,0,0,0,0,0,0,0,0,0,0,0,0,1,0,0,0,0,0,0,0,0,0,0
500,Florentin Burger | TLV,"Florentine 5, Tel Aviv, Tel-Aviv",8.2,32.0562879,34.7677873,1,0,0,0,0,1,0,0,0,0,0,1,0,0,0,0,0,0,0,0,0,0,0,0,0,0,0,0,0,0,0,0,0,0,0,0,0
501,Kanu,"Herzl 77, Tel-Aviv",8.4,32.057128,34.770908,1,0,0,0,0,0,0,0,1,1,0,0,0,0,1,0,0,0,0,0,0,0,1,0,0,0,0,0,0,0,0,0,0,0,0,0,0
502,Deli Cream | Tel Aviv,"Yehuda Halevi 12, Tel Aviv, Tel-Aviv",8.6,32.0613337,34.7690004,0,0,0,0,0,0,0,0,0,0,0,0,0,0,0,0,0,1,0,0,0,0,0,0,1,0,0,0,0,0,0,0,0,0,0,0,0
503,Baba Yaga,"Hayarkon 12, Tel-Aviv",9.2,32.0691706,34.764545,0,0,0,0,0,0,0,0,0,0,0,0,0,0,1,0,0,0,0,0,0,0,0,1,0,0,0,0,0,0,1,0,0,0,0,0,1
504,ThaiLandi | Chang Mai,"Carmel 7, Tel Aviv, Tel-Aviv",7.6,32.0697059,34.7701066,1,0,0,0,0,0,0,0,0,0,0,0,0,0,0,0,0,0,0,0,0,0,1,0,0,0,0,0,0,0,0,1,0,0,0,0,0
505,Pizza Domino,"Laskov 4, Tel Aviv, Tel-Aviv",7.4,32.0712598,34.7824498,0,0,0,1,0,0,0,0,1,0,0,1,0,0,0,0,0,0,0,0,0,1,0,0,0,0,0,0,0,0,0,0,0,0,0,0,0
506,Toros | Spanish Sausage,"The late 44, Tel-Aviv",8.2,,,1,0,0,0,0,0,0,0,0,0,0,1,0,1,0,0,0,0,0,0,0,0,0,1,0,0,0,0,0,0,1,0,0,0,0,0,0
507,Fresh Bar | Ramat Gan,"Crinezi 36 Ramat Gan, Tel-Aviv",8.6,32.068424,34.824785,0,0,0,0,0,0,0,1,1,0,0,0,0,0,0,0,0,0,0,0,0,0,0,0,0,1,0,0,0,0,0,0,0,0,0,0,0
508,Bazili.com | Florentine,"Abarbanel 45, Tel-Aviv",8,32.0556341,34.7671738,0,0,0,0,0,0,0,0,0,0,0,0,0,0,0,0,0,0,0,0,0,1,0,0,0,0,0,0,0,0,0,0,0,0,0,0,0
509,Pulkale,"Hudit 11 Sdert, Tel Aviv-Yafo, Israel, Tel-Aviv",8.8,,,0,1,0,0,0,0,0,0,0,0,0,0,0,0,0,0,0,0,0,0,0,0,0,0,0,0,0,0,0,0,0,0,0,0,0,0,0
510,Balinjera,"Malan 2, Tel Aviv, Tel-Aviv",9.4,32.0699066,34.7664905,0,0,0,0,0,0,0,0,1,1,0,1,0,0,0,0,0,0,0,0,0,0,0,0,0,0,0,0,0,0,0,0,0,0,0,0,0
511,Tadam,"Rabbi Pinchas 11, Tel Aviv, Tel-Aviv",8,32.0528987,34.7562158,0,0,0,0,0,0,0,0,0,0,0,1,0,0,0,0,0,1,1,0,0,0,0,0,0,0,0,0,0,0,0,0,0,0,0,0,0
512,Tenat,"Challenov 27, Tel Aviv, Tel-Aviv",8.8,32.057069,34.7750116,0,0,1,0,0,0,0,0,1,0,0,0,0,0,0,0,0,0,0,0,0,0,0,0,0,0,0,0,0,0,0,0,0,0,0,0,0
513,Pizzale,"Jabotinsky 12, Bnei Brak, Tel-Aviv",7.6,32.0909461,34.8241896,0,0,0,0,1,0,0,1,0,0,0,1,0,0,0,0,0,0,0,0,0,1,0,0,0,0,0,0,0,0,0,0,0,0,0,0,0
514,Lucy Restaurant,"Menachem Begin 48, Tel-Aviv",9,32.092679,34.831622,0,0,0,0,0,0,0,0,1,0,0,0,0,0,0,0,0,0,0,0,0,0,0,0,0,0,0,0,0,0,0,0,0,0,0,0,0
515,Chachapuri Sisters,"Levinsky 52, Tel-Aviv",8.8,32.0593894,34.7734505,1,0,0,0,0,0,0,0,1,0,0,0,0,0,0,0,0,0,1,0,0,0,0,0,0,0,0,0,0,0,0,0,0,0,0,0,0
516,Cafe Albert Brasserie | Ramat Aviv,"Einstein 40, Tel-Aviv",8.6,32.1122558,34.7959133,0,0,0,0,0,0,0,1,0,0,0,0,0,1,0,1,0,0,0,0,0,0,0,0,0,0,0,0,0,0,0,0,0,0,0,0,0
517,Mama Greg | Ayalon Mall,"Dad Hillel 301, Ramat Gan, Tel-Aviv",7.6,32.080045,34.822585,0,0,0,1,1,0,0,1,0,0,0,1,0,0,0,0,0,0,0,0,0,1,0,0,0,0,0,0,0,0,0,0,0,0,0,0,0
518,Pizza Roma | Jaffa,"Immigrants Zion 9, Tel-Aviv",7.8,32.0957904,34.7739195,0,0,0,1,1,0,0,0,0,0,0,0,0,0,0,0,0,0,0,0,0,1,0,0,0,0,0,0,0,0,0,0,0,0,0,0,0
519,Fish and Chips Market,"Good day 7, Tel-Aviv",8,,,1,0,0,0,0,0,0,0,0,0,0,0,0,0,0,0,0,0,0,0,0,0,0,1,0,0,0,0,0,0,1,0,0,0,0,0,0
520,Aralle Crepe Brule | TLV,"Allenby 60, Tel-Aviv",7.8,32.06981,34.7703267,0,0,0,0,0,0,0,0,0,0,0,1,0,0,0,0,0,1,0,0,0,0,0,0,1,0,0,0,0,0,0,0,0,0,0,0,0
521,Pankina,"Gordon 39, Tel-Aviv",7.8,32.081936,34.7737017,0,0,0,1,1,0,0,0,0,0,0,1,0,0,0,0,0,0,0,0,0,0,0,1,0,0,0,0,0,0,1,0,0,0,0,0,0
522,Tika Pika | Dizengoff,This is a virtual venue,7.6,,,0,0,0,0,0,0,0,0,0,0,0,0,0,0,0,0,0,0,0,0,0,0,0,1,0,0,0,0,0,1,1,0,0,0,0,0,0
523,Menashe Meats,"Mazuh 4, Tel Aviv, Tel-Aviv",8.4,32.074711,34.8435966,0,0,1,0,0,0,0,0,0,0,0,0,0,0,0,0,0,0,0,0,0,0,0,0,0,0,0,0,1,0,0,0,0,0,0,0,0
524,Chicken Grill Dahan,"Paratroopers 7, Givatayim, Tel-Aviv",8,32.072176,34.808871,0,0,1,0,0,0,0,0,0,0,0,1,0,0,0,0,0,0,0,0,1,0,0,0,0,0,0,0,0,0,0,0,0,0,0,0,0
525,Pizza Montela,"Jabotinsky 92, Bnei Brak, Tel-Aviv",6.8,32.0914576,34.8313828,0,1,0,1,0,0,0,0,0,0,0,0,0,0,0,0,0,0,0,0,0,1,0,0,0,0,0,0,0,0,0,0,0,0,0,0,0
526,Bechor and Shoshi | Bnei Brak,"Abu Hatzira Israel 10, Bnei Brak, Tel-Aviv",9.2,32.0585704,34.7795381,0,1,1,0,0,0,0,0,0,0,0,1,0,0,0,0,0,0,0,0,0,0,0,0,0,0,0,0,0,0,0,0,0,0,0,0,0
527,Topolopompo || Zepra,"Battles 14 Tel Aviv, Tel-Aviv",8.8,,,0,0,0,0,0,0,0,0,0,1,0,0,0,0,0,0,0,0,0,0,0,0,1,1,0,0,0,0,0,0,1,1,0,0,0,0,0
528,Papa John's | Tel Aviv,"Dizengoff 267 Tel Aviv, Tel-Aviv",8.2,32.0949057,34.7762959,1,0,0,0,0,0,0,0,1,0,0,0,0,0,0,0,0,0,0,0,0,1,0,0,0,0,0,0,0,0,0,0,0,0,0,0,0
529,Tatti Bistro,"Through Peace 53 Givatayim, Tel-Aviv",7.8,32.072176,34.808871,0,0,0,1,1,0,0,1,0,0,0,0,0,0,0,0,0,0,0,0,0,0,0,0,0,0,0,0,0,0,0,0,0,0,0,0,0
530,Honey Lulu ??,"Yigal Alon 94, Tel-Aviv",8.8,32.0685272,34.7941568,0,0,0,0,0,0,0,0,0,0,0,1,0,0,0,0,0,1,0,0,0,0,0,0,1,0,0,0,0,0,0,0,0,0,0,0,0
531,Max Brenner | Sarona,"Kalman Protects 3, Tel Aviv, Tel-Aviv",8,32.049417,34.793313,0,0,0,0,0,0,0,0,0,0,0,0,0,0,0,0,0,1,0,1,0,0,0,0,0,0,0,0,0,0,0,0,0,0,0,0,0
532,Pizza Garage,"right yitshak Rabin 53, Giv'atayim, Tel-Aviv",8,32.072176,34.808871,0,0,0,1,0,0,0,0,0,0,0,1,0,0,0,0,0,0,0,0,0,1,0,0,0,0,0,0,0,0,0,0,0,0,0,0,1
533,Miso,"Jabotinsky 62 Ramat Gan, Tel-Aviv",8.4,32.0861089,34.811465,0,0,0,0,0,0,0,0,0,0,0,0,0,0,0,0,0,0,0,0,0,0,1,0,0,0,0,0,0,0,0,0,0,1,1,0,0
534,JAPO | B.S.R,"9 Forest Street, Bnei Brak, Tel-Aviv",8.6,32.084932,34.835226,0,0,0,0,0,0,0,1,0,0,0,1,0,0,0,0,0,0,0,0,0,0,1,0,0,0,0,0,0,0,0,0,0,0,0,0,0
535,Mucha Pizza | Ramat Gan,"Ben Gurion David 13 Bnei Brak, Tel-Aviv",8.2,32.0776514,34.8464974,0,0,0,1,0,0,0,1,0,0,0,0,0,0,0,0,0,0,0,0,0,1,0,0,0,0,0,0,0,0,0,0,0,0,0,0,0
536,Oshi Oshi | TLV Port,"Tel Aviv's Port Hangar 21, Tel-Aviv",7.6,,,0,0,0,0,0,0,0,0,0,0,0,1,0,0,0,0,0,0,0,0,0,0,1,0,0,0,0,0,0,0,0,0,0,1,1,0,0
537,Avazi,"The IDF 54, Tel-Aviv",8.4,,,1,1,0,0,0,0,0,0,0,0,0,1,0,0,0,0,0,0,0,0,0,0,0,1,0,0,0,0,0,0,1,0,0,0,0,0,1
538,Cafe Nimrod | Sarona,"David Elazar 12, Tel Aviv, Tel-Aviv",8.4,32.0725391,34.7882116,0,0,0,0,0,0,0,1,0,0,0,0,1,0,0,0,0,0,0,0,0,0,0,0,0,0,1,0,0,0,0,0,0,0,0,0,0
539,Chef Be Levontin,"Levontin 1, Tel-Aviv",8.6,32.0614525,34.7738187,0,0,1,0,0,0,0,0,0,0,0,1,0,0,0,0,0,0,0,0,1,0,0,0,0,0,0,0,0,0,0,0,1,0,0,0,0
540,Italkia BaTachana,"Ashkelon 5, Tel-Aviv",7,32.0589991,34.7614121,0,0,0,1,1,0,0,0,0,0,0,0,0,0,0,0,0,0,0,0,0,1,0,0,0,0,0,0,0,0,0,0,0,0,0,0,0
541,Fresh The Market | Ramat Gan,"Dad Hillel, 301, Ramat Gan, Tel-Aviv",8,32.080045,34.822585,0,1,0,0,1,0,0,1,0,0,0,0,0,0,0,0,0,0,0,0,0,1,0,0,0,0,0,0,0,0,0,0,0,0,0,0,0
542,Herzl 16,"Surb. 16 Tel Aviv, Tel-Aviv",8.2,32.083073,34.77353,0,0,0,0,0,0,0,1,0,0,0,0,0,0,0,0,0,0,0,0,0,0,1,0,0,0,0,0,0,0,0,0,0,0,0,0,0
543,Mententen,"Nahalat Benjamin 57, Tel-Aviv",8.2,32.0641325,34.7715978,0,0,0,0,0,0,0,0,0,0,0,0,0,0,1,0,0,0,0,0,0,0,1,0,0,0,0,0,0,0,0,0,0,1,1,0,0
544,DEDA | Givatayim,"Katzenelson St 113 Givatayim, Tel-Aviv",9.2,32.0773514,34.813989,0,0,1,0,0,0,0,0,1,1,0,0,0,0,0,0,0,0,0,0,1,0,0,0,0,0,0,0,0,0,0,0,0,0,0,0,0
545,Greco | North TLV,"Uri Zvi Greenberg 25, Tel-Aviv",7.8,32.1307046,34.7922211,0,0,0,0,0,0,0,1,1,0,0,0,0,0,0,0,0,0,0,1,0,0,0,0,0,0,0,0,0,0,0,0,1,0,0,0,0
546,BBB | Yigal Alon,"96 Yigal Alon street, Tel-Aviv",8.2,32.0683493,34.7937575,0,0,0,0,0,1,0,0,0,0,0,0,0,1,0,0,0,0,0,0,0,0,0,0,0,0,0,0,1,0,0,0,0,0,0,0,1
547,Matoko Cookies & More,"Salomon 7, Tel-Aviv",8.8,32.0615449,34.7798188,0,0,0,0,0,0,0,0,0,0,0,1,0,0,0,0,0,1,0,1,0,0,0,0,0,0,0,0,0,0,0,0,0,0,0,0,0
548,HaSushia | Mikado,"Aaron Becker 8, Tel Aviv, Tel-Aviv",8,,,0,0,0,0,0,0,0,0,0,0,0,0,0,0,0,0,0,0,0,0,0,0,1,0,0,0,0,0,0,0,0,0,0,1,1,0,0
549,Reviva & Celia Bakery,"Snifting 5, Tel Aviv, Tel-Aviv",9.2,,,0,0,0,0,0,0,0,0,0,0,0,0,0,0,0,0,0,1,1,1,0,0,0,0,0,0,0,0,0,0,0,0,0,0,0,0,0
550,Chocolulu,"Vital 3 Tel Aviv, Tel-Aviv",8,32.0569198,34.7679294,0,0,0,1,0,0,0,0,0,0,0,0,0,0,0,0,0,0,0,0,0,0,0,1,0,0,0,0,0,0,1,0,0,0,0,0,1
551,Goldman Court,"Nahum Goldman 6, Tel Aviv, Tel-Aviv",9,32.0569443,34.7570527,0,1,0,0,0,0,0,0,0,0,0,0,1,0,0,0,0,0,0,0,1,0,0,1,0,0,0,0,0,0,1,0,0,0,0,0,0
552,NG Steakhouse | Neve-Tzedek,"Judah Hasid 15 Tel Aviv, Tel-Aviv",8.4,,,0,0,0,0,0,1,0,0,0,0,0,0,0,1,0,0,0,0,0,0,0,0,0,0,0,0,0,0,0,0,0,0,0,0,0,0,0
553,Moon Sushi | Delight,"Pinsker 30, Tel Aviv, Tel-Aviv",8,32.0750781,34.771211,0,0,0,0,0,0,0,0,0,0,0,0,0,0,0,0,0,0,0,0,0,0,1,0,0,0,0,0,0,0,0,0,0,1,1,0,0
554,Moon Sushi | Bograshov,"Bograshov 58 Tel Aviv, Tel-Aviv",8,32.0756358,34.7720656,0,0,0,0,0,0,0,0,0,0,0,0,0,0,0,0,0,0,0,0,0,0,1,0,0,0,0,0,0,0,0,0,0,1,1,0,0
555,Wok Republic | London Ministore,"Your pregnancy is issued 4, Tel-Aviv",8,,,1,0,0,0,0,0,0,0,1,0,0,0,0,0,0,0,0,0,0,0,0,0,1,0,0,0,0,0,0,0,0,1,0,0,0,0,0
556,HaMalabiya | Givatayim,"65 Katzenelson st, Givatayim, Tel-Aviv",9,32.0754429,34.808403,0,1,0,0,0,0,0,0,0,1,0,0,0,0,0,0,0,1,0,0,0,0,0,0,0,0,0,0,0,0,0,0,0,0,0,0,0
557,Hummus Hakerem | Herzl,"The House of Home 6, Tel-Aviv",9.2,,,0,1,0,0,0,0,0,0,0,0,0,1,0,0,0,0,1,0,0,0,0,0,0,0,0,0,0,0,0,0,0,0,0,0,0,0,0
558,HaMalabiya | Allenby,"Gedera 28, Tel-Aviv",8.4,32.0699907,34.7701602,0,0,0,0,0,0,0,0,0,0,0,0,0,0,0,0,0,1,0,1,0,0,0,0,0,0,0,0,0,0,0,0,0,0,0,0,0
559,McDonald's® Rothschild,"Rothschild Blvd 33, Tel-Aviv",6.4,32.0638547,34.7735046,0,0,0,0,0,1,0,0,0,0,0,0,0,0,0,0,0,0,0,0,0,0,0,0,0,0,0,0,0,0,0,0,0,0,0,0,1
560,McDonald's® Kochav-HaTzafon,"Meir Yaari 19, Tel-Aviv",7.2,32.1000382,34.7880139,0,0,0,0,0,1,0,0,0,0,0,0,0,0,0,0,0,0,0,0,0,0,0,0,0,0,0,0,0,0,0,0,0,0,0,0,1
561,Golda | Dizengoff (Frishman),"Dizengoff 107, Tel Aviv, Tel-Aviv",8.4,32.0800888,34.7736884,0,0,0,0,0,0,0,0,0,0,0,0,0,0,0,0,0,1,0,1,0,0,0,0,1,0,0,0,0,0,0,0,0,0,0,0,0
562,Hummus Hakerem | Shoken,"Schocken 30 Tel Aviv, Tel-Aviv",9,32.0515629,34.7720054,0,0,0,0,0,0,0,0,0,0,0,1,0,0,0,0,1,0,0,0,0,0,0,0,0,0,0,0,0,0,0,0,0,0,0,0,0
563,Vaniglia | Bazel,"Flower Ashroat 22, Tel-Aviv",9.4,,,0,0,0,0,0,0,0,0,0,0,0,0,0,0,0,0,0,1,0,1,0,0,0,0,1,0,0,0,0,0,0,0,0,0,0,0,0
564,Hummus Ha'achim | TLV,"Signs 20, Tel Aviv, Tel-Aviv",8.6,,,0,1,0,0,0,0,0,0,0,0,0,1,0,0,1,0,1,0,0,0,0,0,0,0,0,0,0,0,0,0,0,0,0,0,0,0,0
565,Roladin | Bursa,"Dad Hillel 2, Ramat Gan, Tel-Aviv",9.6,32.080045,34.822585,0,0,0,0,0,0,0,0,0,0,0,0,0,0,0,0,0,1,1,1,0,0,0,0,0,0,0,0,0,0,0,0,0,0,0,0,0
566,Golda | Weizmann City Mall,"Weizman 14, Tel Aviv, Tel-Aviv",8.8,32.081588,34.7892127,0,0,0,0,0,0,0,0,0,0,0,0,0,0,0,0,0,1,0,0,0,0,0,0,1,0,0,0,0,0,0,0,0,0,0,0,0
567,The Showroom Bakehouse | Dizengoff,"Dizengoff 298, Tel Aviv, Tel-Aviv",8.6,32.0941948,34.7769155,0,0,0,0,0,0,0,0,0,0,0,0,0,0,0,0,0,1,1,1,0,0,0,0,0,0,0,0,0,0,0,0,0,0,0,0,0
568,Shawarma Shemesh | Jabotinsky,"Zabotinsky 85, Ramat Gan, Tel-Aviv",8.2,32.0876471,34.8132802,1,1,0,0,0,0,0,0,0,0,0,1,0,1,0,0,0,0,0,0,0,0,0,0,0,0,0,0,0,0,0,0,0,0,0,0,0
569,Golda | Midtown,"Menachem Begin 144 Tel Aviv, Tel-Aviv",9.2,32.0930882,34.8322718,0,0,0,0,0,0,0,0,0,0,0,0,0,0,0,0,0,1,0,0,0,0,0,0,1,0,0,0,0,0,0,0,0,0,0,0,0
570,New Deli | Ramat Gan,"Bialik 76, Ramat Gan, Tel-Aviv",8.8,32.0857936,34.8115303,0,0,0,0,0,0,0,1,0,0,0,1,0,1,0,0,0,0,0,0,0,0,0,0,0,0,0,0,0,0,0,0,0,0,0,0,0
571,Golda | Dizengoff (Nordau),"Dizengoff 245, Tel-Aviv",8.6,32.0921593,34.7760428,0,0,0,0,0,0,0,0,0,0,0,0,0,0,0,0,0,1,0,1,0,0,0,0,1,0,0,0,0,0,0,0,0,0,0,0,0
572,Gelateria Siciliana | Ibn Gabirol,"Stone Gvirol 63, Tel-Aviv",9.2,32.087631,34.782349,0,0,0,1,0,0,0,0,0,0,0,0,0,0,0,0,0,1,0,0,0,0,0,0,1,0,0,0,0,0,0,0,0,0,0,0,0
573,Golda | Ben Yehuda,"Ben Yehuda 110, Tel-Aviv",9.2,32.0831387,34.7717,0,0,0,0,0,0,0,0,0,0,0,0,0,0,0,0,0,1,0,0,0,0,0,0,1,0,0,0,0,0,0,0,0,0,0,0,0
574,Wok Republic | Florentine,"Abarbanel 74 Tel Aviv, Tel-Aviv",7.8,32.055434,34.766641,1,0,0,0,0,0,0,0,1,0,0,0,0,0,0,0,0,0,0,0,0,0,1,0,0,0,0,0,0,0,0,1,0,0,0,0,0
575,Siciliana Desserts | Dizengoff,"Dizengoff 170, Tel-Aviv",8.6,32.0849507,34.7745758,0,0,0,1,0,0,0,0,0,0,0,0,0,0,0,0,0,1,0,0,0,0,0,0,1,0,0,0,0,0,0,0,0,0,0,0,0
576,HaMalabiya | Florentin,"Washington Boulevard 15, Tel-Aviv",8.8,32.0561771,34.7696693,0,1,0,0,0,0,0,0,1,0,0,0,0,0,0,0,0,0,0,0,0,0,0,0,0,0,0,0,0,0,0,0,0,0,0,0,0
577,Roladin | Ben Yehuda,"Ben Yehuda 41, Tel-Aviv",9.2,32.0777982,34.7684074,0,0,0,0,0,0,0,0,0,0,0,1,0,0,0,0,0,1,1,0,0,0,0,0,0,0,0,0,0,0,0,0,0,0,0,0,0
578,Golda Kosher | Bograshov,"Bograshov 6, Tel Aviv, Tel-Aviv",9,32.0777412,34.767946,0,0,0,0,0,0,0,0,0,0,0,1,0,0,0,0,0,1,0,0,0,0,0,0,1,0,0,0,0,0,0,0,0,0,0,0,0
579,HaMalabiya | HaPishpeshim,"Immigrants Zion 10, Tel Aviv, Tel-Aviv",9,32.0955686,34.7741875,0,1,0,0,0,0,0,0,0,0,0,0,0,0,0,0,0,1,0,1,0,0,0,0,0,0,0,0,0,0,0,0,0,0,0,0,0
580,Cafe Bucke | Ehad Ha'Am,"One of the people 91, Tel-Aviv",8,,,0,0,0,0,0,0,0,0,0,1,0,0,1,0,0,0,0,0,0,0,0,0,0,0,0,0,1,0,0,0,0,0,0,0,0,0,0
581,Golda | Ramat Gan,"Jerusalem Boulevard 3 Ramat Gan, Tel-Aviv",9,32.0872728,34.8304046,0,0,0,0,0,0,0,0,0,0,0,0,0,0,0,0,0,1,0,1,0,0,0,0,1,0,0,0,0,0,0,0,0,0,0,0,0
582,Marlen Burger | Givatayim,"Rambam 30, Givatayim, Tel-Aviv",8.8,32.0704734,34.8073574,1,0,0,0,0,1,0,0,0,0,0,0,0,0,0,0,0,0,0,0,0,0,0,0,0,0,0,0,0,0,0,0,0,0,0,0,0
583,Golda | Derech Hashalom,"Through Peace 53 Givatayim, Tel-Aviv",9,32.072176,34.808871,0,0,0,0,0,0,0,0,0,0,0,0,0,0,0,0,0,1,0,0,0,0,0,0,1,0,0,0,0,0,0,0,0,0,0,0,0
584,Yashka | North TLV,"Tagor Rabindrinart 30, Tel-Aviv",8,32.1165125,34.796767,0,0,0,0,0,0,0,1,0,0,0,1,0,0,0,0,1,0,0,0,0,0,0,0,0,0,0,0,0,0,0,0,0,0,0,0,0
585,Roladin | Ibn Gabirol,"Stone Gvirol 24, Tel-Aviv",8.8,32.087631,34.782349,0,0,0,0,0,0,0,0,0,0,0,1,0,0,0,0,0,1,1,0,0,0,0,0,0,0,0,0,0,0,0,0,0,0,0,0,0
586,Zota Pizza | Kochav-HaTzafon,"Meir Yaari 19, Tel-Aviv",8.4,32.1000382,34.7880139,0,0,0,1,1,0,0,0,0,0,0,1,0,0,0,0,0,0,0,0,0,1,0,0,0,0,0,0,0,0,0,0,0,0,0,0,0
587,Landwer | Central Park,"Battles 7 Tel Aviv, Tel-Aviv",9,,,0,0,0,0,1,0,0,0,0,0,0,0,1,1,0,0,0,0,0,0,0,0,0,0,0,0,0,0,0,0,0,0,0,0,0,0,0
588,Cafe Bucke | North TLV,"Meir Yaari 19 Tel Aviv, Tel-Aviv",8.4,32.1000382,34.7880139,0,0,0,0,0,0,0,0,0,1,0,0,1,0,0,0,0,0,0,0,0,0,0,0,0,0,1,0,0,0,0,0,0,0,0,0,0
589,Sabich Frishman | Pishpeshim,"Yehuda Margoza St 4, Tel-Aviv",8.4,32.0530856,34.7571736,1,1,0,0,0,0,0,0,0,0,0,0,0,1,0,0,0,0,0,0,0,0,0,0,0,0,0,0,0,0,0,0,0,0,0,0,0
590,Falafel Gina | Shoken,"Shocken 22, Tel Aviv, Tel-Aviv",8.2,32.0524237,34.7721041,1,1,0,0,0,0,0,0,1,0,0,1,0,0,0,0,0,0,0,0,0,0,0,0,0,0,0,0,0,0,0,0,0,0,0,0,0
591,Golda Kosher | Ha'Kerem,"Will reside 22 Tel Aviv, Tel-Aviv",8.8,,,0,0,0,0,0,0,0,0,0,0,0,1,0,0,0,0,0,1,0,0,0,0,0,0,1,0,0,0,0,0,0,0,0,0,0,0,0
592,Vaniglia | Shuster Ramat Aviv,"Abba Ahimeir Street 15, Ramat Aviv, Tel-Aviv",9,32.0924294,34.8108871,0,0,0,0,0,0,0,0,0,0,0,0,0,0,0,0,0,1,0,1,0,0,0,0,1,0,0,0,0,0,0,0,0,0,0,0,0
593,Vaniglia | Ramat Aviv,"Einstein 40, Ramat Aviv, Tel-Aviv",8.2,32.1122558,34.7959133,0,0,0,0,0,0,0,0,0,0,0,0,0,0,0,0,0,1,0,1,0,0,0,0,1,0,0,0,0,0,0,0,0,0,0,0,0
594,Ning Thai Food | HaCarmel,"Good day 17, Tel-Aviv",8.4,,,0,0,0,0,0,0,0,0,0,1,0,0,0,0,0,0,0,0,0,0,0,0,1,0,0,0,0,0,0,0,0,0,0,0,0,0,0
595,The Streets | King George,"King George 70, Tel-Aviv",8.2,32.0760445,34.7769235,0,0,0,0,0,0,0,1,0,0,0,0,0,1,1,0,0,0,0,0,0,0,0,0,0,0,0,0,0,0,0,0,0,0,0,0,0
596,Golda | Givatayim,"Borochov 54, Tel-Aviv",9.2,32.0710846,34.7779809,0,0,0,0,0,0,0,0,0,0,0,0,0,0,0,0,0,1,0,0,0,0,0,0,1,0,0,0,0,0,0,0,0,0,0,0,0
597,Miznon | Sarona,"Champion Klman Magen 5 Tel Aviv, Tel-Aviv",7.8,32.070732,34.786781,1,1,0,0,0,0,0,0,0,0,0,0,0,0,0,0,0,0,0,0,0,0,0,0,0,0,0,0,0,0,0,0,0,0,0,0,0
598,Sulica | Shuster,"Dad Ahimair 19, Tel-Aviv",8.2,,,0,0,1,0,0,0,0,0,0,0,0,1,0,0,0,0,0,0,0,0,0,0,0,0,0,0,0,0,0,0,0,0,0,0,0,0,0
599,Furman's Pizza | North TLV,"Nathan Alterman 13, Tel Aviv, Tel-Aviv",8.6,32.1199131,34.8205295,0,0,0,0,0,0,0,1,0,0,0,0,0,0,0,0,0,0,0,0,0,1,0,0,0,0,0,0,0,0,0,0,0,0,0,0,0
600,Golda | Jabotinsky RG,"Zeev Jabutinsky 107, Ramat Gan, Tel-Aviv",9.2,32.0890193,34.8163119,0,0,0,0,0,0,0,0,0,0,0,0,0,0,0,0,0,1,0,1,0,0,0,0,1,0,0,0,0,0,0,0,0,0,0,0,0
601,McDonald's® Tel-Aviv Towers,"Nakhalat yitskhak st 20, Tel aviv-yafo, Tel-Aviv",6.8,32.0739817,34.7981136,0,0,0,0,0,1,0,0,0,0,0,0,0,0,0,0,0,0,0,0,0,0,0,0,0,0,0,0,0,0,0,0,0,0,0,0,1
602,The Showroom Bakehouse | Betzalel,"Bethlehem 3, Tel-Aviv",9,32.0709057,34.7710848,0,0,0,0,0,0,0,0,0,0,0,0,0,0,0,0,0,1,1,1,0,0,0,0,0,0,0,0,0,0,0,0,0,0,0,0,0
603,The Showroom Bakehouse | North TLV,"Levitan 1, Tel Aviv, Tel-Aviv",9.2,32.1190609,34.7957903,0,0,0,0,0,0,0,0,0,0,0,0,0,0,0,0,0,1,1,1,0,0,0,0,0,0,0,0,0,0,0,0,0,0,0,0,0
604,Chicken Rotisserie Oppenheimer | North TLV,"Oppenheimer 11, Tel Aviv, Tel-Aviv",8.8,32.1199719,34.7997352,0,0,0,0,0,0,0,0,0,0,0,0,0,1,0,0,0,0,0,0,1,0,0,0,0,0,0,0,0,0,0,0,0,0,0,0,0
605,Hummus Eliyahu | Sarona,"Champion Klman Magen 5, Tel Aviv, Tel-Aviv",8.4,32.070732,34.786781,1,1,0,0,0,0,0,0,1,1,0,1,0,0,0,0,1,0,0,0,0,0,0,0,0,0,0,0,0,0,0,0,0,0,0,0,0
606,Teabar,"Dad Hillel 301, Ramat Gan, Tel-Aviv",8.8,32.080045,34.822585,0,0,0,0,0,0,0,0,0,0,0,0,0,0,0,0,0,1,0,0,0,0,1,0,0,1,0,0,0,0,0,0,0,0,0,0,0
607,Golda Kosher | Yad Eliyahu,"Moshe Dayan 2, Tel-Aviv",8.6,32.047187,34.799156,0,0,0,0,0,0,0,0,0,0,0,1,0,0,0,0,0,1,0,1,0,0,0,0,1,0,0,0,0,0,0,0,0,0,0,0,0
608,Roladin | Oppenheimer,"Oppenheimer 11, Tel-Aviv",9,32.1199719,34.7997352,0,0,0,0,0,0,0,0,0,0,0,1,0,0,0,0,0,1,1,0,0,0,0,0,0,0,0,0,0,0,0,0,0,0,0,0,0
609,Landwer | Sarona,"Arania Osvaldo St 13, Tel-Aviv",8,32.071906,34.786175,0,0,0,0,0,0,0,0,0,0,0,0,1,0,0,0,0,0,0,0,0,0,0,0,0,0,1,0,0,0,0,0,0,0,0,0,1
610,Falafel Ben Hur | Washington,"Washington Boulevard 32 Tel Aviv, Tel-Aviv",8.8,32.055,34.7693968,0,1,1,0,0,0,0,0,0,0,0,0,0,0,0,0,0,0,0,0,0,0,0,1,0,0,0,0,0,0,1,0,0,0,0,0,0
611,Schnitzel Point | Yad Harutzim,"Handsluscases 13, Tel-Aviv",8.2,,,1,0,1,0,0,0,0,0,0,0,0,1,0,1,0,0,0,0,0,0,0,0,0,0,0,0,0,0,0,0,0,0,0,0,0,0,0
612,Hummus Eliyahu | Florentin,"Respect 4, Tel Aviv, Tel-Aviv",8.4,32.074711,34.8435966,0,1,0,0,0,0,0,0,0,1,0,1,0,0,0,0,1,0,0,0,0,0,0,0,0,0,0,0,0,0,0,0,0,0,0,0,0
613,Vaniglia | Givatayim,"Via Yitzhak Rabin 53 Givatayim, Tel-Aviv",9.2,32.072176,34.808871,0,0,0,0,0,0,0,0,0,0,0,0,0,0,0,0,0,1,0,1,0,0,0,0,1,0,0,0,0,0,0,0,0,0,0,0,0
614,Yashka | Nahalat Binyamin,"Nahalat Benjamin 73, Tel-Aviv",8,32.0623658,34.7721975,0,1,0,0,0,0,0,1,0,0,0,1,0,0,0,0,0,0,0,0,0,0,0,0,0,0,0,0,0,0,0,0,1,0,0,0,0
615,Otello | Herzl,"Herzel 12, Tel-Aviv",8.8,32.062363,34.7699654,0,0,0,0,0,0,0,0,1,0,0,0,0,0,0,0,0,1,0,0,0,0,0,0,1,0,0,0,0,0,0,0,0,0,0,0,0
616,Go Noodles | Yehuda Halevi,"Yehuda Halevi 39, Tel Aviv, Tel-Aviv",8.4,32.0618563,34.7724745,0,0,0,0,0,0,0,0,0,0,0,1,0,0,1,0,0,0,0,0,0,0,1,0,0,0,0,0,0,0,0,0,0,0,0,0,0
617,Burgerim | BSR,"Masad 9, Bnei Brak, Tel-Aviv",8.4,32.0913023,34.8514149,0,0,0,0,0,1,0,0,0,0,0,1,0,0,0,0,0,0,0,0,0,0,0,0,0,0,0,0,0,0,0,0,0,0,0,0,1
618,Hummus Eliyahu | Ayalon Mall,"Dad Hillel 301, Ramat Gan, Tel-Aviv",8.6,32.080045,34.822585,0,1,0,0,0,0,0,0,0,0,0,1,0,0,0,0,1,0,0,0,0,0,0,0,0,0,0,0,0,0,0,0,0,0,0,0,0
619,Ning Thai Food | Margoza,"Yehuda Margosa 4, Jaffa, Tel-Aviv",8.2,32.0530856,34.7571736,0,0,0,0,0,0,0,0,0,1,0,0,0,0,0,0,0,0,0,0,0,0,1,0,0,0,0,0,0,0,0,0,0,0,0,0,0
620,Roladin | Azorei Hen,"Uri Zvi Greenberg 25, Tel Aviv, Tel-Aviv",9.6,32.1307046,34.7922211,0,0,0,0,0,0,0,0,0,0,0,0,1,0,0,0,0,1,1,1,0,0,0,0,0,0,1,0,0,0,0,0,0,0,0,0,0
621,Golda | Levinsky,"Levinsky 45, Tel-Aviv",8.6,32.0598528,34.772212,0,0,0,0,0,0,0,0,0,0,0,0,0,0,0,0,0,1,0,0,0,0,0,0,1,0,0,0,0,0,0,0,0,0,0,0,0
622,Vaniglia | Mikado Center,"Aharon Becker Street 8, Tel Aviv, Tel-Aviv",9.2,32.1228763,34.8165324,0,0,0,0,0,0,0,0,0,0,0,0,0,0,0,0,0,1,0,1,0,0,0,0,1,0,0,0,0,0,0,0,0,0,0,0,0
623,Ad Haetzem Express | Rothschild,"Rothschild 31, Tel Aviv, Tel-Aviv",7.2,32.063831,34.7731644,0,0,0,0,0,1,0,0,0,0,0,0,0,1,0,0,0,0,0,0,0,0,0,0,0,0,0,0,0,0,0,0,0,0,0,0,1
624,Gelateria Siciliana | Ramat Aviv,"Brodsky 15, Tel Aviv, Tel-Aviv",9,,,0,0,0,1,0,0,0,0,0,0,0,0,0,0,0,0,0,1,0,1,0,0,0,0,1,0,0,0,0,0,0,0,0,0,0,0,0
625,Golda | Suzan Dalall,"Yehieli 9, Tel-Aviv",9,32.060739,34.765093,0,0,0,0,0,0,0,0,0,0,0,0,0,0,0,0,0,1,0,0,0,0,0,0,1,0,0,0,0,0,0,0,0,0,0,0,0
626,Otello | Givatayim,"Katznelson 63, Givatayim, Tel-Aviv",9,32.0754087,34.808214,0,0,0,0,0,0,0,0,1,0,0,0,0,0,0,0,0,1,0,0,0,0,0,0,1,0,0,0,0,0,0,0,0,0,0,0,0
627,Otello | Ramat Aviv,"Instooth 40, Tel Aviv, Tel-Aviv",9.4,,,0,0,0,0,0,0,0,0,1,0,0,0,0,0,0,0,0,1,0,0,0,0,0,0,1,0,0,0,0,0,0,0,0,0,0,0,0
628,Landwer | Ayalon Mall,"Dad Hillel Silver 301, Ramat Gan, Tel-Aviv",8.2,32.1003558,34.8267131,0,0,0,0,0,0,0,1,0,0,0,0,1,0,0,0,0,0,0,0,0,0,0,0,0,0,1,0,0,0,0,0,0,0,0,0,1
629,Oshi Oshi | Givatayim Mall,"Via Yitzhak Rabin 53, Givatayim, Tel-Aviv",8.6,32.072176,34.808871,0,0,0,0,0,0,0,0,0,0,0,1,0,0,0,0,0,0,0,0,0,0,1,0,0,0,0,0,0,0,0,0,0,1,1,0,0
630,Roladin | Giv'atayim Mall,"Via Yitzhak Rabin 53, Givatayim, Tel-Aviv",8.6,32.072176,34.808871,0,0,0,0,0,0,0,0,0,0,0,1,0,0,0,0,0,1,1,0,0,0,0,0,0,0,0,0,0,0,0,0,0,0,0,0,0
631,Coffee Station | BSR,"Masada 7, Bnei Brak, Tel-Aviv",9,32.093684,34.8245878,0,0,0,0,0,0,0,1,0,0,0,1,0,1,0,0,0,0,0,0,0,0,0,0,0,0,0,1,0,0,0,0,0,0,0,0,0
632,Landwer | Florentin,"Abarbanel 72, Tel-Aviv",8,32.0555878,34.7666672,0,0,0,0,0,0,0,1,0,0,0,0,0,0,0,0,0,0,0,0,0,0,0,0,0,0,1,0,0,0,0,0,0,0,0,0,1
633,Cafe Castel,"Ibn Gvirol 151, Tel Aviv-Jaffa, Tel-Aviv",8.8,32.0906802,34.7826725,0,0,0,0,0,0,0,1,0,0,0,0,0,0,0,0,0,0,0,0,0,0,0,0,0,0,0,0,0,0,0,0,0,0,0,0,0
634,Meat Me | TLV,"Allenby 47, Tel Aviv, Tel-Aviv",8.6,32.0703077,34.7703935,0,0,0,0,0,0,0,0,0,0,0,0,0,1,0,0,0,0,0,0,1,0,0,1,0,0,0,0,0,0,1,0,0,0,0,0,0
635,Torta Loca,"Menachem Begin 144, Tel Aviv, Tel-Aviv",7.6,32.0930882,34.8322718,1,0,0,0,0,0,1,0,0,0,0,1,0,0,0,0,0,0,0,0,0,0,0,0,0,0,0,0,0,0,0,0,0,0,0,0,0
636,Reviva & Celia Deli,"Nissim Aloni 10, Tel-Aviv",8.4,32.0889232,34.7972939,0,0,0,0,0,0,0,1,0,0,0,0,0,0,0,0,0,0,0,0,0,0,0,1,0,0,0,1,0,0,1,0,0,0,0,0,0
637,Lilush Burekas 26,"Bograshov 26, Tel Aviv, Tel-Aviv",8,32.0767005,34.7697204,1,1,0,0,0,0,0,0,0,0,0,0,1,0,0,0,0,0,0,0,0,0,0,0,0,0,0,0,0,0,0,0,0,0,0,0,0
638,Rama Pizza Bar,"King George 38 Tel Aviv, Tel-Aviv",8.6,32.0728872,34.7749687,0,0,0,0,0,0,0,0,0,1,0,0,0,0,0,0,0,0,0,0,0,1,0,0,0,0,0,0,0,0,0,0,0,0,0,0,0
639,Nurman,"Hasmoneanim 96c, Tel-Aviv",8.6,,,1,1,0,0,0,0,0,0,0,0,0,1,0,1,0,0,0,0,0,0,0,0,0,0,0,0,0,0,0,0,0,0,0,0,0,0,0
640,Batya's Jachnun | Tel Aviv,"King George 4, Tel Aviv, Tel-Aviv",7,32.0701521,34.7710417,0,1,1,0,0,0,0,0,0,0,0,0,1,0,0,0,0,0,0,0,0,0,0,0,0,0,0,0,0,0,0,0,0,0,0,0,0
641,La Gaterie,"King George 97, Tel-Aviv",8.8,32.0773032,34.7775023,0,0,0,0,0,0,0,0,0,0,0,0,1,1,0,0,0,1,0,0,0,0,0,0,0,0,0,0,0,0,0,0,0,0,0,0,0
642,Shakshukia,"Ben Yehuda 94, Tel-Aviv",8.4,32.0819222,34.7710575,0,1,0,0,0,0,0,0,0,1,0,0,1,0,0,0,0,0,0,0,0,0,0,0,0,0,0,0,0,0,0,0,0,0,0,0,0
643,Butke Jachnun Gedera | TLV,"Dizengoff 136, Tel Aviv, Tel-Aviv",7.8,32.0821944,34.7739473,0,0,0,0,0,0,0,0,0,0,0,0,1,0,0,0,0,0,1,0,0,0,0,0,0,0,0,0,0,0,0,0,0,0,0,0,0
644,Baba Suliman,"Katznelson 147, Givatayim, Tel-Aviv",7.6,32.0756675,34.8177903,1,1,1,0,0,0,0,0,0,0,0,0,0,0,0,0,0,0,0,0,0,0,0,0,0,0,0,0,0,0,0,0,0,0,0,0,0
645,Fat Cow,"Dizengoff St 265, Tel-Aviv",8.6,32.0946469,34.7763708,1,0,0,0,0,1,0,0,0,0,0,0,0,0,0,0,0,0,0,0,0,0,0,0,0,0,0,0,0,0,0,0,0,0,0,0,0
646,The Prince Shawarma,"Ahliav 3, Ramat Gan, Tel-Aviv",8.2,32.068424,34.824785,1,0,0,0,0,0,0,0,0,0,0,1,0,0,0,0,0,0,0,0,1,0,0,0,0,0,0,0,0,0,0,0,0,0,0,0,0
647,Hummus Bahadunas | Yad Harutzim,"Handsmades 11 Tel Aviv, Tel-Aviv",8.6,,,0,1,0,0,0,0,0,0,0,0,0,1,0,0,0,0,1,0,0,0,0,0,0,0,0,0,0,0,0,0,0,0,0,0,0,0,0
648,Casbah,"Florentine 3, Tel-Aviv",8.2,32.0563025,34.7674507,0,0,0,0,0,0,0,1,0,0,0,0,0,1,0,0,0,0,0,0,0,0,0,0,0,0,1,0,0,0,0,0,0,0,0,0,0
649,Maracanã,"Through 52, Tel Aviv, Tel-Aviv",9,,,0,0,0,0,0,0,0,0,1,0,0,1,0,0,1,0,0,0,0,0,0,0,0,0,0,0,0,1,0,0,0,0,0,0,0,0,0
650,Panama Pizza & Pasta,"Ibn Gvirol 185, Tel Aviv, Tel-Aviv",8.4,32.0938544,34.7832062,0,0,0,1,1,0,0,0,0,0,0,0,0,0,0,0,0,0,0,0,0,1,0,0,0,0,0,0,0,0,0,0,0,0,0,0,0
651,The 85/15,"The kings of Israel 15, Tel-Aviv",9.4,,,0,0,0,0,0,0,0,1,0,0,0,0,0,0,0,0,0,0,0,0,0,0,0,1,0,0,0,0,0,0,1,0,0,0,0,0,0
652,Zirelson,"Yehuda Maccabi 66 Tel Aviv, Tel-Aviv",8.4,32.0941573,34.7934454,0,0,0,0,0,1,0,1,0,0,0,0,0,0,0,0,0,0,0,0,0,0,0,0,0,0,0,0,1,0,0,0,0,0,0,0,0
653,Beccafico,"Shabazi 49, Tel-Aviv",8.6,32.0629794,34.7670592,0,0,0,1,0,0,0,0,0,0,0,0,0,0,0,0,0,0,0,0,0,0,0,0,0,0,0,0,0,0,0,0,0,0,0,0,0
654,Eisan | ?????,"Rabbi Akiva 22 Tel Aviv, Tel-Aviv",8.2,32.0693614,34.769696,0,0,0,0,0,0,0,0,0,1,0,0,0,0,0,0,0,0,0,0,0,0,1,0,0,0,0,0,0,0,0,0,0,0,0,0,1
655,Grill Bar,"Eilat 45, Tel Aviv, Tel-Aviv",8.8,32.0585458,34.7651646,1,1,0,0,0,0,0,0,0,0,0,1,0,0,0,0,0,0,0,0,0,0,0,0,0,0,0,0,0,0,0,0,1,0,0,0,0
656,Reviva and Celia | Tel Aviv,"Nissim Aloni 10, Tel-Aviv",8,32.0889232,34.7972939,0,0,0,0,1,0,0,1,0,0,0,0,0,0,0,0,0,0,0,0,0,0,0,1,0,0,0,0,0,0,1,0,0,0,0,0,0
657,Grill Night,"Menachem Begin 20, Ramat Gan, Tel-Aviv",7.6,32.0924363,34.8289066,0,0,0,0,0,1,0,0,0,0,0,1,0,1,0,0,0,0,0,0,0,0,0,0,0,0,0,0,0,0,0,0,0,0,0,0,0
658,EZPZ,"Education Boulevard 1, Tel Aviv, Tel-Aviv",7.8,32.0366231,34.7962753,1,0,0,1,0,0,0,0,0,0,0,0,0,0,0,0,0,0,0,0,0,1,0,0,0,0,0,0,0,0,0,0,0,0,0,0,0
659,Fasada,"Dizengoff 196, Tel Aviv, Tel-Aviv",9,32.0862053,34.7749406,1,0,0,0,0,0,0,1,0,0,0,0,0,0,0,0,0,0,0,0,0,0,0,0,0,0,0,0,0,0,0,0,0,0,0,0,0
660,Frug & Co.,"Arlozorov 29, Ramat Gan, Tel-Aviv",9,32.0808067,34.8116597,1,0,0,0,0,0,0,1,0,0,0,0,0,1,0,0,0,0,0,0,0,0,0,0,0,0,0,0,0,0,0,0,0,0,0,0,0
661,The Old North,"Dizenoff 306 Tel Aviv, Tel-Aviv",8.2,32.0947349,34.7766406,0,1,0,0,0,0,0,1,0,0,0,0,0,0,0,0,0,0,0,0,0,0,0,0,0,0,0,0,0,0,0,0,0,0,0,0,0
662,Captain Burger | Givatayim,"1 Brochov St, tonguetime, Tel-Aviv",7.8,32.0724192,34.7743527,0,0,0,0,0,1,0,0,0,0,0,0,0,1,0,0,0,0,0,0,0,0,0,0,0,0,0,0,1,0,0,0,0,0,0,0,0
663,SalaToast | Florentin,"Abarbanel St 35, Tel-Aviv",8.8,32.0566721,34.7672062,1,0,0,0,0,0,0,1,0,0,0,1,0,1,0,0,0,0,0,0,0,0,0,0,0,0,0,0,0,0,0,0,0,0,0,0,0
664,Knaffex | Ibn Gvirol,"Ibn Gvirol 9 Tel Aviv, Tel-Aviv",7.6,32.0720233,34.7817283,0,1,0,0,0,0,0,0,0,0,0,0,0,0,0,0,0,1,0,1,0,0,0,0,0,0,0,0,0,0,0,0,0,0,0,0,0
665,Spicy Tortilla Bar,"Ben Gurion 65 Ramat Gan, Tel-Aviv",8,32.005532,34.8854112,0,0,0,0,0,0,0,1,0,0,0,1,0,1,0,0,0,0,0,0,0,0,0,0,0,0,0,0,0,0,0,0,0,0,0,0,0
666,Vitrina | Ibn Gabirol,"Ibn Gvirol 36 Tel Aviv, Tel-Aviv",8.6,32.0761162,34.7817358,0,0,0,0,0,1,0,0,0,0,0,0,0,0,0,0,0,0,0,0,0,0,0,0,0,0,0,0,1,0,0,0,0,0,0,0,0
667,Fishop,"Kalman Protects 3, Tel-Aviv",8.4,,,0,0,0,0,0,0,0,0,0,0,0,0,0,0,0,0,0,0,0,0,0,0,0,1,0,0,0,0,0,0,1,0,0,0,0,0,0
668,Hadarim | Givatayim,"Through Peace 51, Givatayim, Tel-Aviv",8.4,32.072176,34.808871,0,0,0,0,0,0,0,0,0,0,0,0,0,0,0,0,0,1,0,1,0,0,0,0,0,0,0,0,0,0,0,0,0,0,0,0,0
669,Night Cookie ?? | Tel Aviv,"Carlebach 23 Tel Aviv, Tel-Aviv",8.8,32.068414,34.7829552,0,0,0,0,0,0,0,0,0,0,0,0,0,0,0,0,0,1,0,1,0,0,0,0,1,0,0,0,0,0,0,0,0,0,0,0,0
670,Bali Pizza,"Luria 6, Tel Aviv, Tel-Aviv",8.2,32.0773536,34.7716731,0,0,0,1,1,0,0,0,0,0,0,0,0,0,0,0,0,0,0,0,0,1,0,0,0,0,0,0,0,0,0,0,0,0,0,0,0
671,Marcelos | Tel Aviv,"Rebbe 7, Tel Aviv, Tel-Aviv",7.6,32.0703685,34.768999,0,1,1,0,0,0,0,0,0,0,0,1,0,0,0,0,0,0,0,0,1,0,0,0,0,0,0,0,0,0,0,0,0,0,0,0,0
672,HaKnesset,"Frishman 22, Tel Aviv, Tel-Aviv",8,32.0797322,34.7707178,0,0,0,0,0,1,0,0,0,0,0,0,0,1,0,0,0,0,0,0,0,0,0,0,0,0,0,0,0,0,0,0,0,0,0,0,0
673,Bon Ta'am,"Allenby 56 Tel Aviv, Tel-Aviv",7.6,32.0706039,34.7699812,1,1,0,0,0,0,0,0,0,0,0,0,0,1,0,0,0,0,0,0,0,0,0,0,0,0,0,0,0,0,0,0,0,0,0,0,0
674,Sei Tau,"Dizengoff 169, Tel Aviv, Tel-Aviv",7,32.0842317,34.7741134,0,0,0,0,0,0,0,0,0,0,0,0,0,0,1,0,0,0,0,0,0,0,1,0,0,0,0,0,0,0,0,0,0,1,1,0,0
675,Don Giuseppe,"Givon 13, Tel-Aviv",8.2,32.0701364,34.7850586,0,0,0,1,0,0,0,0,0,0,0,0,0,0,0,0,0,0,0,0,0,1,0,0,0,0,0,0,0,0,0,0,0,0,0,0,0
676,Ha'Safsal,"Bialik 26 Ramat Gan, Tel-Aviv",7.8,32.0813754,34.8151321,0,0,0,0,0,0,0,1,0,0,0,0,0,1,0,0,0,0,0,0,0,0,0,0,0,0,0,0,0,0,0,0,0,0,0,0,0
677,Cafe Roma,"King Gurg 85, Tel Aviv, Tel-Aviv",8,32.0865211,34.7951136,0,0,0,1,1,0,0,0,0,0,0,0,0,0,0,0,0,0,0,0,0,1,0,0,0,0,0,0,0,0,0,0,0,0,0,0,0
678,Juno,"De Haza 1 Tel Aviv, Tel-Aviv",8.2,32.0366231,34.7962753,0,0,0,1,1,0,0,1,0,0,0,0,0,0,0,0,0,0,0,0,0,1,0,0,0,0,0,0,0,0,0,0,0,0,0,0,0
679,Pizzeria Bar,"Dizengoff 98, Tel Aviv, Tel-Aviv",8.2,32.0788932,34.7741309,0,0,0,1,1,0,0,0,0,0,0,0,0,0,0,0,0,0,0,0,0,1,0,0,0,0,0,0,0,0,0,0,0,0,0,0,0
680,Benedict | Sarona,"Champion Kalman Magen 7 Tel Aviv, Tel-Aviv",7.8,32.0714017,34.7864923,0,0,0,0,0,0,0,0,0,0,0,0,1,1,0,0,0,1,0,0,0,0,0,0,0,0,0,0,0,0,0,0,0,0,0,0,0
681,Meat Night,"Tuval 15, Ramat Gan, Tel-Aviv",7.8,32.0861897,34.8031344,0,0,0,0,0,1,0,0,0,0,0,0,0,1,0,0,0,0,0,0,1,0,0,0,0,0,0,0,0,0,0,0,0,0,0,0,0
682,Paris Texas Burger,"Dad Hillel 3, Ramat Gan, Tel-Aviv",8.6,32.080045,34.822585,0,0,0,0,0,1,0,1,0,0,0,0,0,1,0,0,0,0,0,0,0,0,0,0,0,0,0,0,0,0,0,0,0,0,0,0,0
683,Schnitzel Tuval 20,"Tuval 20, Ramat Gan, Tel-Aviv",8.4,32.0874997,34.8034633,1,1,0,0,0,0,0,0,0,0,0,1,0,1,0,0,0,0,0,0,0,0,0,0,0,0,0,0,0,0,0,0,0,0,0,0,0
684,Byron Burger,"Tuval 20, Ramat Gan, Tel-Aviv",8.4,32.0874997,34.8034633,0,0,0,0,0,1,0,0,0,0,0,1,0,0,0,0,0,0,0,0,0,0,0,0,0,0,0,0,0,0,0,0,0,0,0,0,0
685,Ishtabah | Tel Aviv,"Carlebach 39, TA, Tel-Aviv",8.4,32.0703918,34.782424,0,0,0,0,0,0,0,0,0,0,0,0,0,1,0,0,0,0,0,0,1,0,0,1,0,0,0,0,0,0,1,0,0,0,0,0,0
686,Mona Pizza,"Carpenter's port market 12, Tel-Aviv",7.6,,,0,0,0,1,0,0,0,0,0,0,0,0,0,0,0,0,0,0,0,0,0,1,0,0,0,0,0,0,0,0,0,0,0,0,0,0,0
687,Pizza Domino | Frishman,"Frishman 16, Tel Aviv, Tel-Aviv",8.6,32.0798202,34.7695098,0,0,0,1,1,0,0,1,0,0,0,0,0,0,0,0,0,0,0,0,0,1,0,0,0,0,0,0,0,0,0,0,0,0,0,0,0
688,GDB Burger,"Ibn Gvirol 22 Tel Aviv, Tel-Aviv",8.4,32.0738062,34.7819764,1,0,0,0,0,1,0,0,0,0,0,0,0,0,0,0,0,0,0,0,0,0,0,0,0,0,0,0,0,0,0,0,0,0,0,0,0
689,Jachnun Shel Ima,"Isaac Sadeh 34, Tel Aviv, Tel-Aviv",8,,,0,1,0,0,0,0,0,0,0,0,0,0,0,0,0,0,0,0,0,0,0,0,0,0,0,0,0,0,0,0,0,0,0,0,0,0,0
690,Carmel | Tel Aviv,"Hillel Old 18, Tel-Aviv",8.8,,,1,1,0,0,0,1,0,0,0,0,0,0,0,0,0,0,0,0,0,0,0,0,0,0,0,0,0,0,0,0,0,0,0,0,0,0,0
691,Lokal Burger,"Ahad Ha'am 30, Tel Aviv, Tel-Aviv",8.4,32.0638434,34.7717337,0,0,0,0,0,1,0,0,0,0,0,0,0,0,0,0,0,0,0,0,1,0,0,1,0,0,0,0,0,0,1,0,0,0,0,0,0
692,Nelson Cafe Givatayim,"As Canelason 33, Tel-Aviv",8.2,,,0,0,0,0,0,0,0,1,0,0,0,0,0,0,0,0,0,0,0,0,0,0,0,0,0,0,1,1,0,0,0,0,0,0,0,0,0
693,Stefan | Austrian Bakery,"Tchernichovsky 21 Tel Aviv-Jaffa, Tel-Aviv",9,32.0725095,34.7713702,0,0,0,0,0,0,0,0,0,0,0,0,0,0,0,0,0,1,1,1,0,0,0,0,1,0,0,0,0,0,0,0,0,0,0,0,0
694,Food Fair | Dizengoff Center,"King George 75, Tel Aviv, Tel-Aviv",8,32.0755553,34.7761435,1,1,1,0,0,0,0,0,0,0,0,0,0,0,0,0,0,0,0,0,0,0,0,0,0,0,0,0,0,0,0,0,0,0,0,0,0
695,Metro Burger,"Mikve Israel 2, Tel-Aviv",8,32.0619019,34.7738916,0,0,0,0,0,1,0,0,0,0,0,1,0,0,0,0,0,0,0,0,0,0,0,1,0,0,0,0,0,0,1,0,0,0,0,0,0
696,Pizza Gronemann | Ramat Aviv,"Reading 34, Tel-Aviv",8.8,32.1091396,34.7947971,1,0,0,0,0,0,0,1,0,0,0,0,0,0,0,0,0,0,0,0,0,1,0,0,0,0,0,0,0,0,0,0,0,0,0,0,0
697,Theatron Pizza,"Jerusalem Boulevard 5, Jaffa, Tel-Aviv",8.2,32.056379,34.7600186,0,1,0,0,0,0,0,1,0,0,0,0,0,0,0,0,0,0,0,0,0,1,0,0,0,0,0,0,0,0,0,0,0,0,0,0,0
698,Konfa Knafeh & Burekas,"Katznelson 113, Givatayim, Tel-Aviv",8,32.0773514,34.813989,1,1,0,0,0,0,0,0,0,0,0,0,0,0,0,0,0,1,0,0,0,0,0,0,0,0,0,0,0,0,0,0,0,0,0,0,0
699,Sui Sushi,"Brazil 17, Tel-Aviv",7.4,32.1116561,34.7967855,0,0,0,0,0,0,0,0,0,0,0,0,0,0,0,0,0,0,0,0,0,0,0,0,0,0,0,0,0,0,0,0,0,1,1,0,0
700,Thai At Har Sinai,"Mount Sinai 1, Tel-Aviv",8.4,,,0,0,0,0,0,0,0,0,0,0,0,0,0,0,1,0,0,0,0,0,0,0,1,0,0,0,0,0,0,0,0,1,0,0,0,0,0
701,Eats Cafeteria | Sheinkin,"Sheinkin St 20, Tel Aviv, Tel-Aviv",8.8,32.0693771,34.7724094,0,0,0,0,0,0,0,1,0,0,0,0,0,1,0,0,0,0,0,0,0,0,0,0,0,0,1,0,0,0,0,0,0,0,0,0,0
702,Fat Dog,"Bahaulusizers 1, Tel Aviv, Tel-Aviv",8.4,32.0366231,34.7962753,1,0,0,0,0,0,0,0,0,0,0,0,0,1,0,0,0,0,0,0,0,0,0,0,0,0,0,0,1,0,0,0,0,0,0,0,0
703,Israeli Arusa,"Gvirol Stone 3, Tel-Aviv",7.2,32.087631,34.782349,1,1,0,0,0,0,0,0,0,0,0,0,0,0,0,0,0,0,0,0,1,0,0,0,0,0,0,0,0,0,0,0,0,0,0,0,0
704,300 Burger,"Kikar Habima 2, Tel Aviv, Tel-Aviv",8.2,32.0720116,34.7790055,1,0,0,0,0,1,0,0,0,0,0,0,0,1,0,0,0,0,0,0,0,0,0,0,0,0,0,0,0,0,0,0,0,0,0,0,0
705,Pizza Brezza,"Ben Zion Boulevard 3, Tel Aviv, Tel-Aviv",8.8,32.0736792,34.7756498,0,0,0,1,0,0,0,0,1,0,0,0,0,0,0,0,0,0,0,0,0,1,0,0,0,0,0,0,0,0,0,0,0,0,0,0,0
706,M | Muma's Kubane,"Ben Yehuda 124, Tel Aviv, Tel-Aviv",9.4,32.084266,34.7722637,0,0,0,0,0,0,0,0,1,0,0,0,1,0,0,0,0,0,1,0,0,0,0,0,0,0,0,0,0,0,0,0,0,0,0,0,0
707,Tony's Pizza,"Ramat 21, Ramat Gan, Tel-Aviv",7.6,32.068424,34.824785,0,0,0,0,1,0,0,0,0,0,0,1,0,0,0,0,0,0,0,0,0,1,0,0,0,0,0,0,0,0,0,0,0,0,0,0,0
708,R PIZZA,"Weizman 29, Givatayim, Tel-Aviv",8.4,32.0731936,34.808791,0,0,0,0,0,0,0,0,0,0,0,1,0,0,0,0,0,0,0,0,0,1,0,0,0,0,0,0,0,0,0,0,0,0,0,0,0
709,Pizza Bograshov,"Bograshov 13, Tel Aviv, Tel-Aviv",7.6,32.0774305,34.7690306,0,0,0,1,0,0,0,1,0,0,0,0,0,0,0,0,0,0,0,0,0,1,0,0,0,0,0,0,0,0,0,0,0,0,0,0,0
710,Abie,"Lincoln 16, Tel Aviv, Tel-Aviv",8.8,32.0665354,34.7818038,0,0,0,0,0,0,0,1,0,1,0,0,0,0,0,0,0,0,0,0,0,0,0,1,0,0,0,0,0,0,1,0,0,0,0,0,0
711,Lolly Pizza,"209 Bin Avraim, Tel-Aviv",7.4,,,0,0,0,1,0,0,0,0,1,0,0,0,0,0,0,0,0,0,0,0,0,1,0,0,0,0,0,0,0,0,0,0,0,0,0,0,0
712,Cafe 360,"Daine 2nd, Tel Aviv, Tel-Aviv",8.4,,,1,1,0,0,0,0,0,0,0,0,0,0,0,0,0,0,0,0,0,0,0,0,0,0,0,0,0,0,0,0,0,0,1,0,0,0,0
713,Tzur Restaurant,"Lost 13, Tel Aviv, Tel-Aviv",9.2,,,0,0,0,0,0,0,0,0,0,0,0,1,0,0,0,0,0,0,0,0,1,0,0,1,0,0,0,0,0,0,1,0,0,0,0,0,0
714,Hagrill Halohet,"UAV 83 Tel Aviv-Jaffa, Tel-Aviv",7.6,32.049357,34.758355,0,1,0,0,0,0,0,0,0,0,0,1,0,1,0,0,0,0,0,0,0,0,0,0,0,0,0,0,0,0,0,0,0,0,0,0,0
715,Viva Mexico,"Carmel 36, Tel Aviv, Tel-Aviv",7.6,32.0697059,34.7701066,0,0,0,0,0,0,1,0,0,0,0,0,0,0,0,0,0,0,0,0,0,0,0,0,0,0,0,0,0,0,0,0,0,0,0,0,0
716,Dr Ice Cream | TLV,"Allenby 2, Tel Aviv, Tel-Aviv",8.6,32.0733325,34.7653357,0,0,0,0,0,0,0,0,0,0,0,0,0,0,0,0,0,1,0,1,0,0,0,0,1,0,0,0,0,0,0,0,0,0,0,0,0
717,Frena Bashuk,"Rambam 2, Tel Aviv, Tel-Aviv",7.6,32.0682046,34.7684765,1,1,0,0,0,0,0,0,0,0,0,0,0,0,0,0,0,0,0,0,0,0,0,1,0,0,0,0,0,0,1,0,1,0,0,0,0
718,Pasta Cooker,"DLA 7, Tel Aviv, Tel-Aviv",8.4,,,1,0,0,1,1,0,0,0,0,0,0,0,0,0,0,0,0,0,0,0,0,0,0,0,0,0,0,0,0,0,0,0,0,0,0,0,0
719,Casa Del Pepe Pizza | Ramat Gan,"Bialik 46, Ramat Gan, Tel-Aviv",7,32.0838088,34.8143044,0,0,0,1,0,0,0,0,0,0,0,1,0,0,0,0,0,0,0,0,0,1,0,0,0,0,0,0,0,0,0,0,0,0,0,0,0
720,Mercato Della Pizza,"Yahya Capachi 2, Tel Aviv, Tel-Aviv",8,32.1447983,34.8025752,0,0,0,1,1,0,0,0,0,0,0,0,0,0,0,0,0,0,0,0,0,1,0,0,0,0,0,0,0,0,0,0,0,0,0,0,0
721,Tan Thai | Ramat Gan,"Bialik 7 Ramat Gan, Tel-Aviv",6.8,32.0797951,34.8147941,0,0,0,0,0,0,0,0,0,0,0,0,0,0,0,0,0,0,0,0,0,0,1,0,0,0,0,0,0,0,0,1,0,0,0,0,0
722,Dede,"Uriel Akosta 16, Tel Aviv, Tel-Aviv",8.2,32.083073,34.77353,0,0,0,0,0,0,0,1,1,0,0,0,0,0,0,0,0,0,0,0,0,0,0,0,0,0,1,0,0,0,0,0,0,0,0,0,0
723,Maor Pizza,"Ben Eliezer 24, Ramat Gan, Tel-Aviv",8.2,32.0663535,34.8327691,0,0,0,1,0,0,0,0,0,0,0,1,0,0,0,0,0,0,0,0,0,1,0,0,0,0,0,0,0,0,0,0,0,0,0,0,0
724,Goomba | TLV,"Yigal Alon St 94, Tel Aviv, Tel-Aviv",8.2,32.0685272,34.7941568,0,0,0,1,1,0,0,0,0,0,0,0,0,0,0,0,0,0,0,0,0,1,0,0,0,0,0,0,0,0,0,0,0,0,0,0,0
725,Beta Cafe | Ramat Aviv,"Salvador 10 Tel Aviv, Tel-Aviv",8.6,32.106727,34.7969595,0,0,0,0,0,0,0,1,0,0,0,0,1,0,0,0,0,0,0,0,0,0,0,0,0,0,1,0,0,0,0,0,0,0,0,0,0
726,Magazzino,"Menachem Begin 21 Tel Aviv, Tel-Aviv",8.6,32.092743,34.829088,0,0,0,1,1,0,0,1,0,0,0,0,0,0,0,0,0,0,0,0,0,0,0,0,0,0,0,0,0,0,0,0,0,0,0,0,0
727,Habarbanel Pizza | Yigal alon,"Ayalon River 37 Tel Aviv, Tel-Aviv",8,32.08801973,34.80031366,0,0,0,1,1,0,0,0,0,0,0,0,0,0,0,0,0,0,0,0,0,1,0,0,0,0,0,0,0,0,0,0,0,0,0,0,0
728,Habarbanel Pizza | Florentin,"Abarbanel 34 Tel Aviv, Tel-Aviv",7.8,32.0576439,34.7669744,0,0,0,1,1,0,0,0,0,0,0,0,0,0,0,0,0,0,0,0,0,1,0,0,0,0,0,0,0,0,0,0,0,0,0,0,0
729,Mama Shusha | North TLV,"Rodanski 5, Tel-Aviv",8.8,,,0,0,0,1,1,0,0,1,0,0,0,0,0,0,0,0,0,0,0,0,0,0,0,0,0,0,0,0,0,0,0,0,0,0,0,0,0
730,Pizzeria,"Allenby 118, Tel Aviv, Tel-Aviv",8.4,32.0632709,34.7729446,1,0,0,0,0,0,0,0,0,0,0,0,0,0,0,0,0,0,0,0,0,1,0,0,0,0,0,0,1,0,0,0,0,0,0,0,0
731,Golda | Levontin,"Hope Israel 22, Tel-Aviv",9,32.0813643,34.774836,0,0,0,0,0,0,0,0,0,0,0,0,0,0,0,0,0,1,0,0,0,0,0,0,1,0,0,0,0,0,0,0,0,0,0,0,0
732,Zuzik | By Zuk Farm,"Moshe Perlok St 5, Tel Aviv, Tel-Aviv",8.4,32.1142285,34.7911755,0,0,0,0,0,1,0,1,0,0,0,0,0,1,0,0,0,0,0,0,0,0,0,1,0,0,0,0,0,0,1,0,0,0,0,0,1
733,Holstein Burger,"Good day 17, Tel Aviv, Tel-Aviv",9,,,1,0,0,0,0,1,0,0,0,0,0,0,0,0,0,0,0,0,0,0,0,0,0,0,0,0,0,0,0,0,0,0,0,0,0,0,0
734,Goocha | Dizengoff,"Dizengoff 171, Tel-Aviv",8.8,32.0846488,34.7742087,0,0,0,0,1,0,0,1,0,0,0,0,0,0,0,0,0,0,0,0,0,0,0,1,0,0,0,0,0,0,1,0,0,0,0,0,0
735,The Green Cat,"Levontin 9 Tel Aviv, Tel-Aviv",9,32.0617761,34.7748689,0,0,0,0,0,0,0,0,1,1,0,0,0,0,0,0,0,0,0,0,0,1,0,0,0,0,0,0,0,0,0,0,0,0,0,0,0
736,Ceviche Ba-Kerem,"Chaim Habash 31, Tel Aviv, Tel-Aviv",8.8,32.0615524,34.7789066,1,0,0,0,0,0,0,1,0,0,0,0,0,0,0,0,0,0,0,0,0,0,0,1,0,0,0,0,0,0,1,0,0,0,0,0,0
737,Pizza 85 | Eighty Five,"Mohliber 43, Tel Aviv, Tel-Aviv",8.8,,,0,0,0,1,0,0,0,0,0,1,0,0,0,0,0,0,0,0,0,0,0,1,0,0,0,0,0,0,0,0,0,0,0,0,0,0,0
738,Pizza Gronemann | Rothchild,"DLA 7 Tel Aviv, Tel-Aviv",8.8,,,1,0,0,0,0,0,0,1,0,0,0,0,0,0,0,0,0,0,0,0,0,1,0,0,0,0,0,0,0,0,0,0,0,0,0,0,0
739,Pasta Mia,"Wilson 10, Tel-Aviv",8.2,32.0672736,34.7814233,0,0,0,1,1,0,0,0,1,0,0,0,0,0,0,0,0,0,0,0,0,0,0,0,0,0,0,0,0,0,0,0,0,0,0,0,0
740,Mina Napolitana,"Jaffa 9, Tel Aviv, Tel-Aviv",6.4,32.049357,34.758355,0,0,0,0,1,0,0,1,0,0,0,0,0,0,0,0,0,0,0,0,0,1,0,0,0,0,0,0,0,0,0,0,0,0,0,0,0
741,Anush,"Klachkin 4, Tel Aviv, Tel-Aviv",8.6,32.074711,34.8435966,0,0,0,0,0,1,0,1,0,0,0,0,0,0,0,0,0,0,0,0,0,0,0,0,0,0,0,0,0,0,0,0,0,0,0,0,0
742,La Tigre Pizza,"Rabbi Frankel 9, Tel Aviv, Tel-Aviv",8.6,32.1114333,34.7993082,0,0,0,1,0,0,0,1,0,0,0,0,0,0,0,0,0,0,0,0,0,1,0,0,0,0,0,0,0,0,0,0,0,0,0,0,0
743,Bite Me ??,This is a virtual venue,8.2,,,0,0,0,0,0,0,0,0,0,0,0,0,0,0,0,0,0,1,0,0,0,0,0,0,1,0,0,0,0,0,0,0,0,0,0,0,0
744,Jeffrey's,"Rabbi Frankel 7, Tel Aviv, Tel-Aviv",8.2,32.0572348,34.7675939,1,0,0,0,0,0,0,0,0,1,0,0,0,1,0,0,0,0,0,0,0,0,0,0,0,0,0,0,1,0,0,0,0,0,0,0,0
745,Pizza Fino | Ben-Yehuda,"Ben Yehuda 169, Tel-Aviv",7.8,32.0894774,34.7736684,0,0,0,1,0,0,0,0,0,0,0,1,0,0,1,0,0,0,0,0,0,1,0,0,0,0,0,0,0,0,0,0,0,0,0,0,0
746,Olives Pizza,"UAV 44, Tel Aviv, Tel-Aviv",8.2,32.0349707,34.7863387,0,0,0,1,1,0,0,0,0,0,0,1,0,0,0,0,0,0,0,0,0,1,0,0,0,0,0,0,0,0,0,0,0,0,0,0,0
747,Knafeh Haknufia,"Ibn Gvirol 31, Tel Aviv, Tel-Aviv",8.8,32.0751123,34.7815197,0,1,0,0,0,0,0,0,0,0,0,0,0,0,0,0,0,1,0,0,0,0,0,0,0,0,0,0,0,0,0,0,0,0,0,0,0
748,Shiroko Pizza,"DLA 7, Tel Aviv, Tel-Aviv",7.6,,,1,0,0,1,0,0,0,0,0,0,0,0,0,0,0,0,0,0,0,0,0,1,0,0,0,0,0,0,0,0,0,0,0,0,0,0,0
749,Italkiya BaPishpeshim,"Immigrants Zion 16, Tel Aviv, Tel-Aviv",8.2,32.0955686,34.7741875,0,0,0,1,1,0,0,0,0,0,0,0,0,0,0,0,0,0,0,0,0,0,0,0,0,0,0,0,0,0,0,0,0,0,0,0,0
750,Piezza pizza,"King George 45, Tel-Aviv",8.8,32.0735737,34.7749605,0,0,0,1,0,0,0,0,1,0,0,1,0,0,0,0,0,0,0,0,0,1,0,0,0,0,0,0,0,0,0,0,0,0,0,0,0
751,Yulia,"Julia in the harbor, Tel-Aviv",9,,,0,1,0,0,0,0,0,0,0,0,0,0,1,0,0,0,0,0,0,0,0,0,0,0,0,0,0,0,0,0,0,0,0,0,0,0,0
752,Shishko,"Has Sinai 2, Tel-Aviv",8.8,,,1,1,0,0,0,0,0,0,0,0,0,0,0,0,0,0,0,0,0,0,0,0,0,0,0,0,0,0,0,0,0,0,0,0,0,0,0
753,Mutfak,"Way Solomon 110 Tel Aviv Jaffa, Tel-Aviv",9.4,,,1,1,0,0,0,0,0,0,0,0,0,0,0,0,0,0,0,0,0,0,0,0,0,1,0,0,0,0,0,0,1,0,0,0,0,0,0
754,Baba Pita,"Negba 28, Ramat Gan, Tel-Aviv",8.2,32.070167,34.8261975,1,0,0,0,0,0,0,0,0,0,0,1,0,0,0,0,0,0,0,0,0,0,0,1,0,0,0,0,1,0,1,0,0,0,0,0,0
755,Shuffle,"Florentine 19, Tel Aviv, Tel-Aviv",8.4,32.0562907,34.768976,1,0,0,0,0,0,0,0,1,0,0,0,0,1,0,0,0,0,0,0,0,0,0,0,0,0,0,0,0,0,0,0,0,0,0,0,0
756,Pizza Tommy,"Allenby 113, Tel Aviv, Tel-Aviv",7.4,32.0627306,34.7734003,0,0,0,1,0,0,0,0,0,0,0,1,0,0,0,0,0,0,0,0,0,1,0,0,0,0,0,0,0,0,0,0,0,0,0,0,0
757,Lulu & Co,"Rothschild 37, Tel Aviv, Tel-Aviv",7.6,32.0639196,34.7738327,0,0,0,0,0,0,0,0,0,0,0,1,0,0,0,0,0,1,0,1,0,0,0,0,1,0,0,0,0,0,0,0,0,0,0,0,0
758,Hummus Al Kalha Jaffa,"A whole way 3, Tel-Aviv",9,,,0,0,0,0,0,0,0,0,0,0,0,0,0,0,0,0,1,0,0,0,0,0,0,0,0,0,0,0,0,0,0,0,0,0,0,0,0
759,Avazim Restaurant | Tel Aviv Port,"KG Jurgen boat 3, Tel-Aviv",7.2,,,1,1,0,0,0,0,0,0,0,0,0,0,0,0,0,0,0,0,0,0,0,0,0,0,0,0,0,0,0,0,0,0,0,0,0,0,0
760,Gagarin Green,"Kibbutz Postcards 13, Tel Aviv, Tel-Aviv",8.6,32.0815,34.7723,0,0,0,0,0,1,0,0,1,1,0,0,0,0,0,0,0,0,0,0,0,0,0,0,0,0,0,0,0,0,0,0,0,0,0,0,0
761,Saluf and Sons,"Nahalat Benjamin 80, Tel-Aviv",8.4,32.0600618,34.7724446,1,1,0,0,0,0,0,0,0,0,0,0,0,0,1,0,0,0,0,0,0,0,0,0,0,0,0,0,0,0,0,0,0,0,0,0,0
762,G-27,"Golani 27 Ramat Gan, Tel-Aviv",8.8,32.0548427,34.813958,0,0,0,1,1,0,0,1,0,0,0,0,0,0,0,0,0,0,0,0,0,0,0,0,0,0,0,0,0,0,0,0,0,0,0,0,0
763,Lieselotte Cafe,"Rinse 20, Tel Aviv, Tel-Aviv",9.2,,,0,0,0,0,0,0,0,0,0,0,0,0,0,0,0,0,0,0,0,0,0,0,0,0,0,0,1,0,0,0,0,0,0,0,0,0,0
764,Margoza,"Rabbi Yochanan 3 Tel Aviv Jaffa, Tel-Aviv",8,32.0526823,34.7562428,1,0,0,0,0,1,0,0,0,0,0,0,0,0,0,0,0,0,0,0,0,0,0,0,0,0,0,0,0,0,0,0,0,0,0,0,0
765,Villa Mare | TLV,"Herbert Samuel 88, Tel Aviv, Tel-Aviv",8,32.0640457,34.7624285,0,1,0,1,1,0,0,0,0,0,0,0,0,0,0,0,0,0,0,0,0,0,0,0,0,0,0,0,0,0,0,0,0,0,0,0,0
766,Cafe Johnny,"Katznelson 125 Givatayim, Tel-Aviv",9.4,32.0769164,34.8156282,0,0,0,0,1,0,0,0,0,0,0,0,1,1,0,0,0,0,0,0,0,0,0,0,0,0,0,0,0,0,0,0,0,0,0,0,0
767,Pizza Chepe,"I am honest, Tel-Aviv",7.2,,,0,0,0,1,1,0,0,0,0,0,0,0,0,0,0,0,0,0,0,0,0,1,0,0,0,0,0,0,0,0,0,0,0,0,0,0,0
768,Pizza Mimi,"Nakhman St 6, Tel-Aviv",7,32.0523759,34.7558058,1,0,0,1,0,0,0,0,0,0,0,0,0,0,0,0,0,0,0,0,0,1,0,0,0,0,0,0,0,0,0,0,0,0,0,0,0
769,Basarela,"UAV 83, Tel Aviv, Tel-Aviv",5.8,,,1,0,0,0,0,0,0,0,0,0,0,1,0,1,0,0,0,0,0,0,0,0,0,0,0,0,0,0,0,0,0,0,0,0,0,0,0
770,Mochikva,"Ben Yehuda 89, Tel Aviv, Tel-Aviv",8.8,32.0827212,34.7711947,0,0,0,0,0,0,0,0,0,0,0,0,0,0,0,0,0,1,0,1,0,0,0,0,0,0,0,0,0,0,0,0,0,0,0,0,0
771,Pizza Karina,"????? 2, Tel-Aviv",8.8,32.083676,34.8162078,1,0,0,1,0,0,0,1,0,0,0,0,0,0,0,0,0,0,0,0,0,1,0,0,0,0,0,0,0,0,0,0,0,0,0,0,0
772,Pizza El Gattuso,"Yehieli 5, Tel Aviv Jaffa, Tel-Aviv",7.6,32.0607352,34.7641961,1,0,0,1,0,0,0,0,0,0,0,0,0,0,0,0,0,0,0,0,0,1,0,0,0,0,0,0,0,0,0,0,0,0,0,0,0
773,Vitosha,"Judaic Judea 3, Tel-Aviv",8.2,,,0,0,1,0,0,0,0,0,0,0,0,0,0,0,0,0,0,0,0,0,1,0,0,0,0,0,0,0,0,0,0,0,1,0,0,0,0
774,Barbunia Restaurant,"Ben Yehuda 163, Tel Aviv, Tel-Aviv",8.2,32.0889422,34.7734291,0,1,0,0,0,0,0,1,0,0,0,0,0,0,0,0,0,0,0,0,0,0,0,1,0,0,0,0,0,0,1,0,0,0,0,0,0
775,Yan Sushi House,"Ben Gurion Boulevard 40, Tel-Aviv",8.2,32.0842657,34.7741235,0,0,0,0,0,0,0,0,0,0,0,0,0,0,0,0,0,0,0,0,0,0,0,0,0,0,0,0,0,0,0,1,0,1,1,0,0
776,Pizza Har Sinai,"Nahalat Benjamin 55, Tel Aviv, Tel-Aviv",8,32.0642714,34.7713772,1,0,0,1,0,0,0,0,0,0,0,0,0,0,0,0,0,0,0,0,0,1,0,0,0,0,0,0,0,0,0,0,0,0,0,0,0
777,Akiko | North TLV,"Dad Ahimair 17 Tel Aviv, Tel-Aviv",8.8,,,0,0,0,0,0,0,0,0,0,0,0,0,0,0,0,0,0,0,0,0,0,0,1,0,0,0,0,0,0,0,0,0,0,1,1,0,1
778,Sushi Yoko,"Florentine 5, Tel Aviv, Tel-Aviv",7.6,32.0562879,34.7677873,0,0,0,0,0,0,0,0,0,0,0,0,0,0,0,0,0,0,0,0,0,0,1,0,0,0,0,0,0,0,0,0,0,1,1,0,0
779,Viking,"Ben Yehuda 6, Tel Aviv, Tel-Aviv",8.8,32.0736081,34.7684018,0,0,1,0,0,0,0,0,0,0,0,0,0,0,1,0,0,0,0,0,0,0,0,0,0,0,0,0,0,0,0,0,0,0,0,0,0
780,Sender | Levinsky,"Levinsky 54, Tel-Aviv",8.6,32.0592395,34.7737513,0,0,1,0,0,0,0,0,0,0,0,1,0,0,1,0,0,0,0,0,0,0,0,0,0,0,0,0,0,0,0,0,0,0,0,0,0
781,Bino Bepita | Dr. Shakshuka,"House of Eshel 3 Tel Aviv, Tel-Aviv",7.8,32.0622215,34.7828979,0,0,0,0,0,0,0,0,0,0,0,1,0,0,0,0,1,0,0,0,0,0,0,0,0,0,0,0,0,0,0,0,0,0,0,0,0
782,Kalamata,"Ancient Square 10, Jaffa, Tel-Aviv",8.6,32.049357,34.758355,0,1,0,0,0,0,0,1,0,1,0,0,0,0,0,0,0,0,0,0,0,0,0,0,0,0,0,0,0,0,0,0,0,0,0,0,0
783,Café Shneor,"Pinsker 20, Tel-Aviv",8.4,32.0745105,34.7704799,0,0,0,0,0,0,0,0,0,0,0,0,1,0,0,0,0,0,0,0,0,0,0,0,0,0,1,0,0,0,0,0,0,0,0,0,0
784,Jackie's | Pizza Chef,"Rothschild Boulevard 39, Tel-Aviv",7.2,32.0640188,34.7740979,1,0,0,1,0,0,0,0,0,0,0,0,0,0,0,0,0,0,0,0,0,1,0,0,0,0,0,0,0,0,0,0,0,0,0,0,0
785,Almaz Mendel,"Rabbi Frankel 4, Tel-Aviv",8.8,32.1113661,34.7995848,0,0,0,0,0,0,0,0,1,1,0,0,0,0,0,0,0,0,0,0,0,0,0,0,0,0,0,0,0,0,0,0,0,0,0,0,0
786,Cafe Shaked | Flea Market Jaffa,"Yehuda Margosa 8, Tel-Aviv",8.4,32.0525762,34.7562604,0,0,0,0,1,0,0,1,0,0,0,1,0,0,0,0,0,0,0,0,0,1,0,0,0,0,0,0,0,0,0,0,0,0,0,0,0
787,Tash and Tasha,"The station complex, building 5, Tel-Aviv",6.8,,,1,0,0,0,0,0,0,1,0,0,0,0,0,0,0,0,0,0,0,0,0,0,0,0,0,0,0,0,0,0,0,0,0,0,0,0,1
788,Yassou Tel Aviv | Greek Kitchen,"The Yarkon 105, Tel-Aviv",8.2,32.0800132,34.7682095,0,1,0,0,0,0,0,0,0,1,0,0,0,0,0,0,0,0,0,0,0,0,0,1,0,0,0,0,0,0,1,0,1,0,0,0,0
789,Rendezvous,"Lilienblum 1 Tel Aviv, Tel-Aviv",7.8,32.0619948,34.7670068,0,0,0,0,1,0,0,1,0,0,0,1,0,0,0,0,0,0,0,0,0,0,0,0,0,0,0,0,0,0,0,0,0,0,0,0,0
790,Serafina | North TLV,"Einstely 10 Tel Aviv, Tel-Aviv",8.4,,,0,0,0,1,1,0,0,0,0,0,0,0,0,0,0,0,0,0,0,0,0,1,0,0,0,0,0,0,0,0,0,0,0,0,0,0,0
791,COFFEEBAR,"Handsluscases 13, Tel-Aviv",8.8,,,0,0,0,0,1,0,0,1,0,0,0,0,0,0,0,1,0,0,0,0,0,0,0,0,0,0,0,0,0,0,0,0,0,0,0,0,0
792,Saone Rhone,"Yehuda Halevi 44 Tel Aviv, Tel-Aviv",9.4,32.0615364,34.7727553,1,0,0,0,0,0,0,1,1,0,0,0,0,0,0,0,0,0,0,0,0,0,0,0,0,0,0,0,0,1,0,0,0,0,0,0,0
793,Pizza PIZZOT | Alla Pala Style,"Herzl 20, Tel-Aviv",8.8,32.0613525,34.7702314,0,0,0,1,0,0,0,0,1,0,0,0,0,0,0,0,0,0,0,0,0,1,0,0,0,0,0,0,0,0,0,0,0,0,0,0,0
794,????? | Salata,"Noam 4, Jaffa, Tel-Aviv",9.4,32.0519593,34.757409,0,0,0,0,0,0,0,1,1,1,0,0,0,0,0,0,0,0,0,0,0,0,0,0,0,0,0,0,0,0,0,0,0,0,0,0,0
795,Faruk BaShuk,"Rabbi Nachman 6, Tel-Aviv",7.6,32.0797802,34.8368502,0,1,0,1,0,0,0,0,0,0,0,0,0,0,0,0,0,0,0,0,0,0,0,0,0,0,0,0,0,0,0,0,0,0,0,0,0
796,Par Derriere,"Bat Ami 7, Tel-Aviv",8.4,32.0553491,34.7599749,0,0,0,1,0,0,0,0,0,0,0,0,0,0,0,0,0,0,0,0,0,0,0,1,0,0,0,0,0,0,1,0,0,0,0,0,0
797,Coco Bambino,"Hillel Old 12 Tel Aviv, Tel-Aviv",8.2,32.1039053,34.7937296,0,1,0,1,1,0,0,0,0,0,0,0,0,0,0,0,0,0,0,0,0,0,0,0,0,0,0,0,0,0,0,0,0,0,0,0,0
798,Makom Shel Basar,"Shabazi 64 Tel Aviv, Tel-Aviv",8.6,32.0635805,34.7684536,0,0,0,0,0,1,0,0,0,0,0,0,0,0,0,0,0,0,0,0,0,0,0,1,0,0,0,0,0,0,1,0,0,0,0,0,0
799,Sushi Bazel | ???? ???,"Frishman 20 A, Tel Aviv, Tel-Aviv",8.4,32.0797449,34.7703894,0,0,0,0,0,0,0,0,0,0,0,0,0,0,0,0,0,0,0,0,0,0,0,1,0,0,0,0,0,0,1,0,0,1,1,0,0
800,Sora,"Through Peace 53, Givatayim, Tel-Aviv",8.2,32.072176,34.808871,0,0,0,0,0,0,0,1,0,0,0,0,0,0,0,0,0,0,0,0,0,0,0,0,0,0,0,0,0,0,0,0,0,1,1,0,0
801,Giuseppe Pizza,"Haim Vital 1 Tel Aviv, Tel-Aviv",8.2,32.0567514,34.7679421,0,0,0,1,0,0,0,0,0,0,0,0,0,0,0,0,0,0,0,0,0,1,0,0,0,0,0,0,0,0,0,0,0,0,0,0,0
802,TOKYO CLUB,"Rothschild 45 Tel Aviv, Tel-Aviv",8.4,32.0642807,34.774554,0,0,0,0,0,0,0,0,0,0,0,0,0,0,0,0,0,0,0,0,0,0,0,1,0,0,0,0,0,0,1,0,0,1,1,0,0
803,Aja,"Florentine 34, Tel Aviv, Tel-Aviv",7.4,32.0562501,34.7703142,0,0,0,0,0,0,0,1,1,0,0,0,0,1,0,0,0,0,0,0,0,0,0,0,0,0,0,0,0,0,0,0,0,0,0,0,0
804,Ouzeria,"Matalon ST 44, Tel Aviv, Tel-Aviv",8.2,32.058724,34.7727972,0,1,0,0,0,0,0,0,0,1,0,0,0,0,0,0,0,0,0,0,0,0,0,0,0,0,0,0,0,0,0,0,0,0,0,0,0
805,Social Club,"Rothschild 45, Tel Aviv, Tel-Aviv",8,32.0642807,34.774554,0,0,0,0,1,0,0,0,0,0,0,0,0,0,0,0,0,0,0,0,0,0,0,1,0,0,0,0,0,0,1,0,0,0,0,0,0
806,Babette,"Chafetz Chaim 8, Tel Aviv, Tel-Aviv",9,32.0511923,34.7774813,0,0,0,0,0,0,0,0,0,0,0,0,0,0,0,0,0,1,0,0,0,0,0,0,0,0,0,0,0,0,0,0,0,0,0,0,0
807,TYO,"Shabazi 58, Tel-Aviv",8,32.0633229,34.7679873,0,0,0,0,0,0,0,0,0,0,0,0,0,0,0,0,0,0,0,0,0,0,0,1,0,0,0,0,0,0,1,0,0,1,1,0,0
808,Bhagsu Cake | Yirmiyahu,"Jeremiah 13, Tel Aviv",9.2,32.094832,34.775646,0,0,0,0,0,0,0,0,0,0,0,0,0,0,0,0,0,1,0,1,0,0,0,0,0,0,0,0,0,1,0,0,0,0,0,0,0
809,Doron's Jachnun | Givatayim,"Katznelson 61 Givatayim, Tel-Aviv",9,32.0756575,34.8079498,0,1,1,0,0,0,0,0,0,1,0,0,0,0,0,0,0,0,0,0,0,0,0,0,0,0,0,0,0,0,0,0,0,0,0,0,0
810,Bhagsu Cake | Tel Aviv,"King George 4, Tel-Aviv",9.2,32.073592,34.7751122,0,0,0,0,0,0,0,0,0,0,0,0,0,0,0,0,0,1,0,1,0,0,0,0,0,0,0,0,0,1,0,0,0,0,0,0,0
811,Wok Republic | Allenby,"Jonah Prophet 48, Tel Aviv, Tel-Aviv",8.6,,,1,0,0,0,0,0,0,0,1,0,0,0,0,0,0,0,0,0,0,0,0,0,1,0,0,0,0,0,0,0,0,1,0,0,0,0,0
812,SoBing | Bograshov,"Bograshov 106, Tel Aviv, Tel-Aviv",8,32.0739902,34.7751161,0,0,0,0,0,0,0,0,0,0,0,0,0,0,0,0,0,1,0,0,0,0,0,0,1,0,0,0,0,0,0,0,0,0,0,0,0
813,Abu Knafeh | Ramat Gan,"Bialik 55, Ramat Gan, Tel-Aviv",8,32.0843221,34.8132054,0,1,0,0,0,0,0,0,1,0,0,0,0,0,0,0,0,1,0,0,0,0,0,0,0,0,0,0,0,0,0,0,0,0,0,0,0
814,McDonald's® Tel Aviv Port,"Hangar 17, Tel Aviv Port, Tel-Aviv",6.4,32.096203,34.773158,0,0,0,0,0,1,0,0,0,0,0,0,0,0,0,0,0,0,0,0,0,0,0,0,0,0,0,0,0,0,0,0,0,0,0,0,1
815,Mucha Pizza,"Ibn Gvirol 19, Tel-Aviv",7.8,32.0731978,34.7816539,0,0,0,1,0,0,0,1,0,0,0,0,0,0,0,0,0,0,0,0,0,1,0,0,0,0,0,0,0,0,0,0,0,0,0,0,0
816,Pasta Basta | Shuk HaCarmel,"Carmel 43, Tel Aviv, Tel-Aviv",8.2,32.0697059,34.7701066,1,0,0,1,1,0,0,0,0,0,0,0,0,0,0,0,0,0,0,0,0,0,0,0,0,0,0,0,0,0,0,0,0,0,0,0,0
817,Dabush | B.S.R,"Ben Gurion 1, Bnei Brak, Tel-Aviv",8,32.0814908,34.8705671,1,1,0,0,0,0,0,0,0,0,0,1,0,0,0,0,0,0,0,0,0,0,0,0,0,0,0,0,0,0,0,0,0,0,0,0,0
818,Raw Bowl | TLV,"Four 4, Tel Aviv, Tel-Aviv",9,32.074711,34.8435966,0,0,0,0,0,0,0,0,0,0,0,0,0,0,0,0,0,0,0,0,0,0,0,0,0,1,0,1,0,0,0,0,0,0,0,1,0
819,Rainbow ?? King George,"King George 77 Tel Aviv, Tel-Aviv",9,32.0755815,34.77613,0,0,0,0,0,1,0,0,1,1,0,0,0,0,0,0,0,0,0,0,0,0,0,0,0,0,0,0,0,0,0,0,0,0,0,0,0
820,Pizza Yoav,"Shankin 51 Tel Aviv, Tel-Aviv",8,,,1,0,0,0,0,0,0,0,0,1,0,0,0,0,0,0,0,0,0,0,0,1,0,0,0,0,0,0,0,0,0,0,0,0,0,0,0
821,La Goffre | Allenby,"Allenby 47, Tel Aviv, Tel-Aviv",8.4,32.0703077,34.7703935,0,0,0,0,0,0,0,0,0,0,0,0,0,0,0,0,0,1,0,0,0,0,0,0,1,0,0,0,0,0,0,0,0,0,0,0,0
822,Landwer | TLV Port,"C. Yard of Boat 2, Tel Aviv Port, Tel-Aviv",8.2,32.096203,34.773158,0,0,0,0,0,0,0,1,0,0,0,0,0,1,0,0,0,0,0,0,0,0,0,0,0,0,1,0,0,0,0,0,0,0,0,0,1
823,Agadir | Nachalat Binyamin,"Nahalat Benjamin 2, Tel-Aviv",8,32.0693824,34.7702283,0,0,0,0,0,1,0,0,0,0,0,0,0,0,0,0,0,0,0,0,0,0,0,0,0,0,0,0,1,0,0,0,0,0,0,0,0
824,Greco Beach | Frishman,"Solomon Lapa 17, Tel-Aviv",8.4,32.0607244,34.7794411,0,1,0,0,0,0,0,0,0,0,0,0,0,0,0,0,0,0,0,0,0,0,0,0,0,0,0,0,0,0,0,0,1,0,0,0,0
825,Vitrina Lilienblum,"Lilienblum 40, Tel-Aviv",8.6,32.0621891,34.7719163,0,0,0,0,0,1,0,0,0,0,0,0,0,0,0,0,0,0,0,0,0,0,0,0,0,0,0,0,1,0,0,0,0,0,0,0,0
826,Burgeranch | Menora,"Yigal Alon 51, Tel Aviv, Tel-Aviv",6.6,32.0614947,34.7915149,0,0,0,0,0,1,0,0,0,0,0,1,0,0,0,0,0,0,0,0,0,0,0,0,0,0,0,0,0,0,0,0,0,0,0,0,1
827,Mexicana | Bograshov,"Ben Yehuda 41, Tel-Aviv",8.4,32.0777982,34.7684074,1,0,0,0,0,0,1,0,0,0,0,0,0,0,0,0,0,0,0,0,0,0,0,0,0,0,0,0,0,0,0,0,0,0,0,0,1
828,Israeli Arusa | Etzel,"UAV, 78, Tel Aviv, Tel-Aviv",9.6,,,1,1,0,0,0,0,0,0,0,0,0,0,0,0,0,0,0,0,0,0,1,0,0,0,0,0,0,0,0,0,0,0,0,0,0,0,0
